{
  "type": "FeatureCollection",
  "license": "public-domain",
  "attribution": "Sketch geometry, not survey: eyeballed from the research note for #151's drawing.",
  "features": [
    {
      "type": "Feature",
      "properties": {
        "kind": "land"
      },
      "geometry": {
        "type": "Polygon",
        "coordinates": [
          [
            [
              4.242,
              47.282999999999994
            ],
            [
              4.76,
              47.282999999999994
            ],
            [
              4.76,
              47.791000000000004
            ],
            [
              4.242,
              47.791000000000004
            ],
            [
              4.242,
              47.282999999999994
            ]
          ]
        ]
      }
    },
    {
      "type": "Feature",
      "properties": {
        "kind": "contour",
        "elevation": 300
      },
      "geometry": {
        "type": "LineString",
        "coordinates": [
          [
            4.54782,
            47.537
          ],
          [
            4.54458,
            47.54182
          ],
          [
            4.54642,
            47.54741
          ],
          [
            4.5424,
            47.5522
          ],
          [
            4.53436,
            47.55514
          ],
          [
            4.52751,
            47.55809
          ],
          [
            4.52089,
            47.56129
          ],
          [
            4.51339,
            47.56424
          ],
          [
            4.50438,
            47.56438
          ],
          [
            4.49578,
            47.56337
          ],
          [
            4.48687,
            47.56371
          ],
          [
            4.47728,
            47.56342
          ],
          [
            4.47038,
            47.5597
          ],
          [
            4.46634,
            47.55476
          ],
          [
            4.46007,
            47.55131
          ],
          [
            4.45782,
            47.54646
          ],
          [
            4.45406,
            47.54197
          ],
          [
            4.45105,
            47.537
          ],
          [
            4.45259,
            47.53187
          ],
          [
            4.45504,
            47.52692
          ],
          [
            4.46137,
            47.52315
          ],
          [
            4.46315,
            47.51755
          ],
          [
            4.47307,
            47.51636
          ],
          [
            4.47745,
            47.51079
          ],
          [
            4.48617,
            47.50885
          ],
          [
            4.49596,
            47.51174
          ],
          [
            4.50473,
            47.50746
          ],
          [
            4.5138,
            47.50892
          ],
          [
            4.52066,
            47.51298
          ],
          [
            4.52914,
            47.51466
          ],
          [
            4.53493,
            47.51857
          ],
          [
            4.54144,
            47.52215
          ],
          [
            4.54082,
            47.52784
          ],
          [
            4.54743,
            47.53187
          ],
          [
            4.54782,
            47.537
          ]
        ]
      }
    },
    {
      "type": "Feature",
      "properties": {
        "kind": "contour",
        "elevation": 340
      },
      "geometry": {
        "type": "LineString",
        "coordinates": [
          [
            4.53353,
            47.537
          ],
          [
            4.53683,
            47.54099
          ],
          [
            4.53374,
            47.54457
          ],
          [
            4.53098,
            47.54811
          ],
          [
            4.52563,
            47.55053
          ],
          [
            4.52196,
            47.55384
          ],
          [
            4.51651,
            47.55619
          ],
          [
            4.51065,
            47.55867
          ],
          [
            4.50307,
            47.5562
          ],
          [
            4.49689,
            47.55644
          ],
          [
            4.48977,
            47.55781
          ],
          [
            4.48479,
            47.55469
          ],
          [
            4.47788,
            47.55396
          ],
          [
            4.4751,
            47.55014
          ],
          [
            4.46815,
            47.54842
          ],
          [
            4.46727,
            47.54434
          ],
          [
            4.46343,
            47.54096
          ],
          [
            4.46241,
            47.537
          ],
          [
            4.46695,
            47.53342
          ],
          [
            4.46534,
            47.52923
          ],
          [
            4.46812,
            47.52557
          ],
          [
            4.47334,
            47.52293
          ],
          [
            4.47716,
            47.51949
          ],
          [
            4.48283,
            47.51704
          ],
          [
            4.49076,
            47.5182
          ],
          [
            4.4967,
            47.51636
          ],
          [
            4.50346,
            47.51537
          ],
          [
            4.50932,
            47.51803
          ],
          [
            4.51521,
            47.51931
          ],
          [
            4.52108,
            47.52084
          ],
          [
            4.52749,
            47.52249
          ],
          [
            4.53075,
            47.52598
          ],
          [
            4.53198,
            47.52983
          ],
          [
            4.53424,
            47.53329
          ],
          [
            4.53353,
            47.537
          ]
        ]
      }
    },
    {
      "type": "Feature",
      "properties": {
        "kind": "contour",
        "elevation": 380
      },
      "geometry": {
        "type": "LineString",
        "coordinates": [
          [
            4.52593,
            47.537
          ],
          [
            4.52424,
            47.53962
          ],
          [
            4.52544,
            47.54271
          ],
          [
            4.52118,
            47.54459
          ],
          [
            4.51991,
            47.54751
          ],
          [
            4.51454,
            47.54815
          ],
          [
            4.51142,
            47.55028
          ],
          [
            4.50695,
            47.55113
          ],
          [
            4.50234,
            47.55161
          ],
          [
            4.49774,
            47.55114
          ],
          [
            4.49331,
            47.55061
          ],
          [
            4.4887,
            47.55014
          ],
          [
            4.4842,
            47.54911
          ],
          [
            4.48165,
            47.54669
          ],
          [
            4.4789,
            47.54456
          ],
          [
            4.47528,
            47.54255
          ],
          [
            4.47617,
            47.53958
          ],
          [
            4.47608,
            47.537
          ],
          [
            4.47619,
            47.53442
          ],
          [
            4.47606,
            47.53163
          ],
          [
            4.47863,
            47.52934
          ],
          [
            4.48237,
            47.52769
          ],
          [
            4.48571,
            47.52604
          ],
          [
            4.48772,
            47.52272
          ],
          [
            4.49303,
            47.52282
          ],
          [
            4.49752,
            47.52151
          ],
          [
            4.5022,
            47.52328
          ],
          [
            4.50655,
            47.52368
          ],
          [
            4.51217,
            47.52285
          ],
          [
            4.51644,
            47.5244
          ],
          [
            4.51774,
            47.52764
          ],
          [
            4.52211,
            47.52907
          ],
          [
            4.52528,
            47.53133
          ],
          [
            4.52667,
            47.53411
          ],
          [
            4.52593,
            47.537
          ]
        ]
      }
    },
    {
      "type": "Feature",
      "properties": {
        "kind": "contour",
        "elevation": 400
      },
      "geometry": {
        "type": "LineString",
        "coordinates": [
          [
            4.51419,
            47.537
          ],
          [
            4.51561,
            47.53869
          ],
          [
            4.51416,
            47.54018
          ],
          [
            4.51352,
            47.54185
          ],
          [
            4.51076,
            47.54268
          ],
          [
            4.50928,
            47.54411
          ],
          [
            4.50685,
            47.54496
          ],
          [
            4.50418,
            47.54551
          ],
          [
            4.50132,
            47.54527
          ],
          [
            4.49868,
            47.54527
          ],
          [
            4.49572,
            47.54572
          ],
          [
            4.49301,
            47.54513
          ],
          [
            4.49069,
            47.54414
          ],
          [
            4.48871,
            47.54296
          ],
          [
            4.48609,
            47.54199
          ],
          [
            4.48661,
            47.54
          ],
          [
            4.48513,
            47.53861
          ],
          [
            4.48572,
            47.537
          ],
          [
            4.48485,
            47.53536
          ],
          [
            4.48547,
            47.53374
          ],
          [
            4.48786,
            47.53265
          ],
          [
            4.48805,
            47.53069
          ],
          [
            4.49111,
            47.53019
          ],
          [
            4.49293,
            47.52878
          ],
          [
            4.49612,
            47.52911
          ],
          [
            4.49868,
            47.52877
          ],
          [
            4.5013,
            47.52887
          ],
          [
            4.50425,
            47.52835
          ],
          [
            4.50627,
            47.52971
          ],
          [
            4.50853,
            47.53046
          ],
          [
            4.51133,
            47.53102
          ],
          [
            4.51396,
            47.532
          ],
          [
            4.51497,
            47.53364
          ],
          [
            4.51569,
            47.5353
          ],
          [
            4.51419,
            47.537
          ]
        ]
      }
    },
    {
      "type": "Feature",
      "properties": {
        "kind": "contour",
        "elevation": 420
      },
      "geometry": {
        "type": "LineString",
        "coordinates": [
          [
            4.50772,
            47.537
          ],
          [
            4.50723,
            47.53778
          ],
          [
            4.50713,
            47.5386
          ],
          [
            4.50697,
            47.5395
          ],
          [
            4.50577,
            47.54005
          ],
          [
            4.5046,
            47.54053
          ],
          [
            4.50359,
            47.54117
          ],
          [
            4.50222,
            47.54151
          ],
          [
            4.50065,
            47.54108
          ],
          [
            4.49924,
            47.54173
          ],
          [
            4.49802,
            47.54104
          ],
          [
            4.49678,
            47.54075
          ],
          [
            4.49506,
            47.54079
          ],
          [
            4.49478,
            47.53976
          ],
          [
            4.49366,
            47.53927
          ],
          [
            4.49345,
            47.53847
          ],
          [
            4.49304,
            47.53775
          ],
          [
            4.49219,
            47.537
          ],
          [
            4.49202,
            47.53614
          ],
          [
            4.49256,
            47.53533
          ],
          [
            4.49329,
            47.53459
          ],
          [
            4.49478,
            47.53424
          ],
          [
            4.49533,
            47.53342
          ],
          [
            4.49661,
            47.53306
          ],
          [
            4.49802,
            47.53297
          ],
          [
            4.49925,
            47.53234
          ],
          [
            4.50065,
            47.53292
          ],
          [
            4.50218,
            47.53256
          ],
          [
            4.5032,
            47.53328
          ],
          [
            4.50423,
            47.53375
          ],
          [
            4.50581,
            47.53393
          ],
          [
            4.50671,
            47.5346
          ],
          [
            4.5075,
            47.53532
          ],
          [
            4.50785,
            47.53615
          ],
          [
            4.50772,
            47.537
          ]
        ]
      }
    },
    {
      "type": "Feature",
      "properties": {
        "kind": "contour",
        "elevation": 300
      },
      "geometry": {
        "type": "LineString",
        "coordinates": [
          [
            4.49812,
            47.564
          ],
          [
            4.49635,
            47.56741
          ],
          [
            4.49688,
            47.57119
          ],
          [
            4.49227,
            47.57366
          ],
          [
            4.48934,
            47.57651
          ],
          [
            4.48623,
            47.57952
          ],
          [
            4.48175,
            47.58175
          ],
          [
            4.47631,
            47.58277
          ],
          [
            4.47053,
            47.58155
          ],
          [
            4.46524,
            47.58316
          ],
          [
            4.45955,
            47.58308
          ],
          [
            4.45522,
            47.5805
          ],
          [
            4.44939,
            47.57984
          ],
          [
            4.44769,
            47.5759
          ],
          [
            4.44201,
            47.57434
          ],
          [
            4.43999,
            47.57098
          ],
          [
            4.44134,
            47.5672
          ],
          [
            4.43649,
            47.564
          ],
          [
            4.43937,
            47.56056
          ],
          [
            4.43879,
            47.55673
          ],
          [
            4.44187,
            47.5536
          ],
          [
            4.44601,
            47.55111
          ],
          [
            4.45089,
            47.54943
          ],
          [
            4.45472,
            47.54686
          ],
          [
            4.4598,
            47.54547
          ],
          [
            4.46527,
            47.54505
          ],
          [
            4.47072,
            47.5451
          ],
          [
            4.47578,
            47.54642
          ],
          [
            4.48048,
            47.54788
          ],
          [
            4.48644,
            47.5483
          ],
          [
            4.48957,
            47.55136
          ],
          [
            4.49167,
            47.55458
          ],
          [
            4.4933,
            47.5577
          ],
          [
            4.49533,
            47.56072
          ],
          [
            4.49812,
            47.564
          ]
        ]
      }
    },
    {
      "type": "Feature",
      "properties": {
        "kind": "contour",
        "elevation": 340
      },
      "geometry": {
        "type": "LineString",
        "coordinates": [
          [
            4.48788,
            47.564
          ],
          [
            4.48997,
            47.56664
          ],
          [
            4.48807,
            47.569
          ],
          [
            4.48707,
            47.57159
          ],
          [
            4.48464,
            47.57375
          ],
          [
            4.48085,
            47.57494
          ],
          [
            4.47719,
            47.57587
          ],
          [
            4.47331,
            47.576
          ],
          [
            4.47008,
            47.57842
          ],
          [
            4.46596,
            47.57813
          ],
          [
            4.46264,
            47.57611
          ],
          [
            4.4587,
            47.57601
          ],
          [
            4.45514,
            47.57495
          ],
          [
            4.45344,
            47.57253
          ],
          [
            4.45117,
            47.5707
          ],
          [
            4.44956,
            47.56859
          ],
          [
            4.44587,
            47.56666
          ],
          [
            4.44629,
            47.564
          ],
          [
            4.44824,
            47.56163
          ],
          [
            4.4491,
            47.55929
          ],
          [
            4.45122,
            47.55732
          ],
          [
            4.45142,
            47.55428
          ],
          [
            4.45571,
            47.55354
          ],
          [
            4.4591,
            47.55251
          ],
          [
            4.46229,
            47.5511
          ],
          [
            4.46608,
            47.55068
          ],
          [
            4.46999,
            47.55017
          ],
          [
            4.47412,
            47.55018
          ],
          [
            4.47726,
            47.55205
          ],
          [
            4.48029,
            47.55354
          ],
          [
            4.48443,
            47.55437
          ],
          [
            4.48453,
            47.55742
          ],
          [
            4.4882,
            47.55897
          ],
          [
            4.49014,
            47.56134
          ],
          [
            4.48788,
            47.564
          ]
        ]
      }
    },
    {
      "type": "Feature",
      "properties": {
        "kind": "contour",
        "elevation": 380
      },
      "geometry": {
        "type": "LineString",
        "coordinates": [
          [
            4.48096,
            47.564
          ],
          [
            4.48023,
            47.56547
          ],
          [
            4.47971,
            47.56692
          ],
          [
            4.47955,
            47.5686
          ],
          [
            4.47693,
            47.56924
          ],
          [
            4.47563,
            47.5705
          ],
          [
            4.47399,
            47.57173
          ],
          [
            4.47122,
            47.57128
          ],
          [
            4.46909,
            47.57156
          ],
          [
            4.46676,
            47.57263
          ],
          [
            4.46467,
            47.57153
          ],
          [
            4.46255,
            47.57103
          ],
          [
            4.46024,
            47.5706
          ],
          [
            4.45834,
            47.56966
          ],
          [
            4.4578,
            47.56806
          ],
          [
            4.45621,
            47.56694
          ],
          [
            4.45584,
            47.56546
          ],
          [
            4.45591,
            47.564
          ],
          [
            4.45548,
            47.5625
          ],
          [
            4.45541,
            47.56086
          ],
          [
            4.45724,
            47.55972
          ],
          [
            4.45856,
            47.55847
          ],
          [
            4.45994,
            47.55714
          ],
          [
            4.4628,
            47.55728
          ],
          [
            4.46464,
            47.5564
          ],
          [
            4.46685,
            47.55602
          ],
          [
            4.46917,
            47.55585
          ],
          [
            4.47166,
            47.55573
          ],
          [
            4.47343,
            47.55699
          ],
          [
            4.475,
            47.55804
          ],
          [
            4.47702,
            47.55872
          ],
          [
            4.47827,
            47.55991
          ],
          [
            4.47924,
            47.5612
          ],
          [
            4.48111,
            47.56242
          ],
          [
            4.48096,
            47.564
          ]
        ]
      }
    },
    {
      "type": "Feature",
      "properties": {
        "kind": "contour",
        "elevation": 300
      },
      "geometry": {
        "type": "LineString",
        "coordinates": [
          [
            4.56133,
            47.508
          ],
          [
            4.56008,
            47.511
          ],
          [
            4.55691,
            47.51346
          ],
          [
            4.5545,
            47.51581
          ],
          [
            4.55304,
            47.51868
          ],
          [
            4.55077,
            47.52167
          ],
          [
            4.54603,
            47.52287
          ],
          [
            4.54092,
            47.52296
          ],
          [
            4.53632,
            47.5234
          ],
          [
            4.53151,
            47.52456
          ],
          [
            4.52689,
            47.52338
          ],
          [
            4.52295,
            47.52166
          ],
          [
            4.51929,
            47.51998
          ],
          [
            4.51605,
            47.51807
          ],
          [
            4.51308,
            47.51597
          ],
          [
            4.50806,
            47.51418
          ],
          [
            4.50883,
            47.5109
          ],
          [
            4.50935,
            47.508
          ],
          [
            4.50849,
            47.50507
          ],
          [
            4.50877,
            47.50199
          ],
          [
            4.51222,
            47.4997
          ],
          [
            4.5151,
            47.4974
          ],
          [
            4.51775,
            47.49476
          ],
          [
            4.52203,
            47.4932
          ],
          [
            4.52738,
            47.49369
          ],
          [
            4.53146,
            47.49116
          ],
          [
            4.53643,
            47.49184
          ],
          [
            4.54157,
            47.49162
          ],
          [
            4.5465,
            47.49255
          ],
          [
            4.54888,
            47.49587
          ],
          [
            4.55394,
            47.49681
          ],
          [
            4.55714,
            47.49918
          ],
          [
            4.55861,
            47.50213
          ],
          [
            4.56005,
            47.505
          ],
          [
            4.56133,
            47.508
          ]
        ]
      }
    },
    {
      "type": "Feature",
      "properties": {
        "kind": "contour",
        "elevation": 340
      },
      "geometry": {
        "type": "LineString",
        "coordinates": [
          [
            4.55045,
            47.508
          ],
          [
            4.54968,
            47.5098
          ],
          [
            4.54901,
            47.51158
          ],
          [
            4.54752,
            47.51315
          ],
          [
            4.54589,
            47.51467
          ],
          [
            4.54432,
            47.51641
          ],
          [
            4.54161,
            47.5174
          ],
          [
            4.53864,
            47.51803
          ],
          [
            4.53559,
            47.51858
          ],
          [
            4.53251,
            47.5179
          ],
          [
            4.52914,
            47.51852
          ],
          [
            4.5261,
            47.51777
          ],
          [
            4.52393,
            47.51621
          ],
          [
            4.52227,
            47.51458
          ],
          [
            4.52006,
            47.51331
          ],
          [
            4.51746,
            47.51194
          ],
          [
            4.5177,
            47.50988
          ],
          [
            4.51591,
            47.508
          ],
          [
            4.51759,
            47.50611
          ],
          [
            4.51777,
            47.50413
          ],
          [
            4.51924,
            47.50238
          ],
          [
            4.52105,
            47.50074
          ],
          [
            4.52325,
            47.49924
          ],
          [
            4.52616,
            47.49831
          ],
          [
            4.52924,
            47.49769
          ],
          [
            4.53233,
            47.4969
          ],
          [
            4.53565,
            47.49702
          ],
          [
            4.53894,
            47.49733
          ],
          [
            4.54121,
            47.49909
          ],
          [
            4.54379,
            47.50002
          ],
          [
            4.54623,
            47.50114
          ],
          [
            4.54823,
            47.50258
          ],
          [
            4.55017,
            47.50414
          ],
          [
            4.54947,
            47.50622
          ],
          [
            4.55045,
            47.508
          ]
        ]
      }
    },
    {
      "type": "Feature",
      "properties": {
        "kind": "contour",
        "elevation": 370
      },
      "geometry": {
        "type": "LineString",
        "coordinates": [
          [
            4.5436,
            47.508
          ],
          [
            4.54319,
            47.50906
          ],
          [
            4.5429,
            47.51012
          ],
          [
            4.542,
            47.51105
          ],
          [
            4.54063,
            47.51172
          ],
          [
            4.53956,
            47.51253
          ],
          [
            4.53791,
            47.51284
          ],
          [
            4.53656,
            47.51354
          ],
          [
            4.53489,
            47.51389
          ],
          [
            4.5331,
            47.51398
          ],
          [
            4.53167,
            47.51304
          ],
          [
            4.5302,
            47.51269
          ],
          [
            4.52889,
            47.51217
          ],
          [
            4.52701,
            47.51192
          ],
          [
            4.52682,
            47.51074
          ],
          [
            4.52596,
            47.50992
          ],
          [
            4.52504,
            47.50903
          ],
          [
            4.52423,
            47.508
          ],
          [
            4.5256,
            47.50703
          ],
          [
            4.5259,
            47.50607
          ],
          [
            4.52666,
            47.5052
          ],
          [
            4.52723,
            47.5042
          ],
          [
            4.52865,
            47.50364
          ],
          [
            4.53012,
            47.5032
          ],
          [
            4.53133,
            47.50223
          ],
          [
            4.53309,
            47.50198
          ],
          [
            4.5349,
            47.50205
          ],
          [
            4.5366,
            47.50237
          ],
          [
            4.53795,
            47.50312
          ],
          [
            4.53943,
            47.50358
          ],
          [
            4.54093,
            47.50411
          ],
          [
            4.54123,
            47.50524
          ],
          [
            4.54227,
            47.50603
          ],
          [
            4.54315,
            47.50695
          ],
          [
            4.5436,
            47.508
          ]
        ]
      }
    },
    {
      "type": "Feature",
      "properties": {
        "kind": "contour",
        "elevation": 300
      },
      "geometry": {
        "type": "LineString",
        "coordinates": [
          [
            4.47809,
            47.5
          ],
          [
            4.47723,
            47.50277
          ],
          [
            4.47414,
            47.50494
          ],
          [
            4.47319,
            47.50751
          ],
          [
            4.47197,
            47.51031
          ],
          [
            4.46805,
            47.51152
          ],
          [
            4.46426,
            47.5124
          ],
          [
            4.46127,
            47.5147
          ],
          [
            4.45694,
            47.51394
          ],
          [
            4.45296,
            47.51467
          ],
          [
            4.44928,
            47.51341
          ],
          [
            4.44555,
            47.51266
          ],
          [
            4.44276,
            47.5108
          ],
          [
            4.43785,
            47.51043
          ],
          [
            4.43792,
            47.50705
          ],
          [
            4.43646,
            47.50479
          ],
          [
            4.4348,
            47.50252
          ],
          [
            4.43508,
            47.5
          ],
          [
            4.43293,
            47.49725
          ],
          [
            4.43492,
            47.49481
          ],
          [
            4.43715,
            47.49263
          ],
          [
            4.44021,
            47.49101
          ],
          [
            4.44207,
            47.48859
          ],
          [
            4.4459,
            47.48781
          ],
          [
            4.44877,
            47.48539
          ],
          [
            4.45316,
            47.48679
          ],
          [
            4.45702,
            47.48547
          ],
          [
            4.46072,
            47.48659
          ],
          [
            4.46466,
            47.48706
          ],
          [
            4.46712,
            47.4893
          ],
          [
            4.47083,
            47.49038
          ],
          [
            4.47235,
            47.49284
          ],
          [
            4.4758,
            47.49463
          ],
          [
            4.47464,
            47.49755
          ],
          [
            4.47809,
            47.5
          ]
        ]
      }
    },
    {
      "type": "Feature",
      "properties": {
        "kind": "contour",
        "elevation": 340
      },
      "geometry": {
        "type": "LineString",
        "coordinates": [
          [
            4.46808,
            47.5
          ],
          [
            4.46759,
            47.50157
          ],
          [
            4.46635,
            47.50293
          ],
          [
            4.46582,
            47.50446
          ],
          [
            4.46509,
            47.50613
          ],
          [
            4.4626,
            47.50671
          ],
          [
            4.46107,
            47.50813
          ],
          [
            4.45868,
            47.50863
          ],
          [
            4.4563,
            47.50936
          ],
          [
            4.45387,
            47.5081
          ],
          [
            4.45126,
            47.50875
          ],
          [
            4.44914,
            47.50784
          ],
          [
            4.44707,
            47.507
          ],
          [
            4.44505,
            47.50605
          ],
          [
            4.44447,
            47.50435
          ],
          [
            4.44196,
            47.50337
          ],
          [
            4.44218,
            47.5016
          ],
          [
            4.44169,
            47.5
          ],
          [
            4.44116,
            47.49828
          ],
          [
            4.44363,
            47.49706
          ],
          [
            4.44424,
            47.49556
          ],
          [
            4.44535,
            47.49413
          ],
          [
            4.4474,
            47.49329
          ],
          [
            4.44907,
            47.49207
          ],
          [
            4.45118,
            47.49106
          ],
          [
            4.45386,
            47.49179
          ],
          [
            4.45617,
            47.4916
          ],
          [
            4.45838,
            47.49209
          ],
          [
            4.46118,
            47.49172
          ],
          [
            4.4634,
            47.49259
          ],
          [
            4.46511,
            47.49386
          ],
          [
            4.46655,
            47.49523
          ],
          [
            4.4679,
            47.49667
          ],
          [
            4.46864,
            47.4983
          ],
          [
            4.46808,
            47.5
          ]
        ]
      }
    },
    {
      "type": "Feature",
      "properties": {
        "kind": "river"
      },
      "geometry": {
        "type": "LineString",
        "coordinates": [
          [
            4.442,
            47.556
          ],
          [
            4.472,
            47.552
          ],
          [
            4.503,
            47.556
          ],
          [
            4.534,
            47.562
          ],
          [
            4.56,
            47.566
          ]
        ]
      }
    },
    {
      "type": "Feature",
      "properties": {
        "kind": "river"
      },
      "geometry": {
        "type": "LineString",
        "coordinates": [
          [
            4.444,
            47.512
          ],
          [
            4.474,
            47.508
          ],
          [
            4.506,
            47.51
          ],
          [
            4.538,
            47.516
          ],
          [
            4.56,
            47.522
          ]
        ]
      }
    },
    {
      "type": "Feature",
      "properties": {
        "kind": "place",
        "name": "Alesia"
      },
      "geometry": {
        "type": "Point",
        "coordinates": [
          4.5,
          47.537
        ]
      }
    },
    {
      "type": "Feature",
      "properties": {
        "kind": "place",
        "name": "Mont Réa"
      },
      "geometry": {
        "type": "Point",
        "coordinates": [
          4.468,
          47.567
        ]
      }
    },
    {
      "type": "Feature",
      "properties": {
        "kind": "place",
        "name": "Mont Flavigny"
      },
      "geometry": {
        "type": "Point",
        "coordinates": [
          4.536,
          47.505
        ]
      }
    },
    {
      "type": "Feature",
      "properties": {
        "kind": "place",
        "name": "Plaine des Laumes"
      },
      "geometry": {
        "type": "Point",
        "coordinates": [
          4.487,
          47.575
        ]
      }
    },
    {
      "type": "Feature",
      "properties": {
        "kind": "work",
        "name": "Camp A"
      },
      "geometry": {
        "type": "Point",
        "coordinates": [
          4.472,
          47.578
        ]
      }
    },
    {
      "type": "Feature",
      "properties": {
        "kind": "work",
        "name": "Camp B"
      },
      "geometry": {
        "type": "Point",
        "coordinates": [
          4.522,
          47.575
        ]
      }
    },
    {
      "type": "Feature",
      "properties": {
        "kind": "work",
        "name": "Camp C"
      },
      "geometry": {
        "type": "Point",
        "coordinates": [
          4.545,
          47.541
        ]
      }
    },
    {
      "type": "Feature",
      "properties": {
        "kind": "work",
        "name": "Camp D"
      },
      "geometry": {
        "type": "Point",
        "coordinates": [
          4.519,
          47.497
        ]
      }
    },
    {
      "type": "Feature",
      "properties": {
        "kind": "work",
        "name": "Camp E"
      },
      "geometry": {
        "type": "Point",
        "coordinates": [
          4.462,
          47.505
        ]
      }
    },
    {
      "type": "Feature",
      "properties": {
        "kind": "work",
        "name": "Camp F"
      },
      "geometry": {
        "type": "Point",
        "coordinates": [
          4.452,
          47.545
        ]
      }
    }
  ]
}
