{
  "type": "FeatureCollection",
  "license": "public-domain",
  "attribution": "Sketch geometry, not survey: eyeballed from the research note for #151's drawing.",
  "features": [
    {
      "type": "Feature",
      "properties": {
        "kind": "land"
      },
      "geometry": {
        "type": "Polygon",
        "coordinates": [
          [
            [
              -107.71000000000001,
              45.294999999999995
            ],
            [
              -107.175,
              45.294999999999995
            ],
            [
              -107.175,
              45.815000000000005
            ],
            [
              -107.71000000000001,
              45.815000000000005
            ],
            [
              -107.71000000000001,
              45.294999999999995
            ]
          ]
        ]
      }
    },
    {
      "type": "Feature",
      "properties": {
        "kind": "river"
      },
      "geometry": {
        "type": "LineString",
        "coordinates": [
          [
            -107.408,
            45.495
          ],
          [
            -107.418,
            45.517
          ],
          [
            -107.44,
            45.529
          ],
          [
            -107.437,
            45.545
          ],
          [
            -107.449,
            45.558
          ],
          [
            -107.446,
            45.575
          ],
          [
            -107.462,
            45.59
          ],
          [
            -107.458,
            45.615
          ]
        ]
      }
    },
    {
      "type": "Feature",
      "properties": {
        "kind": "river"
      },
      "geometry": {
        "type": "LineString",
        "coordinates": [
          [
            -107.437,
            45.545
          ],
          [
            -107.418,
            45.541
          ],
          [
            -107.398,
            45.547
          ]
        ]
      }
    },
    {
      "type": "Feature",
      "properties": {
        "kind": "contour",
        "elevation": 960
      },
      "geometry": {
        "type": "LineString",
        "coordinates": [
          [
            -107.36603,
            45.567
          ],
          [
            -107.36825,
            45.57108
          ],
          [
            -107.36668,
            45.57587
          ],
          [
            -107.37225,
            45.57881
          ],
          [
            -107.37392,
            45.58334
          ],
          [
            -107.38095,
            45.58434
          ],
          [
            -107.38504,
            45.58766
          ],
          [
            -107.3909,
            45.58899
          ],
          [
            -107.39694,
            45.58973
          ],
          [
            -107.40296,
            45.589
          ],
          [
            -107.40876,
            45.58818
          ],
          [
            -107.4148,
            45.58744
          ],
          [
            -107.4207,
            45.58584
          ],
          [
            -107.42404,
            45.58207
          ],
          [
            -107.42764,
            45.57877
          ],
          [
            -107.43239,
            45.57563
          ],
          [
            -107.43122,
            45.57101
          ],
          [
            -107.43134,
            45.567
          ],
          [
            -107.43119,
            45.56299
          ],
          [
            -107.43135,
            45.55865
          ],
          [
            -107.428,
            45.55508
          ],
          [
            -107.4231,
            45.55252
          ],
          [
            -107.41872,
            45.54996
          ],
          [
            -107.41608,
            45.54479
          ],
          [
            -107.40913,
            45.54494
          ],
          [
            -107.40325,
            45.54291
          ],
          [
            -107.39712,
            45.54566
          ],
          [
            -107.39142,
            45.54628
          ],
          [
            -107.38406,
            45.54499
          ],
          [
            -107.37846,
            45.54739
          ],
          [
            -107.37676,
            45.55243
          ],
          [
            -107.37103,
            45.55467
          ],
          [
            -107.36689,
            45.55818
          ],
          [
            -107.36506,
            45.56251
          ],
          [
            -107.36603,
            45.567
          ]
        ]
      }
    },
    {
      "type": "Feature",
      "properties": {
        "kind": "contour",
        "elevation": 990
      },
      "geometry": {
        "type": "LineString",
        "coordinates": [
          [
            -107.3776,
            45.567
          ],
          [
            -107.37536,
            45.57017
          ],
          [
            -107.37764,
            45.57295
          ],
          [
            -107.37865,
            45.57609
          ],
          [
            -107.38302,
            45.57764
          ],
          [
            -107.38535,
            45.58034
          ],
          [
            -107.38919,
            45.58192
          ],
          [
            -107.3934,
            45.58295
          ],
          [
            -107.39791,
            45.5825
          ],
          [
            -107.40209,
            45.58251
          ],
          [
            -107.40676,
            45.58334
          ],
          [
            -107.41104,
            45.58224
          ],
          [
            -107.4147,
            45.58038
          ],
          [
            -107.41782,
            45.57817
          ],
          [
            -107.42197,
            45.57635
          ],
          [
            -107.42115,
            45.57263
          ],
          [
            -107.42348,
            45.57002
          ],
          [
            -107.42254,
            45.567
          ],
          [
            -107.42393,
            45.56393
          ],
          [
            -107.42294,
            45.56089
          ],
          [
            -107.41917,
            45.55884
          ],
          [
            -107.41887,
            45.55518
          ],
          [
            -107.41404,
            45.55422
          ],
          [
            -107.41117,
            45.55158
          ],
          [
            -107.40612,
            45.5522
          ],
          [
            -107.40208,
            45.55156
          ],
          [
            -107.39794,
            45.55175
          ],
          [
            -107.39329,
            45.55078
          ],
          [
            -107.39011,
            45.55334
          ],
          [
            -107.38653,
            45.55474
          ],
          [
            -107.38211,
            45.55579
          ],
          [
            -107.37797,
            45.55762
          ],
          [
            -107.37636,
            45.5607
          ],
          [
            -107.37523,
            45.56382
          ],
          [
            -107.3776,
            45.567
          ]
        ]
      }
    },
    {
      "type": "Feature",
      "properties": {
        "kind": "contour",
        "elevation": 1010
      },
      "geometry": {
        "type": "LineString",
        "coordinates": [
          [
            -107.38538,
            45.567
          ],
          [
            -107.3863,
            45.56876
          ],
          [
            -107.38648,
            45.5706
          ],
          [
            -107.3868,
            45.57262
          ],
          [
            -107.38907,
            45.57385
          ],
          [
            -107.39128,
            45.57494
          ],
          [
            -107.3932,
            45.57639
          ],
          [
            -107.3958,
            45.57715
          ],
          [
            -107.39876,
            45.57619
          ],
          [
            -107.40143,
            45.57764
          ],
          [
            -107.40376,
            45.57608
          ],
          [
            -107.4061,
            45.57543
          ],
          [
            -107.40936,
            45.57552
          ],
          [
            -107.40989,
            45.5732
          ],
          [
            -107.41202,
            45.57212
          ],
          [
            -107.41242,
            45.57031
          ],
          [
            -107.41319,
            45.56869
          ],
          [
            -107.4148,
            45.567
          ],
          [
            -107.41512,
            45.56506
          ],
          [
            -107.41409,
            45.56325
          ],
          [
            -107.41272,
            45.56159
          ],
          [
            -107.4099,
            45.5608
          ],
          [
            -107.40884,
            45.55895
          ],
          [
            -107.40641,
            45.55814
          ],
          [
            -107.40375,
            45.55793
          ],
          [
            -107.40141,
            45.55652
          ],
          [
            -107.39876,
            45.55782
          ],
          [
            -107.39587,
            45.55702
          ],
          [
            -107.39394,
            45.55864
          ],
          [
            -107.39198,
            45.5597
          ],
          [
            -107.38899,
            45.5601
          ],
          [
            -107.38729,
            45.56159
          ],
          [
            -107.38579,
            45.56322
          ],
          [
            -107.38513,
            45.56509
          ],
          [
            -107.38538,
            45.567
          ]
        ]
      }
    },
    {
      "type": "Feature",
      "properties": {
        "kind": "contour",
        "elevation": 960
      },
      "geometry": {
        "type": "LineString",
        "coordinates": [
          [
            -107.3904,
            45.526
          ],
          [
            -107.39183,
            45.52949
          ],
          [
            -107.39431,
            45.53256
          ],
          [
            -107.39702,
            45.53528
          ],
          [
            -107.39718,
            45.53955
          ],
          [
            -107.40226,
            45.54089
          ],
          [
            -107.40586,
            45.54342
          ],
          [
            -107.41042,
            45.54504
          ],
          [
            -107.41571,
            45.54365
          ],
          [
            -107.42062,
            45.54618
          ],
          [
            -107.42498,
            45.54353
          ],
          [
            -107.43076,
            45.5443
          ],
          [
            -107.43379,
            45.54094
          ],
          [
            -107.43666,
            45.53815
          ],
          [
            -107.44144,
            45.53636
          ],
          [
            -107.44167,
            45.53255
          ],
          [
            -107.44443,
            45.52953
          ],
          [
            -107.44315,
            45.526
          ],
          [
            -107.44506,
            45.52239
          ],
          [
            -107.44301,
            45.51908
          ],
          [
            -107.43926,
            45.5166
          ],
          [
            -107.43729,
            45.51344
          ],
          [
            -107.43529,
            45.50965
          ],
          [
            -107.42998,
            45.50882
          ],
          [
            -107.42475,
            45.50904
          ],
          [
            -107.42055,
            45.50633
          ],
          [
            -107.41548,
            45.50655
          ],
          [
            -107.41042,
            45.50698
          ],
          [
            -107.40562,
            45.50824
          ],
          [
            -107.4008,
            45.50973
          ],
          [
            -107.39794,
            45.51294
          ],
          [
            -107.39456,
            45.51564
          ],
          [
            -107.39314,
            45.51912
          ],
          [
            -107.39315,
            45.52268
          ],
          [
            -107.3904,
            45.526
          ]
        ]
      }
    },
    {
      "type": "Feature",
      "properties": {
        "kind": "contour",
        "elevation": 990
      },
      "geometry": {
        "type": "LineString",
        "coordinates": [
          [
            -107.40187,
            45.526
          ],
          [
            -107.40274,
            45.52804
          ],
          [
            -107.40348,
            45.53002
          ],
          [
            -107.40336,
            45.53248
          ],
          [
            -107.40646,
            45.53352
          ],
          [
            -107.40729,
            45.53613
          ],
          [
            -107.41104,
            45.53598
          ],
          [
            -107.41368,
            45.53683
          ],
          [
            -107.4165,
            45.53756
          ],
          [
            -107.41956,
            45.53805
          ],
          [
            -107.42273,
            45.53787
          ],
          [
            -107.42568,
            45.53701
          ],
          [
            -107.42887,
            45.53628
          ],
          [
            -107.42952,
            45.5335
          ],
          [
            -107.43325,
            45.53274
          ],
          [
            -107.4338,
            45.53037
          ],
          [
            -107.43465,
            45.52822
          ],
          [
            -107.43581,
            45.526
          ],
          [
            -107.43386,
            45.52388
          ],
          [
            -107.43403,
            45.52156
          ],
          [
            -107.4315,
            45.52003
          ],
          [
            -107.43137,
            45.51729
          ],
          [
            -107.42822,
            45.51633
          ],
          [
            -107.42529,
            45.51555
          ],
          [
            -107.42294,
            45.51361
          ],
          [
            -107.41964,
            45.51333
          ],
          [
            -107.41654,
            45.51477
          ],
          [
            -107.41372,
            45.51525
          ],
          [
            -107.41002,
            45.51455
          ],
          [
            -107.40717,
            45.51576
          ],
          [
            -107.40553,
            45.51788
          ],
          [
            -107.40454,
            45.52005
          ],
          [
            -107.40141,
            45.52141
          ],
          [
            -107.40078,
            45.5237
          ],
          [
            -107.40187,
            45.526
          ]
        ]
      }
    },
    {
      "type": "Feature",
      "properties": {
        "kind": "contour",
        "elevation": 960
      },
      "geometry": {
        "type": "LineString",
        "coordinates": [
          [
            -107.45986,
            45.548
          ],
          [
            -107.46073,
            45.55075
          ],
          [
            -107.46247,
            45.55324
          ],
          [
            -107.46354,
            45.55591
          ],
          [
            -107.46749,
            45.55715
          ],
          [
            -107.46999,
            45.55901
          ],
          [
            -107.4733,
            45.5601
          ],
          [
            -107.47591,
            45.56281
          ],
          [
            -107.47994,
            45.56336
          ],
          [
            -107.48394,
            45.56246
          ],
          [
            -107.48802,
            45.56264
          ],
          [
            -107.49053,
            45.55986
          ],
          [
            -107.49469,
            45.55963
          ],
          [
            -107.49832,
            45.5583
          ],
          [
            -107.49967,
            45.55558
          ],
          [
            -107.50155,
            45.55324
          ],
          [
            -107.50157,
            45.55053
          ],
          [
            -107.50286,
            45.548
          ],
          [
            -107.50094,
            45.54555
          ],
          [
            -107.50085,
            45.54295
          ],
          [
            -107.49937,
            45.54055
          ],
          [
            -107.49726,
            45.53837
          ],
          [
            -107.49452,
            45.53652
          ],
          [
            -107.49145,
            45.53486
          ],
          [
            -107.48785,
            45.53376
          ],
          [
            -107.4839,
            45.53382
          ],
          [
            -107.48014,
            45.53412
          ],
          [
            -107.4766,
            45.53485
          ],
          [
            -107.47234,
            45.53457
          ],
          [
            -107.46995,
            45.53695
          ],
          [
            -107.46673,
            45.53836
          ],
          [
            -107.46358,
            45.5401
          ],
          [
            -107.46288,
            45.54287
          ],
          [
            -107.46039,
            45.5452
          ],
          [
            -107.45986,
            45.548
          ]
        ]
      }
    },
    {
      "type": "Feature",
      "properties": {
        "kind": "contour",
        "elevation": 980
      },
      "geometry": {
        "type": "LineString",
        "coordinates": [
          [
            -107.47046,
            45.548
          ],
          [
            -107.47092,
            45.54943
          ],
          [
            -107.47132,
            45.55086
          ],
          [
            -107.47188,
            45.55234
          ],
          [
            -107.47394,
            45.55309
          ],
          [
            -107.47451,
            45.55486
          ],
          [
            -107.47717,
            45.55471
          ],
          [
            -107.47887,
            45.55562
          ],
          [
            -107.48096,
            45.5558
          ],
          [
            -107.48314,
            45.55655
          ],
          [
            -107.48541,
            45.55631
          ],
          [
            -107.48697,
            45.5549
          ],
          [
            -107.48877,
            45.55421
          ],
          [
            -107.49094,
            45.55364
          ],
          [
            -107.49213,
            45.55234
          ],
          [
            -107.49293,
            45.55093
          ],
          [
            -107.49384,
            45.54953
          ],
          [
            -107.49371,
            45.548
          ],
          [
            -107.49411,
            45.54643
          ],
          [
            -107.49313,
            45.54502
          ],
          [
            -107.49198,
            45.54372
          ],
          [
            -107.4903,
            45.54276
          ],
          [
            -107.48872,
            45.54184
          ],
          [
            -107.48725,
            45.5407
          ],
          [
            -107.48522,
            45.54016
          ],
          [
            -107.48312,
            45.53967
          ],
          [
            -107.48093,
            45.54002
          ],
          [
            -107.47905,
            45.54083
          ],
          [
            -107.47702,
            45.54108
          ],
          [
            -107.4744,
            45.54103
          ],
          [
            -107.47325,
            45.54248
          ],
          [
            -107.47147,
            45.54349
          ],
          [
            -107.47025,
            45.54485
          ],
          [
            -107.47111,
            45.54659
          ],
          [
            -107.47046,
            45.548
          ]
        ]
      }
    },
    {
      "type": "Feature",
      "properties": {
        "kind": "place",
        "name": "Little Bighorn River"
      },
      "geometry": {
        "type": "Point",
        "coordinates": [
          -107.452,
          45.6
        ]
      }
    },
    {
      "type": "Feature",
      "properties": {
        "kind": "place",
        "name": "Medicine Tail Coulee"
      },
      "geometry": {
        "type": "Point",
        "coordinates": [
          -107.42,
          45.549
        ]
      }
    },
    {
      "type": "Feature",
      "properties": {
        "kind": "place",
        "name": "Reno Hill"
      },
      "geometry": {
        "type": "Point",
        "coordinates": [
          -107.414,
          45.525
        ]
      }
    },
    {
      "type": "Feature",
      "properties": {
        "kind": "place",
        "name": "Last Stand Hill"
      },
      "geometry": {
        "type": "Point",
        "coordinates": [
          -107.398,
          45.573
        ]
      }
    },
    {
      "type": "Feature",
      "properties": {
        "kind": "place",
        "name": "The village"
      },
      "geometry": {
        "type": "Point",
        "coordinates": [
          -107.48,
          45.553
        ]
      }
    }
  ]
}
