{
  "type": "FeatureCollection",
  "license": "public-domain",
  "attribution": "Sketch geometry, not survey: eyeballed from the research note for #151's drawing.",
  "features": [
    {
      "type": "Feature",
      "properties": {
        "kind": "land"
      },
      "geometry": {
        "type": "Polygon",
        "coordinates": [
          [
            [
              -177.395,
              28.205
            ],
            [
              -177.36,
              28.2
            ],
            [
              -177.352,
              28.216
            ],
            [
              -177.386,
              28.222
            ],
            [
              -177.395,
              28.205
            ]
          ]
        ]
      }
    },
    {
      "type": "Feature",
      "properties": {
        "kind": "land"
      },
      "geometry": {
        "type": "Polygon",
        "coordinates": [
          [
            [
              -177.345,
              28.19
            ],
            [
              -177.32,
              28.188
            ],
            [
              -177.318,
              28.202
            ],
            [
              -177.342,
              28.204
            ],
            [
              -177.345,
              28.19
            ]
          ]
        ]
      }
    },
    {
      "type": "Feature",
      "properties": {
        "kind": "shoal"
      },
      "geometry": {
        "type": "Polygon",
        "coordinates": [
          [
            [
              -177.28464,
              28.2
            ],
            [
              -177.28702,
              28.21
            ],
            [
              -177.28992,
              28.21991
            ],
            [
              -177.29468,
              28.22966
            ],
            [
              -177.3041,
              28.23737
            ],
            [
              -177.31474,
              28.24396
            ],
            [
              -177.32595,
              28.25014
            ],
            [
              -177.33905,
              28.254
            ],
            [
              -177.35323,
              28.2536
            ],
            [
              -177.36709,
              28.25613
            ],
            [
              -177.38023,
              28.25213
            ],
            [
              -177.39292,
              28.24848
            ],
            [
              -177.40631,
              28.24497
            ],
            [
              -177.4142,
              28.23624
            ],
            [
              -177.4234,
              28.22879
            ],
            [
              -177.42829,
              28.2194
            ],
            [
              -177.43215,
              28.20989
            ],
            [
              -177.43565,
              28.2
            ],
            [
              -177.43529,
              28.18968
            ],
            [
              -177.43102,
              28.17982
            ],
            [
              -177.42454,
              28.1707
            ],
            [
              -177.41422,
              28.16376
            ],
            [
              -177.40546,
              28.15585
            ],
            [
              -177.39342,
              28.15078
            ],
            [
              -177.38022,
              28.14788
            ],
            [
              -177.36706,
              28.14416
            ],
            [
              -177.35323,
              28.14642
            ],
            [
              -177.33916,
              28.1463
            ],
            [
              -177.32716,
              28.15164
            ],
            [
              -177.31587,
              28.15715
            ],
            [
              -177.30397,
              28.16255
            ],
            [
              -177.29547,
              28.1707
            ],
            [
              -177.28879,
              28.17977
            ],
            [
              -177.28511,
              28.18973
            ],
            [
              -177.28464,
              28.2
            ]
          ]
        ]
      }
    },
    {
      "type": "Feature",
      "properties": {
        "kind": "place",
        "name": "Midway"
      },
      "geometry": {
        "type": "Point",
        "coordinates": [
          -177.36,
          28.24
        ]
      }
    },
    {
      "type": "Feature",
      "properties": {
        "kind": "place",
        "name": "Kure"
      },
      "geometry": {
        "type": "Point",
        "coordinates": [
          -178.32,
          28.42
        ]
      }
    },
    {
      "type": "Feature",
      "properties": {
        "kind": "work",
        "name": "Naval Air Station"
      },
      "geometry": {
        "type": "Point",
        "coordinates": [
          -177.38,
          28.21
        ]
      }
    }
  ]
}
