{
  "type": "FeatureCollection",
  "license": "CC-BY-4.0",
  "attribution": "Coastline from Natural Earth (public domain); Aboukir shoal and Nelson's Island traced from Brydon's 1798 plan by Sandtable contributors, CC BY 4.0",
  "features": [
    {
      "type": "Feature",
      "properties": {
        "kind": "land"
      },
      "geometry": {
        "type": "Polygon",
        "coordinates": [
          [
            [29.8282, 31.15],
            [30.45, 31.15],
            [30.45, 31.465],
            [30.4256, 31.4736],
            [30.3986, 31.4912],
            [30.3622, 31.5087],
            [30.3557, 31.4911],
            [30.3706, 31.4616],
            [30.3986, 31.4433],
            [30.3784, 31.4467],
            [30.3646, 31.4601],
            [30.3557, 31.4788],
            [30.3508, 31.498],
            [30.3439, 31.498],
            [30.3524, 31.4632],
            [30.3484, 31.4213],
            [30.3345, 31.381],
            [30.3128, 31.3506],
            [30.2517, 31.3034],
            [30.2166, 31.2864],
            [30.1795, 31.2783],
            [30.1795, 31.2714],
            [30.2385, 31.274],
            [30.2546, 31.2783],
            [30.2546, 31.2714],
            [30.2513, 31.2711],
            [30.244, 31.2719],
            [30.2409, 31.2714],
            [30.2409, 31.2653],
            [30.2586, 31.2689],
            [30.2734, 31.2753],
            [30.2876, 31.2782],
            [30.303, 31.2714],
            [30.2927, 31.2446],
            [30.2887, 31.2379],
            [30.2814, 31.2409],
            [30.2766, 31.2464],
            [30.2746, 31.2545],
            [30.2751, 31.2653],
            [30.2688, 31.2653],
            [30.2678, 31.2573],
            [30.266, 31.2532],
            [30.2638, 31.2499],
            [30.2614, 31.2441],
            [30.2581, 31.2464],
            [30.2573, 31.2468],
            [30.2546, 31.2516],
            [30.2244, 31.2269],
            [30.2205, 31.2202],
            [30.2158, 31.2194],
            [30.2072, 31.2209],
            [30.2017, 31.2265],
            [30.2068, 31.2379],
            [30.1652, 31.2168],
            [30.1546, 31.2222],
            [30.1437, 31.2295],
            [30.1401, 31.2373],
            [30.1521, 31.2441],
            [30.1486, 31.2451],
            [30.1455, 31.2451],
            [30.1441, 31.2466],
            [30.1447, 31.2516],
            [30.1531, 31.2558],
            [30.1644, 31.267],
            [30.1726, 31.2714],
            [30.136, 31.2748],
            [30.0985, 31.2847],
            [30.0949, 31.2856],
            [30.0667, 31.3049],
            [30.0696, 31.3335],
            [30.0422, 31.3205],
            [30.0417, 31.3155],
            [30.0432, 31.3142],
            [30.0459, 31.3142],
            [30.0491, 31.3131],
            [30.0396, 31.3071],
            [30.033, 31.3004],
            [30.0251, 31.2949],
            [30.0112, 31.2925],
            [30.0031, 31.2871],
            [29.9832, 31.2633],
            [29.97, 31.2578],
            [29.9562, 31.2501],
            [29.9097, 31.2141],
            [29.8982, 31.2032],
            [29.8909, 31.2032],
            [29.8848, 31.2138],
            [29.877, 31.2136],
            [29.8692, 31.2065],
            [29.8635, 31.1964],
            [29.8718, 31.2001],
            [29.8757, 31.2009],
            [29.8846, 31.1895],
            [29.8384, 31.1541],
            [29.8282, 31.15]
          ]
        ]
      }
    },
    {
      "type": "Feature",
      "properties": {
        "kind": "land"
      },
      "geometry": {
        "type": "Polygon",
        "coordinates": [
          [
            [30.1081, 31.3589],
            [30.108, 31.3587],
            [30.1077, 31.3585],
            [30.1071, 31.3583],
            [30.1063, 31.3581],
            [30.1056, 31.3579],
            [30.1049, 31.3579],
            [30.1045, 31.3579],
            [30.1043, 31.3581],
            [30.1044, 31.3583],
            [30.1047, 31.3585],
            [30.1053, 31.3587],
            [30.1061, 31.3589],
            [30.1068, 31.3591],
            [30.1075, 31.3591],
            [30.1079, 31.3591],
            [30.1081, 31.3589]
          ]
        ]
      }
    },
    {
      "type": "Feature",
      "properties": {
        "kind": "shoal"
      },
      "geometry": {
        "type": "Polygon",
        "coordinates": [
          [
            [30.0869, 31.346],
            [30.0926, 31.3455],
            [30.0986, 31.3477],
            [30.1042, 31.3502],
            [30.1106, 31.3521],
            [30.1166, 31.3542],
            [30.1218, 31.3572],
            [30.1251, 31.361],
            [30.1269, 31.3649],
            [30.1255, 31.371],
            [30.1191, 31.3738],
            [30.1142, 31.3734],
            [30.109, 31.3717],
            [30.1042, 31.3683],
            [30.1002, 31.3639],
            [30.0964, 31.3592],
            [30.092, 31.3552],
            [30.0878, 31.3509],
            [30.0869, 31.346],
            [30.0869, 31.346]
          ]
        ]
      }
    },
    {
      "type": "Feature",
      "properties": {
        "kind": "work",
        "name": "Aboukir castle"
      },
      "geometry": {
        "type": "Point",
        "coordinates": [30.064, 31.325]
      }
    },
    {
      "type": "Feature",
      "properties": {
        "kind": "work",
        "name": "Island battery"
      },
      "geometry": {
        "type": "Point",
        "coordinates": [30.1072, 31.3587]
      }
    },
    {
      "type": "Feature",
      "properties": {
        "kind": "place",
        "name": "Aboukir Island"
      },
      "geometry": {
        "type": "Point",
        "coordinates": [30.1052, 31.3583]
      }
    },
    {
      "type": "Feature",
      "properties": {
        "kind": "place",
        "name": "Aboukir shoal"
      },
      "geometry": {
        "type": "Point",
        "coordinates": [30.118, 31.364]
      }
    },
    {
      "type": "Feature",
      "properties": {
        "kind": "place",
        "name": "Aboukir Bay"
      },
      "geometry": {
        "type": "Point",
        "coordinates": [30.2, 31.3]
      }
    }
  ]
}
