{
  "type": "FeatureCollection",
  "license": "public-domain",
  "attribution": "Contours and rivers cut from SRTM 1 arc-second (NASA); the lines, camps and places are Marchpast contributors' tracing from Napoleon III's planche 25. All public domain, the tracing dedicated to it.",
  "features": [
    {
      "type": "Feature",
      "properties": {"kind": "land"},
      "geometry": {
        "type": "Polygon",
        "coordinates": [
          [[4.38,47.47],[4.6,47.47],[4.6,47.61],[4.49,47.63],[4.38,47.61],[4.38,47.47]]
        ]
      }
    },
    {
      "type": "Feature",
      "properties": {"kind": "river"},
      "geometry": {
        "type": "LineString",
        "coordinates": [[4.56958,47.55236],[4.56875,47.55153],[4.56847,47.54958],[4.56792,47.54903],[4.56431,47.54903],[4.56347,47.54875],[4.56097,47.54542],[4.56014,47.54542],[4.55903,47.54431],[4.55625,47.54403],[4.55542,47.54347],[4.55514,47.54181],[4.54847,47.53486],[4.53681,47.53458],[4.53597,47.53375],[4.53292,47.53403],[4.53153,47.53569],[4.53014,47.53569],[4.52958,47.53625],[4.52792,47.53625],[4.52681,47.53708],[4.52403,47.53708],[4.52125,47.53875],[4.51931,47.53875],[4.51681,47.54069],[4.51625,47.54069],[4.51347,47.54319],[4.50986,47.54347],[4.50708,47.54625],[4.50569,47.54625],[4.50319,47.54819],[4.50181,47.54847],[4.50042,47.54958],[4.49958,47.54958],[4.49875,47.55014],[4.49819,47.54903],[4.49681,47.54875],[4.49625,47.54819],[4.49319,47.54847],[4.49153,47.54681],[4.48819,47.54708],[4.48736,47.54792],[4.48625,47.54819],[4.48236,47.54819],[4.48069,47.54708],[4.47792,47.54708],[4.47681,47.54597],[4.47514,47.54597],[4.47458,47.54653],[4.46681,47.54653],[4.46486,47.54486],[4.46431,47.54292],[4.46319,47.54181],[4.46042,47.54153],[4.45958,47.54069],[4.45736,47.54014]]
      }
    },
    {
      "type": "Feature",
      "properties": {"kind": "river"},
      "geometry": {
        "type": "LineString",
        "coordinates": [[4.56847,47.51097],[4.56792,47.51097],[4.56625,47.50931],[4.56458,47.50875],[4.56292,47.50653],[4.56125,47.50569],[4.55903,47.50597],[4.55764,47.50736],[4.55569,47.50764],[4.55458,47.50875],[4.55236,47.50875],[4.55014,47.51042],[4.54597,47.51042],[4.54486,47.51153],[4.54403,47.51153],[4.54153,47.51403],[4.54069,47.51403],[4.53569,47.51903],[4.53403,47.51903],[4.53375,47.51875],[4.53042,47.52181],[4.52931,47.52181],[4.52875,47.52236],[4.52792,47.52236],[4.52653,47.52375],[4.52569,47.52375],[4.52181,47.52764],[4.51875,47.52875],[4.51792,47.52958],[4.51458,47.52958],[4.51431,47.52931],[4.51403,47.52958],[4.50792,47.52958],[4.50486,47.52903],[4.50403,47.52931],[4.49931,47.52931],[4.49708,47.52986],[4.49569,47.53069],[4.49375,47.53042],[4.49264,47.53097],[4.48931,47.53069],[4.48569,47.53153],[4.48403,47.53153],[4.48347,47.53097],[4.48153,47.53097],[4.47958,47.52958],[4.47681,47.52958],[4.47264,47.53403],[4.47125,47.53403],[4.47042,47.53458],[4.46931,47.53347],[4.46847,47.53347],[4.46764,47.53431],[4.46625,47.53403],[4.46431,47.53597],[4.46347,47.53597],[4.46236,47.53486],[4.46153,47.53542]]
      }
    },
    {
      "type": "Feature",
      "properties": {"kind": "river"},
      "geometry": {
        "type": "LineString",
        "coordinates": [[4.45153,47.50042],[4.45458,47.50042],[4.45708,47.50153],[4.45792,47.50153],[4.45875,47.50236],[4.45986,47.50236],[4.46153,47.50431],[4.46236,47.50458],[4.46319,47.50403],[4.46486,47.50625],[4.46625,47.50681],[4.46736,47.50819],[4.46819,47.50847],[4.46931,47.50986],[4.46931,47.51097],[4.46847,47.51181],[4.46875,47.51292],[4.46542,47.51625],[4.46653,47.51736],[4.46625,47.51819],[4.46764,47.51958],[4.46764,47.52069],[4.46681,47.52153],[4.46625,47.52347],[4.46514,47.52431],[4.46514,47.52542],[4.46403,47.52653],[4.46319,47.52653],[4.46125,47.52847],[4.46125,47.52958],[4.46236,47.53069],[4.46236,47.53181],[4.46153,47.53264],[4.46153,47.53403],[4.46014,47.53597],[4.45875,47.53597],[4.45681,47.53708],[4.45708,47.53958],[4.45653,47.54014],[4.45486,47.54014],[4.45403,47.53931],[4.45319,47.53958],[4.44681,47.53931],[4.44375,47.54236],[4.44375,47.54319],[4.44292,47.54403],[4.44292,47.54597],[4.44375,47.54653],[4.44403,47.54764],[4.44347,47.54819],[4.44208,47.54792],[4.44097,47.54903],[4.44042,47.54903],[4.43958,47.54986],[4.43875,47.54986],[4.43792,47.55069],[4.43819,47.55292],[4.43736,47.55458],[4.43736,47.55764],[4.43681,47.55819],[4.43681,47.55931],[4.43486,47.55958],[4.43236,47.56208],[4.43153,47.56208],[4.43097,47.56264],[4.42792,47.56264],[4.42486,47.56569],[4.42486,47.56653],[4.42292,47.56847],[4.42292,47.56986],[4.42375,47.57125],[4.41819,47.57597],[4.41736,47.57569],[4.41625,47.57681],[4.41625,47.57792],[4.41486,47.57931],[4.41486,47.58125]]
      }
    },
    {
      "type": "Feature",
      "properties": {"kind": "contour", "elevation": 220},
      "geometry": {
        "type": "MultiLineString",
        "coordinates": [
          [[4.40511,47.58986],[4.40557,47.58403],[4.40875,47.58166],[4.41153,47.58188],[4.41261,47.58014],[4.4102,47.57986],[4.41097,47.57831],[4.41375,47.57604],[4.41542,47.57663],[4.41625,47.57604],[4.41598,47.57708],[4.41747,47.57792],[4.41531,47.57986],[4.41645,47.58125],[4.41349,47.58403],[4.41173,47.58431],[4.41486,47.58499],[4.41542,47.58368],[4.41827,47.58375],[4.41464,47.58986]]
        ]
      }
    },
    {
      "type": "Feature",
      "properties": {"kind": "contour", "elevation": 230},
      "geometry": {
        "type": "MultiLineString",
        "coordinates": [
          [[4.40278,47.58986],[4.40428,47.58625],[4.40318,47.58125],[4.40597,47.58101],[4.40922,47.57931],[4.41284,47.57014],[4.41652,47.56681],[4.41764,47.56208],[4.42264,47.55822],[4.42569,47.55105],[4.43103,47.54792],[4.43292,47.54562],[4.43431,47.54542],[4.43597,47.54648],[4.43591,47.54486],[4.44014,47.54147],[4.44301,47.54542],[4.44732,47.54708],[4.44393,47.54931],[4.44506,47.55097],[4.44401,47.55153],[4.44445,47.55319],[4.43533,47.56375],[4.43066,47.57069],[4.42986,47.5738],[4.42597,47.57599],[4.42304,47.57958],[4.41725,47.58986]]
        ]
      }
    },
    {
      "type": "Feature",
      "properties": {"kind": "contour", "elevation": 240},
      "geometry": {
        "type": "MultiLineString",
        "coordinates": [
          [[4.40219,47.58986],[4.40373,47.58625],[4.4023,47.58097],[4.4086,47.57931],[4.4105,47.57597],[4.41181,47.5713],[4.41107,47.56931],[4.41319,47.56916],[4.41567,47.56708],[4.41957,47.55708],[4.41314,47.55292],[4.4109,47.55014],[4.41097,47.5455],[4.41292,47.5452],[4.41514,47.54751],[4.41792,47.54849],[4.42347,47.54875],[4.42653,47.54491],[4.43375,47.54056],[4.43425,47.53764],[4.43903,47.53698],[4.44074,47.53986],[4.4424,47.53819],[4.44147,47.53736],[4.4422,47.53431],[4.44371,47.53347],[4.44239,47.53125],[4.44695,47.53069],[4.44625,47.52891],[4.44931,47.52863],[4.45181,47.53145],[4.45462,47.53153],[4.45605,47.52875],[4.45708,47.52899],[4.45953,47.52708],[4.46181,47.52209],[4.46264,47.52432],[4.46375,47.52344],[4.46653,47.52477],[4.46779,47.52431],[4.46857,47.52597],[4.46681,47.52835],[4.46986,47.52766],[4.47425,47.52847],[4.47339,47.53181],[4.47403,47.53244],[4.47514,47.53132],[4.47542,47.53269],[4.47431,47.53253],[4.47415,47.53375],[4.46764,47.53625],[4.46847,47.53806],[4.47218,47.53819],[4.47205,47.53931],[4.47542,47.5405],[4.47539,47.54208],[4.4781,47.54264],[4.47708,47.54369],[4.47431,47.54348],[4.4733,47.54431],[4.47736,47.54528],[4.48037,47.54736],[4.47681,47.54765],[4.47681,47.5468],[4.46708,47.54751],[4.46153,47.54671],[4.45458,47.54907],[4.45162,47.55181],[4.45178,47.55542],[4.45022,47.55597],[4.44958,47.55822],[4.44292,47.56034],[4.43708,47.56378],[4.43447,47.56708],[4.43278,47.57236],[4.42458,47.57968],[4.41901,47.58986]]
        ]
      }
    },
    {
      "type": "Feature",
      "properties": {"kind": "contour", "elevation": 250},
      "geometry": {
        "type": "MultiLineString",
        "coordinates": [
          [[4.40176,47.58986],[4.40307,47.58653],[4.40127,47.58125],[4.40236,47.57968],[4.4079,47.57931],[4.40921,47.57792],[4.41138,47.57097],[4.409,47.56875],[4.41292,47.56877],[4.41514,47.56712],[4.41712,47.56069],[4.41542,47.5568],[4.41165,47.55403],[4.4069,47.54681],[4.40127,47.54514],[4.40125,47.54428],[4.40903,47.54341],[4.41292,47.53941],[4.41627,47.54181],[4.41477,47.54514],[4.41569,47.54687],[4.42014,47.54803],[4.42276,47.54764],[4.424,47.54319],[4.43179,47.53875],[4.43125,47.53613],[4.43653,47.53531],[4.44069,47.53333],[4.43734,47.53014],[4.44175,47.52931],[4.44117,47.52764],[4.44228,47.52625],[4.44597,47.52523],[4.45181,47.52593],[4.45991,47.51903],[4.46143,47.51625],[4.46002,47.51514],[4.45962,47.51319],[4.46075,47.51264],[4.45954,47.51125],[4.46115,47.51069],[4.46264,47.51303],[4.46423,47.51125],[4.46458,47.50838],[4.47014,47.50781],[4.47125,47.50612],[4.47681,47.50538],[4.47795,47.50597],[4.47726,47.50958],[4.47302,47.51403],[4.4711,47.51958],[4.47119,47.52597],[4.47764,47.52632],[4.48625,47.52982],[4.49321,47.53069],[4.48236,47.53404],[4.47381,47.53486],[4.4731,47.53681],[4.47792,47.53775],[4.4802,47.54097],[4.48819,47.54617],[4.50264,47.54823],[4.50089,47.55403],[4.49847,47.55486],[4.49708,47.55323],[4.48792,47.55399],[4.48458,47.55335],[4.47958,47.54949],[4.47403,47.54811],[4.46625,47.5485],[4.46208,47.54733],[4.45931,47.5479],[4.45625,47.55014],[4.45462,47.55292],[4.45598,47.55764],[4.45438,47.55819],[4.455,47.55931],[4.45236,47.55854],[4.45181,47.56164],[4.44736,47.56054],[4.43877,47.56375],[4.4349,47.56931],[4.43375,47.57318],[4.42486,47.58096],[4.42058,47.58986]]
        ]
      }
    },
    {
      "type": "Feature",
      "properties": {"kind": "contour", "elevation": 260},
      "geometry": {
        "type": "MultiLineString",
        "coordinates": [
          [[4.40132,47.58986],[4.40251,47.58792],[4.40231,47.58514],[4.40014,47.5824]],
          [[4.49297,47.49014],[4.49204,47.49042],[4.49215,47.49486],[4.49042,47.49985],[4.48004,47.50736],[4.47764,47.5121],[4.47537,47.51375],[4.47214,47.52181],[4.47243,47.52486],[4.47431,47.5259],[4.47653,47.52436],[4.48375,47.52813],[4.49208,47.52978],[4.50903,47.52758],[4.51736,47.52892],[4.52134,47.52792],[4.51681,47.53052],[4.50264,47.5297],[4.49792,47.53113],[4.49403,47.53123],[4.4776,47.53653],[4.48042,47.5379],[4.48234,47.54153],[4.48792,47.5449],[4.50236,47.54706],[4.51445,47.54097],[4.51931,47.53711],[4.53126,47.53514],[4.53236,47.53387],[4.53377,47.53458],[4.52851,47.53792],[4.52014,47.54088],[4.51264,47.54548],[4.50375,47.54921],[4.50257,47.55069],[4.5028,47.55569],[4.50653,47.56053],[4.50597,47.56186],[4.49918,47.55819],[4.49708,47.55526],[4.49236,47.55422],[4.48681,47.55629],[4.48236,47.55189],[4.47708,47.54933],[4.47042,47.54854],[4.46292,47.54956],[4.46236,47.54805],[4.46014,47.54841],[4.45931,47.55015],[4.4573,47.55097],[4.45818,47.55319],[4.45659,47.55431],[4.45772,47.55708],[4.46065,47.55958],[4.45208,47.56318],[4.44792,47.5618],[4.44319,47.56257],[4.43986,47.56411],[4.43529,47.57042],[4.43486,47.57388],[4.42569,47.58119],[4.42254,47.58625],[4.42165,47.58986]],
          [[4.40014,47.58121],[4.40153,47.57919],[4.40736,47.57912],[4.40903,47.57769],[4.41105,47.57125],[4.40709,47.56764],[4.41125,47.56825],[4.41377,47.56792],[4.41515,47.56653],[4.41658,47.56097],[4.40633,47.54819],[4.40403,47.54675],[4.40014,47.54641]],
          [[4.40014,47.54277],[4.40542,47.54343],[4.40792,47.54288],[4.41058,47.54042],[4.41153,47.53669],[4.41264,47.53654],[4.41625,47.54017],[4.41958,47.54178],[4.41569,47.54417],[4.41597,47.5465],[4.42181,47.54735],[4.42296,47.54514],[4.42135,47.54292],[4.43015,47.53875],[4.42986,47.53447],[4.43533,47.53264],[4.43634,47.53125],[4.43541,47.52986],[4.43755,47.52903],[4.43963,47.52431],[4.44264,47.52491],[4.44764,47.52343],[4.45153,47.52347],[4.45822,47.51819],[4.45545,47.51292],[4.45106,47.50903],[4.45319,47.50804],[4.45724,47.50875],[4.45718,47.50597],[4.4583,47.50542],[4.45637,47.50292],[4.46347,47.50127],[4.46431,47.49991],[4.46922,47.50486],[4.47542,47.50476],[4.48431,47.50225],[4.48946,47.49708],[4.49082,47.49375],[4.49001,47.49014]]
        ]
      }
    },
    {
      "type": "Feature",
      "properties": {"kind": "contour", "elevation": 270},
      "geometry": {
        "type": "MultiLineString",
        "coordinates": [
          [[4.40077,47.58986],[4.40205,47.58708],[4.40014,47.58319]],
          [[4.49428,47.49014],[4.49153,47.49995],[4.48431,47.50517],[4.47486,47.51699],[4.47314,47.52319],[4.47403,47.52445],[4.47681,47.52309],[4.48375,47.52716],[4.48819,47.52883],[4.49208,47.52925],[4.50903,47.52669],[4.51431,47.52812],[4.51847,47.52776],[4.53181,47.51901],[4.53595,47.51736],[4.5429,47.51097],[4.54486,47.51102],[4.54764,47.50881],[4.54716,47.50958],[4.54905,47.51042],[4.54847,47.51134],[4.54639,47.51153],[4.54678,47.51236],[4.54074,47.51458],[4.53107,47.52403],[4.52736,47.525],[4.51792,47.53094],[4.50208,47.53019],[4.48458,47.53467],[4.48184,47.53653],[4.48199,47.53875],[4.48514,47.54232],[4.49181,47.54494],[4.50292,47.5459],[4.51347,47.54077],[4.52153,47.53544],[4.52625,47.53557],[4.53375,47.53282],[4.54875,47.5334],[4.55569,47.53225],[4.55986,47.53119],[4.56347,47.52793],[4.56467,47.52875],[4.56244,47.52903],[4.56343,47.53042],[4.56014,47.53395],[4.55792,47.5343],[4.55546,47.53792],[4.55561,47.54181],[4.55848,47.54458],[4.5551,47.54403],[4.55292,47.54015],[4.54819,47.53691],[4.53958,47.53557],[4.53431,47.53566],[4.52653,47.53969],[4.51931,47.54175],[4.51319,47.54609],[4.51069,47.54631],[4.5052,47.54875],[4.50325,47.55125],[4.5043,47.55653],[4.50847,47.56137],[4.51764,47.56542],[4.51856,47.56653],[4.51736,47.56728],[4.50653,47.56275],[4.50211,47.56208],[4.50142,47.56014],[4.49764,47.55891],[4.49764,47.5568],[4.49486,47.55524],[4.49181,47.55496],[4.48764,47.55706],[4.48569,47.55701],[4.48222,47.55236],[4.47847,47.55021],[4.47069,47.54896],[4.46264,47.5503],[4.46021,47.55153],[4.45928,47.55458],[4.46069,47.55798],[4.46347,47.55903],[4.46319,47.56009],[4.45625,47.56193],[4.45236,47.5643],[4.44819,47.56261],[4.44244,47.56347],[4.43994,47.56486],[4.43654,47.56986],[4.43624,47.57375],[4.42667,47.58097],[4.42342,47.58597],[4.42265,47.58986]],
          [[4.40014,47.58053],[4.40119,47.57792],[4.40486,47.57913],[4.40736,47.5788],[4.4087,47.57764],[4.41068,47.57125],[4.40607,47.56708],[4.40653,47.56671],[4.41012,47.56792],[4.41353,47.56764],[4.41478,47.56653],[4.41604,47.56125],[4.41329,47.55736],[4.41029,47.55569],[4.40736,47.54996],[4.40375,47.5476],[4.40014,47.54707]],
          [[4.40014,47.54225],[4.40653,47.54301],[4.4098,47.54042],[4.4109,47.53569],[4.41014,47.52993],[4.41155,47.53125],[4.41264,47.53596],[4.41601,47.53903],[4.42097,47.54135],[4.42625,47.53999],[4.42964,47.53764],[4.42875,47.53298],[4.43417,47.53153],[4.4341,47.53014],[4.43784,47.52514],[4.43764,47.52247],[4.44292,47.52384],[4.44542,47.52289],[4.45014,47.52295],[4.45505,47.51931],[4.45514,47.51479],[4.44403,47.50431],[4.44486,47.50337],[4.44708,47.50553],[4.44986,47.50587],[4.44939,47.50319],[4.45233,47.50125],[4.45268,47.49958],[4.45486,47.49895],[4.45542,47.4998],[4.45875,47.49957],[4.45886,47.49569],[4.46085,47.49431],[4.46189,47.49014]],
          [[4.46221,47.49014],[4.46576,47.50069],[4.46958,47.50378],[4.47264,47.5041],[4.47597,47.50388],[4.48431,47.5012],[4.48764,47.49824],[4.4887,47.49625],[4.48986,47.49321],[4.4891,47.49014]]
        ]
      }
    },
    {
      "type": "Feature",
      "properties": {"kind": "contour", "elevation": 280},
      "geometry": {
        "type": "MultiLineString",
        "coordinates": [
          [[4.40014,47.58972],[4.40158,47.58736],[4.40014,47.58415]],
          [[4.57986,47.51986],[4.57514,47.52247],[4.57197,47.52597],[4.56486,47.52973],[4.56105,47.53625],[4.55819,47.53643],[4.55665,47.53875],[4.55819,47.54339],[4.57148,47.54986],[4.56701,47.55097],[4.55448,47.54458],[4.55211,47.54042],[4.54903,47.53806],[4.53958,47.53592],[4.53458,47.53631],[4.52708,47.54028],[4.51958,47.54204],[4.51536,47.54486],[4.51431,47.54681],[4.51125,47.54654],[4.50576,47.54903],[4.50399,47.55319],[4.5076,47.55931],[4.51486,47.56357],[4.51935,47.56458],[4.52181,47.57192],[4.51321,47.56569],[4.50569,47.56297],[4.50033,47.56292],[4.50129,47.56097],[4.4968,47.55931],[4.49582,47.55764],[4.49681,47.55686],[4.4949,47.55597],[4.49181,47.55545],[4.48958,47.55703],[4.48569,47.5577],[4.48191,47.55264],[4.47819,47.55047],[4.47069,47.54937],[4.46403,47.55034],[4.46126,47.55153],[4.4604,47.55375],[4.46208,47.55748],[4.46542,47.55856],[4.46448,47.56042],[4.46236,47.56218],[4.45708,47.56238],[4.45292,47.56549],[4.44736,47.56327],[4.44042,47.56515],[4.43719,47.57014],[4.43705,47.57403],[4.42712,47.58125],[4.42414,47.58569],[4.42349,47.58986]],
          [[4.40014,47.57855],[4.40097,47.57716],[4.40458,47.57866],[4.40847,47.57725],[4.41025,47.57153],[4.40597,47.56789],[4.40514,47.5646],[4.40958,47.56742],[4.41292,47.56754],[4.41554,47.56319],[4.41547,47.56097],[4.41347,47.5583],[4.40921,47.55597],[4.40904,47.55347],[4.40708,47.55031],[4.40319,47.54811],[4.40014,47.54756]],
          [[4.49517,47.49014],[4.49197,47.50097],[4.48461,47.50597],[4.4831,47.50958],[4.48016,47.51125],[4.4767,47.51625],[4.47541,47.51986],[4.47597,47.52202],[4.48819,47.52829],[4.49375,47.52855],[4.50931,47.52608],[4.51431,47.52757],[4.51975,47.52681],[4.52663,47.52181],[4.52736,47.51926],[4.53014,47.51985],[4.53653,47.51611],[4.53982,47.51236],[4.53938,47.51069],[4.54264,47.50988],[4.54792,47.50335],[4.54772,47.50514],[4.55069,47.50741],[4.56764,47.50343],[4.56819,47.502],[4.56935,47.50236],[4.56264,47.50813],[4.54486,47.51339],[4.54125,47.51526],[4.53621,47.52125],[4.51847,47.53155],[4.50208,47.5308],[4.48431,47.5356],[4.48323,47.53681],[4.48347,47.53944],[4.48736,47.54277],[4.49068,47.54403],[4.49708,47.54524],[4.50319,47.54508],[4.51319,47.54038],[4.52042,47.53535],[4.52764,47.53457],[4.53431,47.5321],[4.54875,47.53299],[4.55625,47.53159],[4.56347,47.52621],[4.56869,47.52403],[4.57986,47.51659]],
          [[4.40014,47.54181],[4.40597,47.54271],[4.40921,47.54014],[4.41024,47.53625],[4.40958,47.5274],[4.41241,47.53097],[4.41319,47.53572],[4.41577,47.53708],[4.41625,47.5386],[4.41903,47.53979],[4.42458,47.5399],[4.42744,47.53875],[4.42853,47.53736],[4.42736,47.53205],[4.43258,47.53125],[4.43549,47.52819],[4.437,47.52514],[4.43577,47.52319],[4.43724,47.52125],[4.44292,47.52282],[4.44958,47.52218],[4.45403,47.51895],[4.45423,47.51569],[4.45256,47.51319],[4.44403,47.50695],[4.4421,47.50403],[4.43846,47.50208],[4.44153,47.50118],[4.44764,47.50156],[4.44915,47.50042],[4.44912,47.49764],[4.45125,47.49784],[4.45486,47.4963],[4.45458,47.49405],[4.45777,47.49319],[4.45799,47.49014]],
          [[4.46318,47.49014],[4.46553,47.49875],[4.46792,47.50198],[4.47292,47.50366],[4.47625,47.50345],[4.48292,47.50111],[4.48732,47.49792],[4.48944,47.49347],[4.48863,47.49014]]
        ]
      }
    },
    {
      "type": "Feature",
      "properties": {"kind": "contour", "elevation": 290},
      "geometry": {
        "type": "MultiLineString",
        "coordinates": [
          [[4.57986,47.54917],[4.57473,47.55097],[4.57403,47.55323],[4.57125,47.55143],[4.56653,47.55234],[4.56097,47.54812],[4.55819,47.54764],[4.55403,47.54498],[4.54931,47.5392],[4.53903,47.53632],[4.53486,47.53681],[4.52903,47.53925],[4.52736,47.54088],[4.52542,47.54093],[4.51958,47.54251],[4.51569,47.54526],[4.51486,47.54739],[4.51125,47.54699],[4.50792,47.54835],[4.50539,47.55042],[4.50464,47.55319],[4.5079,47.55875],[4.51625,47.56332],[4.52101,47.56403],[4.52032,47.56542],[4.52317,47.57069],[4.52736,47.57397],[4.53181,47.5748],[4.53737,47.57458],[4.53653,47.57561],[4.53014,47.57618],[4.52653,47.57901],[4.5255,47.57486],[4.51819,47.57109],[4.51736,47.56923],[4.51347,47.56637],[4.50514,47.56328],[4.49819,47.5635],[4.50057,47.56125],[4.49626,47.55958],[4.49403,47.55629],[4.49208,47.55589],[4.48986,47.55753],[4.48486,47.55811],[4.48153,47.55287],[4.47819,47.55081],[4.47042,47.54973],[4.46403,47.55078],[4.46156,47.55236],[4.46118,47.55375],[4.46247,47.55681],[4.46676,47.55875],[4.46489,47.56125],[4.46289,47.56292],[4.45819,47.56259],[4.45319,47.56606],[4.45049,47.56458],[4.44736,47.56374],[4.44069,47.56541],[4.4377,47.57042],[4.4378,47.57431],[4.43098,47.57847],[4.42736,47.5818],[4.42483,47.58597],[4.42504,47.58986]],
          [[4.40014,47.58909],[4.40109,47.58764],[4.40014,47.58567]],
          [[4.40014,47.57687],[4.40403,47.57797],[4.40708,47.57772],[4.40943,47.57236],[4.40548,47.56764],[4.40431,47.56333],[4.40958,47.56686],[4.41292,47.56725],[4.41522,47.56319],[4.41292,47.5585],[4.40847,47.55634],[4.40874,47.55375],[4.40681,47.55066],[4.40328,47.54875],[4.40014,47.54827]],
          [[4.57986,47.52077],[4.57597,47.52274],[4.57234,47.52625],[4.56514,47.53043],[4.5627,47.53514],[4.56324,47.53736],[4.55966,47.53736],[4.55752,47.53931],[4.55902,47.54292],[4.56819,47.54794],[4.57569,47.54878],[4.57986,47.54745]],
          [[4.57965,47.49014],[4.57508,47.49792],[4.5701,47.50375],[4.56312,47.50903],[4.55597,47.5105],[4.54319,47.51491],[4.53888,47.51819],[4.5368,47.52181],[4.52153,47.52997],[4.51931,47.53195],[4.50236,47.53122],[4.49903,47.53163],[4.49097,47.53463],[4.48542,47.53564],[4.48382,47.53903],[4.49097,47.54372],[4.49708,47.54483],[4.50292,47.54436],[4.50597,47.54354],[4.51347,47.53962],[4.52042,47.53491],[4.52764,47.53397],[4.53403,47.53144],[4.54903,47.53257],[4.55653,47.53099],[4.55956,47.52903],[4.56153,47.52676],[4.57042,47.52232],[4.57986,47.51562]],
          [[4.40014,47.54142],[4.40514,47.54236],[4.4087,47.53986],[4.40957,47.53764],[4.40958,47.53458],[4.40911,47.53125],[4.40807,47.52875],[4.40958,47.52157],[4.41056,47.52792],[4.41328,47.53181],[4.41542,47.53319],[4.41373,47.53431],[4.41386,47.53569],[4.41597,47.53662],[4.41662,47.53819],[4.41875,47.53934],[4.42375,47.53952],[4.42681,47.53869],[4.42825,47.53653],[4.42569,47.53141],[4.43125,47.53074],[4.43485,47.52819],[4.43622,47.52569],[4.43514,47.52347],[4.43653,47.51999],[4.44319,47.52207],[4.44958,47.52166],[4.45125,47.52063],[4.45333,47.51819],[4.45208,47.51386],[4.44569,47.50835],[4.44367,47.50792],[4.44125,47.50431],[4.43457,47.50153],[4.44097,47.50012],[4.44708,47.50053],[4.44794,47.49903],[4.44722,47.49542],[4.45153,47.49464],[4.45182,47.49125],[4.45555,47.49014]],
          [[4.49615,47.49014],[4.4925,47.50208],[4.48958,47.50287],[4.48542,47.50599],[4.48463,47.50986],[4.48069,47.51168],[4.47701,47.51792],[4.47733,47.52125],[4.47958,47.52366],[4.48958,47.52803],[4.49403,47.52818],[4.50819,47.52562],[4.51681,47.52707],[4.52042,47.52619],[4.52614,47.52153],[4.52653,47.51752],[4.52958,47.51899],[4.53542,47.51626],[4.53949,47.51208],[4.53736,47.50953],[4.54151,47.50903],[4.5483,47.50014],[4.54958,47.49937],[4.55035,47.49986],[4.54969,47.50375],[4.55069,47.50664],[4.56486,47.50349],[4.56903,47.49898],[4.57403,47.49551],[4.57442,47.49264],[4.5765,47.49014]],
          [[4.46388,47.49014],[4.46438,47.49431],[4.46708,47.49944],[4.46986,47.50228],[4.47375,47.5033],[4.48264,47.5007],[4.48681,47.49766],[4.48904,47.49347],[4.48817,47.49014]]
        ]
      }
    },
    {
      "type": "Feature",
      "properties": {"kind": "contour", "elevation": 300},
      "geometry": {
        "type": "MultiLineString",
        "coordinates": [
          [[4.57986,47.54975],[4.57556,47.55153],[4.57458,47.55462],[4.57153,47.55228],[4.56986,47.55323],[4.56569,47.55327],[4.56447,47.55125],[4.56125,47.54892],[4.55681,47.5483],[4.55641,47.54653],[4.55236,47.54419],[4.55097,47.54125],[4.54903,47.53954],[4.53736,47.53666],[4.52958,47.53948],[4.52792,47.54128],[4.52597,47.54117],[4.52319,47.54245],[4.51903,47.54333],[4.51653,47.54516],[4.51514,47.54784],[4.51125,47.54753],[4.50736,47.54911],[4.50541,47.55347],[4.50785,47.55764],[4.51042,47.55986],[4.51708,47.56276],[4.52218,47.56319],[4.52144,47.56653],[4.52432,47.57069],[4.53042,47.57365],[4.53708,47.57357],[4.54286,47.57569],[4.53736,47.57683],[4.53181,47.57649],[4.53007,47.57708],[4.5281,47.57958],[4.52569,47.58022],[4.52417,47.57986],[4.52571,47.57764],[4.52514,47.57534],[4.52181,47.57309],[4.51751,47.57153],[4.51403,47.56708],[4.50458,47.56365],[4.49735,47.56403],[4.49931,47.56152],[4.49597,47.55992],[4.49284,47.55653],[4.49014,47.5579],[4.48458,47.55851],[4.48098,47.55292],[4.47792,47.55108],[4.47014,47.55005],[4.46431,47.55114],[4.46212,47.55264],[4.46197,47.55403],[4.46351,47.55681],[4.46784,47.55903],[4.46403,47.56337],[4.45875,47.56293],[4.45347,47.56676],[4.45042,47.56491],[4.44708,47.56416],[4.44094,47.56569],[4.43843,47.57042],[4.43881,47.57431],[4.43442,47.57653],[4.42819,47.5818],[4.42544,47.58653],[4.42629,47.58986]],
          [[4.40014,47.57556],[4.40264,47.57704],[4.40681,47.57728],[4.40895,47.57208],[4.40552,47.56847],[4.40292,47.56116],[4.41069,47.56645],[4.41292,47.56645],[4.41488,47.56347],[4.41262,47.55903],[4.40781,47.55681],[4.40837,47.55403],[4.40653,47.55115],[4.40486,47.54984],[4.40014,47.54911]],
          [[4.57986,47.52147],[4.5657,47.53069],[4.56353,47.53542],[4.56488,47.53792],[4.56012,47.53819],[4.55888,47.54014],[4.56069,47.54315],[4.56903,47.54757],[4.57514,47.54814],[4.57986,47.54703]],
          [[4.57986,47.49136],[4.57582,47.49847],[4.56453,47.50903],[4.54375,47.51526],[4.53931,47.51862],[4.53807,47.52181],[4.53486,47.5229],[4.52231,47.53014],[4.52008,47.53264],[4.50264,47.53162],[4.49903,47.53205],[4.49125,47.53508],[4.48569,47.53606],[4.48451,47.53903],[4.49125,47.54347],[4.49375,47.54413],[4.50014,47.54441],[4.50569,47.54323],[4.52012,47.53458],[4.52931,47.5332],[4.53375,47.53103],[4.55163,47.53181],[4.55847,47.52947],[4.56125,47.52636],[4.56875,47.52269],[4.57986,47.51495]],
          [[4.40014,47.54093],[4.40514,47.54177],[4.4081,47.53986],[4.40908,47.53792],[4.40891,47.53181],[4.40768,47.52903],[4.40883,47.52069],[4.40736,47.518],[4.40532,47.51625],[4.40736,47.5142],[4.40866,47.51458],[4.40861,47.51708],[4.41117,47.52042],[4.41118,47.52764],[4.41405,47.53181],[4.41716,47.53292],[4.41423,47.53514],[4.41958,47.53931],[4.42683,47.53819],[4.42775,47.53569],[4.4245,47.53181],[4.42653,47.53051],[4.43042,47.53034],[4.4332,47.52931],[4.43431,47.52827],[4.43544,47.52569],[4.43465,47.52375],[4.43492,47.52125],[4.43597,47.51926],[4.44486,47.52156],[4.44792,47.52146],[4.4509,47.52042],[4.45281,47.51792],[4.45166,47.51431],[4.44764,47.5117],[4.44627,47.50958],[4.44319,47.5082],[4.44089,47.50486],[4.42673,47.49986],[4.43708,47.50052],[4.44097,47.49912],[4.44292,47.50024],[4.44653,47.50009],[4.44705,47.49875],[4.44483,47.49569],[4.44681,47.49353],[4.44931,47.49343],[4.44907,47.49181],[4.45155,47.49014]],
          [[4.49704,47.49014],[4.49326,47.50264],[4.49014,47.50323],[4.48662,47.50542],[4.48499,47.50903],[4.48592,47.51014],[4.48125,47.51211],[4.47792,47.51862],[4.47828,47.52153],[4.48014,47.5237],[4.48986,47.52768],[4.49514,47.52769],[4.49736,47.52651],[4.50458,47.52597],[4.50792,47.52501],[4.51708,47.52668],[4.52097,47.52543],[4.52488,47.52208],[4.52514,47.51776],[4.52625,47.51666],[4.52958,47.51785],[4.53181,47.51749],[4.53875,47.51264],[4.53802,47.51097],[4.53442,47.50875],[4.54042,47.50833],[4.54319,47.50637],[4.55069,47.49561],[4.55173,47.49542],[4.55047,47.50458],[4.55292,47.50613],[4.56491,47.50292],[4.56866,47.49875],[4.57353,47.49514],[4.57365,47.49292],[4.57603,47.49014]],
          [[4.46478,47.49014],[4.46876,47.50042],[4.47022,47.50181],[4.47403,47.5029],[4.48264,47.50017],[4.48627,47.49764],[4.48867,47.49347],[4.4877,47.49014]]
        ]
      }
    },
    {
      "type": "Feature",
      "properties": {"kind": "contour", "elevation": 310},
      "geometry": {
        "type": "MultiLineString",
        "coordinates": [
          [[4.57986,47.55012],[4.57626,47.55181],[4.5762,47.55514],[4.57403,47.55503],[4.57153,47.5532],[4.56514,47.55385],[4.56431,47.55177],[4.56069,47.54903],[4.55617,47.54875],[4.55597,47.54688],[4.55183,47.54458],[4.55125,47.5425],[4.54874,47.53986],[4.53736,47.537],[4.52986,47.53978],[4.52819,47.54168],[4.52597,47.54154],[4.52347,47.54289],[4.51958,47.54361],[4.51694,47.54542],[4.51569,47.54851],[4.51181,47.54785],[4.50736,47.54958],[4.506,47.55264],[4.50821,47.55736],[4.51764,47.5624],[4.52042,47.56284],[4.52264,47.56231],[4.52199,47.56625],[4.52449,47.57014],[4.52696,47.57181],[4.53042,47.573],[4.53736,47.57296],[4.55176,47.57653],[4.54903,47.57794],[4.54653,47.57689],[4.54042,47.57664],[4.53819,47.57821],[4.53486,47.57679],[4.53236,47.57678],[4.52875,47.58025],[4.52069,47.58217],[4.5245,47.57875],[4.52505,47.57625],[4.52181,47.57365],[4.51575,47.57181],[4.51567,47.56958],[4.51362,47.56736],[4.50542,47.56438],[4.49653,47.5645],[4.49681,47.56175],[4.49347,47.55841],[4.48375,47.55878],[4.47958,47.55234],[4.47625,47.55115],[4.46819,47.55058],[4.4628,47.55292],[4.4643,47.55653],[4.46878,47.55875],[4.46428,47.56431],[4.45903,47.56341],[4.45347,47.56731],[4.45014,47.56531],[4.44625,47.56459],[4.44156,47.56597],[4.43915,47.57069],[4.44001,47.57458],[4.43542,47.57631],[4.42875,47.58196],[4.42611,47.58653],[4.42716,47.58986]],
          [[4.40014,47.57474],[4.40319,47.57661],[4.40653,47.57659],[4.40826,47.57208],[4.40485,47.56847],[4.40153,47.55973],[4.40335,47.55986],[4.41097,47.56588],[4.41319,47.56569],[4.41448,47.56347],[4.41208,47.55934],[4.40723,47.55736],[4.40784,47.55403],[4.40594,47.55125],[4.40431,47.55018],[4.40014,47.54967]],
          [[4.57986,47.52197],[4.56597,47.53122],[4.56478,47.53625],[4.56694,47.53875],[4.56125,47.53868],[4.55955,47.54014],[4.56179,47.54347],[4.56625,47.54489],[4.56903,47.54691],[4.57486,47.54758],[4.57986,47.54676]],
          [[4.50347,47.53207],[4.49903,47.53252],[4.49181,47.53545],[4.48653,47.53617],[4.48517,47.53847],[4.48597,47.53992],[4.49319,47.54374],[4.49847,47.54423],[4.50264,47.54373],[4.50792,47.54148],[4.51886,47.53431],[4.51653,47.5331],[4.50347,47.53207]],
          [[4.40014,47.54038],[4.40292,47.54127],[4.40514,47.54115],[4.40857,47.53792],[4.40855,47.53181],[4.40729,47.52903],[4.40831,47.52069],[4.40708,47.51845],[4.40421,47.51708],[4.40367,47.51486],[4.40634,47.51431],[4.40585,47.51125],[4.4078,47.51181],[4.40769,47.51347],[4.40977,47.51458],[4.40943,47.51708],[4.41074,47.51931],[4.41271,47.52042],[4.41189,47.52514],[4.4125,47.52792],[4.4145,47.53153],[4.41569,47.53229],[4.41836,47.53264],[4.41491,47.53514],[4.41958,47.53906],[4.42646,47.53792],[4.42716,47.53542],[4.42357,47.53181],[4.42625,47.53021],[4.42986,47.53002],[4.43292,47.52915],[4.4342,47.52792],[4.43429,47.52097],[4.43569,47.51875],[4.43736,47.51861],[4.44486,47.52129],[4.44792,47.52116],[4.45069,47.52014],[4.45243,47.51764],[4.45125,47.51458],[4.44736,47.51214],[4.44486,47.50923],[4.44228,47.50792],[4.441,47.50569],[4.43431,47.5027],[4.42764,47.50206],[4.4251,47.49903],[4.42708,47.49805],[4.42958,47.49866],[4.43069,47.49991],[4.43375,47.49929],[4.43708,47.49976],[4.44069,47.49861],[4.44347,47.50003],[4.44625,47.49962],[4.44629,47.49847],[4.4439,47.49542],[4.4455,47.49431],[4.44594,47.49153],[4.44792,47.49227],[4.44856,47.49014]],
          [[4.57986,47.49218],[4.57683,47.49875],[4.56498,47.50958],[4.54458,47.51544],[4.53986,47.51877],[4.53847,47.52231],[4.53512,47.52319],[4.52301,47.53042],[4.52008,47.53375],[4.52925,47.53292],[4.53458,47.53056],[4.55181,47.53155],[4.55847,47.52908],[4.56097,47.52599],[4.56847,47.52233],[4.57362,47.51792],[4.57986,47.5145]],
          [[4.49767,47.49014],[4.49594,47.49847],[4.49412,47.50042],[4.49455,47.50264],[4.49042,47.50369],[4.48728,47.50569],[4.48643,47.50875],[4.48771,47.51097],[4.48458,47.51114],[4.48194,47.51236],[4.4785,47.51986],[4.48042,47.52356],[4.48958,47.52726],[4.49403,47.52746],[4.49764,47.52618],[4.50486,47.5256],[4.50903,47.52449],[4.51319,47.52568],[4.51708,47.52617],[4.52099,47.52486],[4.52471,47.52125],[4.52452,47.51764],[4.52569,47.51494],[4.52931,47.51723],[4.53097,47.51733],[4.53841,47.51236],[4.53278,47.50792],[4.53847,47.508],[4.54292,47.50593],[4.5468,47.49931],[4.54638,47.49792],[4.55042,47.49491],[4.55305,47.49014]],
          [[4.55397,47.49014],[4.55106,47.50319],[4.55125,47.5048],[4.55319,47.50578],[4.56437,47.50264],[4.56847,47.49839],[4.57296,47.49486],[4.57289,47.49347],[4.57568,47.49014]],
          [[4.4662,47.49014],[4.46977,47.50042],[4.47431,47.50249],[4.48264,47.49975],[4.48625,47.49711],[4.48825,47.49347],[4.48725,47.49014]]
        ]
      }
    },
    {
      "type": "Feature",
      "properties": {"kind": "contour", "elevation": 320},
      "geometry": {
        "type": "MultiLineString",
        "coordinates": [
          [[4.57986,47.55047],[4.57728,47.55208],[4.57736,47.55552],[4.57403,47.55536],[4.57125,47.55377],[4.56708,47.55393],[4.56458,47.55501],[4.56375,47.5518],[4.55986,47.54899],[4.55583,47.54903],[4.55535,47.54708],[4.55116,47.54458],[4.55097,47.54285],[4.54875,47.54039],[4.53875,47.53737],[4.53592,47.53764],[4.53372,47.53931],[4.53014,47.54007],[4.52847,47.54222],[4.52581,47.54208],[4.52398,47.54319],[4.52069,47.54349],[4.51781,47.54542],[4.51597,47.54901],[4.51208,47.54812],[4.50736,47.55014],[4.50676,47.55292],[4.51,47.55819],[4.51819,47.56215],[4.52069,47.56247],[4.5241,47.56125],[4.52267,47.56597],[4.52792,47.57171],[4.53042,47.5724],[4.53764,47.57247],[4.54517,47.57486],[4.55069,47.57592],[4.55511,47.57514],[4.55601,47.57569],[4.55042,47.57837],[4.54875,47.58035],[4.54681,47.57739],[4.5404,47.57708],[4.53875,47.57928],[4.53264,47.57711],[4.53014,47.58082],[4.51903,47.58291],[4.51708,47.58511],[4.51633,47.58431],[4.51708,47.58282],[4.52264,47.57959],[4.52428,47.57653],[4.52153,47.57412],[4.51514,47.57249],[4.51507,47.56986],[4.51292,47.5675],[4.50569,47.56483],[4.49625,47.56492],[4.49573,47.56153],[4.49375,47.5595],[4.48819,47.55873],[4.48375,47.55947],[4.47875,47.55249],[4.47542,47.55137],[4.46847,47.55086],[4.46541,47.55236],[4.46549,47.55597],[4.46995,47.55847],[4.46486,47.5648],[4.45958,47.56416],[4.45319,47.56791],[4.44792,47.5654],[4.44458,47.56529],[4.44218,47.56625],[4.43974,47.57097],[4.44081,47.57486],[4.43569,47.5767],[4.42951,47.58208],[4.42706,47.58653],[4.42816,47.58986]],
          [[4.45391,47.58986],[4.45597,47.58851],[4.45617,47.58986]],
          [[4.40014,47.5739],[4.40125,47.57374],[4.40236,47.57555],[4.40514,47.57617],[4.40692,47.57208],[4.40386,47.56819],[4.40348,47.56542],[4.40154,47.56292],[4.40069,47.55914],[4.40431,47.55957],[4.41042,47.56519],[4.41292,47.56531],[4.41406,47.56375],[4.41069,47.55892],[4.40666,47.55819],[4.40709,47.55403],[4.40566,47.55181],[4.40014,47.55014]],
          [[4.57986,47.5225],[4.56651,47.53181],[4.56635,47.53625],[4.56957,47.53931],[4.56181,47.5392],[4.56008,47.54042],[4.56153,47.54275],[4.56653,47.54441],[4.5695,47.54653],[4.57486,47.54716],[4.57986,47.54652]],
          [[4.50403,47.53263],[4.49903,47.53291],[4.49625,47.53366],[4.49208,47.53594],[4.48681,47.53649],[4.48585,47.53847],[4.48687,47.54014],[4.49403,47.54351],[4.50236,47.54346],[4.50764,47.54129],[4.51728,47.53431],[4.51542,47.53334],[4.50403,47.53263]],
          [[4.40014,47.53973],[4.40181,47.54064],[4.40486,47.54074],[4.40787,47.53792],[4.40817,47.53236],[4.4069,47.52875],[4.408,47.52097],[4.40681,47.51872],[4.40228,47.51708],[4.40376,47.51597],[4.40143,47.51319],[4.40569,47.51412],[4.4057,47.51236],[4.40332,47.50986],[4.40681,47.51038],[4.40847,47.50761],[4.40982,47.50958],[4.40819,47.5132],[4.41042,47.51392],[4.41161,47.51319],[4.41004,47.51681],[4.41125,47.51909],[4.41435,47.52042],[4.41245,47.52347],[4.413,47.52792],[4.41541,47.53181],[4.41966,47.53236],[4.41545,47.53486],[4.41971,47.53875],[4.42619,47.53736],[4.42653,47.53508],[4.42278,47.53208],[4.42319,47.53143],[4.42628,47.52986],[4.43264,47.52892],[4.43401,47.52764],[4.43383,47.52069],[4.43569,47.51836],[4.43764,47.51792],[4.44014,47.51945],[4.44458,47.52106],[4.44764,47.52098],[4.45042,47.51995],[4.45203,47.51764],[4.45125,47.51512],[4.44708,47.51243],[4.44455,47.50958],[4.44181,47.50811],[4.44066,47.50597],[4.43347,47.50281],[4.42653,47.50261],[4.42366,47.49986],[4.42431,47.49819],[4.42708,47.49685],[4.42847,47.49786],[4.42986,47.49759],[4.43097,47.49934],[4.43292,47.49878],[4.43764,47.49923],[4.44069,47.49825],[4.44347,47.49977],[4.44504,47.49958],[4.44588,47.49875],[4.44326,47.49569],[4.44483,47.49431],[4.44494,47.49097],[4.44718,47.49014]],
          [[4.57986,47.49419],[4.57763,47.49903],[4.57417,47.50125],[4.56458,47.5106],[4.55183,47.51347],[4.54403,47.51631],[4.54,47.51931],[4.53903,47.52275],[4.5359,47.52347],[4.52342,47.53069],[4.5229,47.53292],[4.52931,47.53255],[4.53486,47.5302],[4.55181,47.53127],[4.55819,47.5288],[4.56069,47.52539],[4.56819,47.52202],[4.57431,47.51679],[4.57986,47.51404]],
          [[4.49826,47.49014],[4.49663,47.49569],[4.497,47.49875],[4.4948,47.50069],[4.49566,47.50319],[4.49153,47.50392],[4.48819,47.50565],[4.48718,47.50708],[4.48862,47.51125],[4.48486,47.51156],[4.48279,47.51264],[4.47957,47.51903],[4.48069,47.52343],[4.48847,47.5267],[4.49181,47.52712],[4.50014,47.52525],[4.50542,47.52521],[4.50903,47.52407],[4.51042,47.52403],[4.51319,47.52541],[4.51625,47.5256],[4.52096,47.52431],[4.52399,47.52153],[4.52422,47.51597],[4.52569,47.51407],[4.52736,47.51573],[4.53069,47.51699],[4.53653,47.51358],[4.53681,47.51124],[4.53279,47.50903],[4.53169,47.50736],[4.53347,47.5068],[4.53819,47.50747],[4.54236,47.50551],[4.54572,47.49931],[4.54554,47.49708],[4.54942,47.49542],[4.55028,47.49375],[4.54972,47.49236],[4.55125,47.49206],[4.5526,47.49014]],
          [[4.5551,47.49014],[4.55167,47.50264],[4.55175,47.50431],[4.55347,47.50529],[4.56431,47.50193],[4.57221,47.49486],[4.57232,47.49347],[4.57537,47.49014]],
          [[4.46725,47.49014],[4.47058,47.50014],[4.47431,47.50194],[4.48264,47.4994],[4.48479,47.49764],[4.48767,47.49375],[4.48679,47.49014]],
          [[4.4023,47.49014],[4.40153,47.49347],[4.40014,47.49368]]
        ]
      }
    },
    {
      "type": "Feature",
      "properties": {"kind": "contour", "elevation": 330},
      "geometry": {
        "type": "MultiLineString",
        "coordinates": [
          [[4.57986,47.55083],[4.5775,47.55264],[4.57931,47.55552],[4.57486,47.5558],[4.57181,47.55422],[4.56903,47.55415],[4.56375,47.55576],[4.5639,47.55347],[4.56349,47.55208],[4.55986,47.54936],[4.55534,47.54931],[4.55498,47.54736],[4.5505,47.54458],[4.55051,47.54292],[4.54829,47.54069],[4.53819,47.53771],[4.53597,47.53812],[4.53347,47.53976],[4.53069,47.54017],[4.52903,47.54276],[4.52625,47.54242],[4.52431,47.54356],[4.52096,47.54375],[4.51847,47.5455],[4.51667,47.54931],[4.51264,47.54835],[4.51097,47.5487],[4.5089,47.54986],[4.50764,47.55083],[4.5073,47.55264],[4.51042,47.55785],[4.51764,47.56163],[4.51958,47.56218],[4.52319,47.56068],[4.52532,47.56097],[4.52545,47.56264],[4.52375,47.56395],[4.52316,47.56569],[4.52819,47.57139],[4.53097,47.57205],[4.53458,47.57149],[4.53764,47.572],[4.54486,47.57443],[4.55153,47.57572],[4.55348,47.57542],[4.55486,47.57435],[4.55986,47.57504],[4.56069,47.57597],[4.55736,47.57608],[4.55347,47.57725],[4.54764,47.58134],[4.54681,47.57778],[4.54069,47.57749],[4.54061,47.57903],[4.53875,47.57968],[4.53292,47.57739],[4.53097,47.58143],[4.52736,47.58136],[4.51874,47.58347],[4.51777,47.58514],[4.51875,47.5874],[4.51492,47.58431],[4.51614,47.58375],[4.51728,47.58208],[4.52181,47.57973],[4.5237,47.57708],[4.52014,47.57398],[4.51458,47.57314],[4.51428,47.57014],[4.51264,47.56792],[4.50569,47.5652],[4.49625,47.56535],[4.49483,47.56431],[4.4947,47.56125],[4.49298,47.55986],[4.48369,47.56014],[4.47819,47.55288],[4.46847,47.55127],[4.46627,47.55236],[4.46625,47.55484],[4.47099,47.55847],[4.46577,47.56486],[4.46431,47.56576],[4.45875,47.56501],[4.45514,47.56807],[4.45208,47.56877],[4.44736,47.56585],[4.44264,47.56672],[4.44047,47.57097],[4.44162,47.57486],[4.43597,47.57728],[4.43013,47.58236],[4.42805,47.58653],[4.42919,47.58986]],
          [[4.45326,47.58986],[4.45517,47.58764],[4.46042,47.58673],[4.45698,47.58986]],
          [[4.40014,47.57265],[4.4019,47.57292],[4.40269,47.57514],[4.40514,47.57566],[4.40567,47.57125],[4.4031,47.56819],[4.40279,47.56486],[4.40116,47.56347],[4.40014,47.56063]],
          [[4.40847,47.5587],[4.40588,47.55931],[4.40653,47.56108],[4.41019,47.56319],[4.41069,47.5648],[4.41264,47.56487],[4.41321,47.56403],[4.41102,47.56014],[4.40847,47.5587]],
          [[4.40014,47.55788],[4.40486,47.55866],[4.40575,47.55514],[4.40528,47.55264],[4.40319,47.55117],[4.40014,47.55087]],
          [[4.57986,47.52296],[4.56693,47.53236],[4.56694,47.53569],[4.56819,47.53756],[4.57065,47.53875],[4.57019,47.53958],[4.56264,47.53962],[4.56071,47.54069],[4.56181,47.54227],[4.57069,47.54624],[4.57986,47.5462]],
          [[4.50236,47.53292],[4.49653,47.53397],[4.49264,47.53643],[4.48736,47.53682],[4.48736,47.5401],[4.49436,47.54319],[4.49931,47.54342],[4.50708,47.54122],[4.51653,47.53431],[4.51514,47.53363],[4.50236,47.53292]],
          [[4.40014,47.5389],[4.40181,47.54022],[4.40431,47.54044],[4.40706,47.53847],[4.40761,47.53236],[4.40642,47.52653],[4.40771,47.52153],[4.40653,47.51901],[4.40065,47.51708],[4.40281,47.51597],[4.40014,47.51282]],
          [[4.40014,47.51184],[4.40487,47.51375],[4.40505,47.51236],[4.40076,47.50819],[4.40347,47.50837],[4.40625,47.50996],[4.40782,47.50597],[4.40922,47.50569],[4.41052,47.50931],[4.40883,47.51292],[4.41303,47.51264],[4.41079,47.51681],[4.41204,47.51903],[4.41568,47.52042],[4.41375,47.52156],[4.41294,47.52347],[4.41414,47.52931],[4.41604,47.53153],[4.42083,47.53208],[4.4171,47.53486],[4.41875,47.53742],[4.42069,47.53822],[4.42458,47.53695],[4.4258,47.53542],[4.42483,47.53375],[4.42132,47.53208],[4.42708,47.52902],[4.42986,47.5292],[4.43361,47.52736],[4.43332,47.52042],[4.43514,47.51838],[4.43792,47.51741],[4.44347,47.52063],[4.44653,47.52095],[4.45007,47.51986],[4.45169,47.51681],[4.45089,47.51514],[4.44683,47.51264],[4.44431,47.50989],[4.44153,47.50827],[4.43986,47.50594],[4.43319,47.50304],[4.42625,47.50314],[4.42188,47.49931],[4.42347,47.49895],[4.42403,47.49752],[4.42569,47.4975],[4.42681,47.49595],[4.42875,47.49731],[4.43042,47.49688],[4.43181,47.49855],[4.43764,47.49887],[4.44069,47.49796],[4.44431,47.49947],[4.44505,47.49847],[4.44276,47.49569],[4.44446,47.49292],[4.44363,47.49069],[4.44542,47.49014]],
          [[4.57986,47.49567],[4.57843,47.49931],[4.57458,47.50164],[4.56458,47.51135],[4.55708,47.51252],[4.54569,47.51598],[4.54042,47.51958],[4.53979,47.52292],[4.53625,47.52394],[4.52486,47.53038],[4.5237,47.53236],[4.52931,47.53202],[4.53569,47.52954],[4.55125,47.53105],[4.55847,47.52821],[4.5601,47.52514],[4.56764,47.52148],[4.5742,47.51625],[4.57986,47.5135]],
          [[4.49908,47.49014],[4.49711,47.49597],[4.49792,47.49873],[4.4953,47.50097],[4.49703,47.50347],[4.49125,47.5045],[4.48847,47.50591],[4.48779,47.50847],[4.49025,47.51153],[4.48514,47.51205],[4.48375,47.51294],[4.48008,47.51986],[4.48104,47.52292],[4.48961,47.52653],[4.49236,47.52671],[4.50153,47.52453],[4.50514,47.52491],[4.51014,47.52333],[4.51347,47.52515],[4.51681,47.52516],[4.52042,47.5241],[4.52341,47.52181],[4.52363,47.51597],[4.52569,47.51237],[4.52799,47.51542],[4.53014,47.51622],[4.53632,47.51319],[4.53617,47.51125],[4.52887,47.50653],[4.53347,47.50642],[4.53708,47.50709],[4.54125,47.50547],[4.54507,47.49931],[4.54445,47.49653],[4.54903,47.49534],[4.54971,47.49403],[4.54921,47.49208],[4.55097,47.4916],[4.55226,47.49014]],
          [[4.55598,47.49014],[4.55284,47.50042],[4.55268,47.50292],[4.55431,47.50405],[4.55792,47.50365],[4.56403,47.50137],[4.57016,47.49625],[4.57169,47.49347],[4.57498,47.49014]],
          [[4.46799,47.49014],[4.46819,47.49296],[4.47108,47.49986],[4.47264,47.50092],[4.47542,47.50129],[4.48347,47.49846],[4.48714,47.49264],[4.48594,47.49014]],
          [[4.40355,47.49014],[4.4027,47.49208],[4.4038,47.49625],[4.40014,47.49469]]
        ]
      }
    },
    {
      "type": "Feature",
      "properties": {"kind": "contour", "elevation": 340},
      "geometry": {
        "type": "MultiLineString",
        "coordinates": [
          [[4.57986,47.55588],[4.57458,47.55601],[4.57181,47.55456],[4.56931,47.55444],[4.56292,47.55605],[4.56359,47.55347],[4.56332,47.55236],[4.55931,47.54949],[4.55509,47.54958],[4.55453,47.54736],[4.54991,47.54458],[4.55011,47.54319],[4.54903,47.54175],[4.54458,47.53976],[4.53819,47.53811],[4.53347,47.54012],[4.53097,47.54033],[4.52903,47.54326],[4.52625,47.54271],[4.52486,47.54403],[4.52097,47.54408],[4.51876,47.54597],[4.51764,47.54987],[4.51292,47.54862],[4.51097,47.549],[4.50819,47.55093],[4.50788,47.55181],[4.51014,47.55706],[4.51764,47.56134],[4.51986,47.562],[4.52292,47.56051],[4.52653,47.56003],[4.52602,47.56264],[4.52412,47.56403],[4.52355,47.56569],[4.52819,47.57103],[4.53097,47.57177],[4.53431,47.57106],[4.53764,47.57149],[4.54236,47.57332],[4.55125,47.5754],[4.55374,47.57486],[4.55403,47.57323],[4.55625,47.57448],[4.56069,47.57467],[4.56238,47.57653],[4.55792,47.5764],[4.55514,47.57701],[4.55151,47.57875],[4.54903,47.5815],[4.54625,47.58189],[4.5472,47.58014],[4.54668,47.57819],[4.54181,47.57794],[4.54088,47.57958],[4.53903,47.58001],[4.53292,47.57777],[4.53153,47.5824],[4.52736,47.58164],[4.51883,47.58375],[4.51805,47.58514],[4.51931,47.58797],[4.51542,47.58503],[4.51307,47.58458],[4.51562,47.58375],[4.51708,47.58195],[4.52153,47.57957],[4.52308,47.57792],[4.52325,47.57708],[4.51931,47.57407],[4.51403,47.57367],[4.514,47.57097],[4.51208,47.56826],[4.50569,47.56565],[4.49625,47.56582],[4.49403,47.56483],[4.49292,47.5605],[4.48347,47.56062],[4.47756,47.55319],[4.46847,47.55175],[4.46663,47.55264],[4.46681,47.55458],[4.47181,47.55729],[4.47223,47.55875],[4.46956,47.56097],[4.46631,47.56542],[4.46458,47.56644],[4.45931,47.56556],[4.45569,47.56864],[4.45264,47.56939],[4.44708,47.56624],[4.44325,47.56708],[4.44114,47.57069],[4.4427,47.57514],[4.43736,47.57727],[4.43151,47.58153],[4.42866,47.58653],[4.43018,47.58986]],
          [[4.45251,47.58986],[4.45458,47.58733],[4.46208,47.58524],[4.45775,47.58986]],
          [[4.40014,47.57161],[4.40298,47.57236],[4.40323,47.57486],[4.40476,47.57542],[4.40509,47.57153],[4.40242,47.56792],[4.40224,47.56514],[4.40035,47.56319],[4.40014,47.56167]],
          [[4.40014,47.55732],[4.40319,47.5582],[4.40458,47.55728],[4.40504,47.55597],[4.40403,47.55242],[4.40264,47.55153],[4.40014,47.5514]],
          [[4.57986,47.55116],[4.57785,47.55264],[4.57986,47.55497]],
          [[4.57986,47.52337],[4.5681,47.53153],[4.56719,47.53347],[4.5675,47.53514],[4.56875,47.53731],[4.57153,47.53847],[4.57096,47.53986],[4.56292,47.53992],[4.56148,47.54069],[4.56236,47.54199],[4.57125,47.54557],[4.57986,47.54558]],
          [[4.50236,47.53319],[4.49708,47.53419],[4.49347,47.53687],[4.48819,47.53723],[4.48783,47.53958],[4.49569,47.54297],[4.50403,47.54203],[4.50697,47.54097],[4.51598,47.53458],[4.51292,47.53377],[4.50236,47.53319]],
          [[4.40014,47.53836],[4.40236,47.53997],[4.40583,47.53903],[4.40708,47.53236],[4.4059,47.52903],[4.40653,47.52021],[4.40472,47.51875],[4.40014,47.51761]],
          [[4.57986,47.49695],[4.57906,47.49986],[4.57423,47.50264],[4.56597,47.51127],[4.54596,47.51625],[4.54125,47.51959],[4.5409,47.52319],[4.53569,47.52478],[4.52493,47.53069],[4.52425,47.53208],[4.52681,47.5321],[4.53542,47.52906],[4.54069,47.5299],[4.54514,47.52976],[4.54958,47.53044],[4.55208,47.53012],[4.55802,47.52792],[4.55922,47.52486],[4.56319,47.52326],[4.57262,47.51653],[4.57986,47.51278]],
          [[4.40014,47.50668],[4.40375,47.50754],[4.40569,47.50905],[4.4072,47.50681],[4.40514,47.50458],[4.40819,47.50493],[4.40958,47.50392],[4.41071,47.50542],[4.40998,47.50764],[4.41165,47.50931],[4.40958,47.51245],[4.41458,47.5111],[4.41458,47.51282],[4.41168,47.51653],[4.41319,47.51866],[4.41676,47.52014],[4.41447,47.52153],[4.41358,47.52347],[4.41427,47.52792],[4.41625,47.53077],[4.42097,47.53111],[4.42708,47.52842],[4.43014,47.52829],[4.43307,47.52681],[4.43267,47.52042],[4.43597,47.51723],[4.43819,47.51696],[4.44375,47.52037],[4.44653,47.5207],[4.44986,47.51949],[4.45117,47.51625],[4.45042,47.51515],[4.44782,47.51375],[4.44458,47.51056],[4.44153,47.50864],[4.44014,47.50657],[4.43792,47.50523],[4.43319,47.50336],[4.42569,47.50344],[4.42375,47.50112],[4.42009,47.49958],[4.42319,47.49862],[4.42357,47.49708],[4.42514,47.49702],[4.42597,47.49475],[4.42847,47.49666],[4.43069,47.49627],[4.43208,47.49808],[4.43764,47.49853],[4.44069,47.49768],[4.44347,47.49874],[4.4423,47.49597],[4.44387,47.49181],[4.4427,47.49014]],
          [[4.49969,47.49014],[4.49774,47.49597],[4.49924,47.49847],[4.49579,47.50125],[4.49823,47.50403],[4.48897,47.50597],[4.48827,47.50875],[4.4918,47.51208],[4.48486,47.5128],[4.48088,47.51986],[4.48268,47.52264],[4.48958,47.52593],[4.49486,47.52582],[4.50208,47.52409],[4.50542,47.52431],[4.51042,47.52278],[4.51181,47.52384],[4.51458,47.52478],[4.52014,47.52379],[4.52274,47.52181],[4.52324,47.51569],[4.52569,47.51137],[4.53014,47.51588],[4.53609,47.51236],[4.53514,47.51104],[4.52924,47.50764],[4.52803,47.50597],[4.53375,47.50611],[4.53681,47.50675],[4.54069,47.50506],[4.54444,47.49931],[4.54346,47.49597],[4.54866,47.49514],[4.54925,47.49319],[4.54794,47.49181],[4.55069,47.4913],[4.55183,47.49014]],
          [[4.40014,47.51094],[4.40347,47.51216],[4.40014,47.50884]],
          [[4.55657,47.49014],[4.55364,47.50042],[4.55597,47.50297],[4.56181,47.50207],[4.56403,47.5007],[4.56974,47.49625],[4.57116,47.49319],[4.57452,47.49014]],
          [[4.46866,47.49014],[4.47025,47.49736],[4.47263,47.50042],[4.47431,47.50079],[4.48347,47.498],[4.48651,47.49208],[4.48525,47.49014]],
          [[4.40522,47.49014],[4.40393,47.49097],[4.40382,47.49264],[4.40496,47.49736],[4.40014,47.49536]]
        ]
      }
    },
    {
      "type": "Feature",
      "properties": {"kind": "contour", "elevation": 350},
      "geometry": {
        "type": "MultiLineString",
        "coordinates": [
          [[4.57986,47.55614],[4.57458,47.5562],[4.57153,47.55486],[4.56819,47.55474],[4.56431,47.55651],[4.56153,47.55633],[4.56302,47.55486],[4.56328,47.55319],[4.56292,47.55234],[4.56076,47.55069],[4.55903,47.54965],[4.55486,47.54974],[4.55431,47.54753],[4.54958,47.5449],[4.54951,47.54292],[4.54792,47.54146],[4.54458,47.54005],[4.53792,47.53849],[4.53486,47.54002],[4.53097,47.54062],[4.52958,47.54365],[4.52653,47.54302],[4.52486,47.54444],[4.52097,47.54444],[4.51906,47.54625],[4.51829,47.55069],[4.51292,47.54892],[4.51097,47.54935],[4.50831,47.55208],[4.5104,47.55681],[4.51373,47.55903],[4.52014,47.56179],[4.52264,47.56036],[4.52829,47.55903],[4.52632,47.56292],[4.52444,47.56431],[4.52395,47.56569],[4.52847,47.57083],[4.53097,47.57151],[4.53431,47.57059],[4.53792,47.57111],[4.54458,47.57358],[4.55125,47.57511],[4.55324,47.57458],[4.55292,47.57247],[4.55653,47.57413],[4.56097,47.57373],[4.56159,47.57542],[4.56333,47.57681],[4.56264,47.57748],[4.55792,47.57681],[4.55486,47.57744],[4.55169,47.57903],[4.54931,47.58182],[4.54431,47.58294],[4.54685,47.58014],[4.54625,47.57865],[4.54242,47.57847],[4.54181,47.57965],[4.53958,47.58036],[4.53292,47.57823],[4.53208,47.58402],[4.52736,47.58192],[4.52208,47.58329],[4.52003,47.58347],[4.51903,47.58392],[4.51831,47.58514],[4.52014,47.58899],[4.51514,47.58516],[4.51139,47.58458],[4.51542,47.58356],[4.51692,47.58181],[4.52143,47.57931],[4.52269,47.57792],[4.52283,47.57708],[4.51792,47.57407],[4.51292,47.57439],[4.51334,47.57097],[4.51154,47.56847],[4.50569,47.56614],[4.50097,47.56651],[4.49431,47.56561],[4.49328,47.56486],[4.49273,47.56097],[4.48347,47.56122],[4.47736,47.55373],[4.47097,47.55216],[4.46792,47.55232],[4.46707,47.55319],[4.46776,47.55458],[4.47236,47.55637],[4.47339,47.55792],[4.47305,47.55931],[4.46984,47.56125],[4.46597,47.56679],[4.45958,47.566],[4.45597,47.56918],[4.45292,47.56999],[4.44736,47.56672],[4.44387,47.56708],[4.44171,47.57069],[4.44355,47.57514],[4.43736,47.57779],[4.43181,47.58181],[4.42903,47.58708],[4.43093,47.58986]],
          [[4.43379,47.58986],[4.43431,47.58924],[4.43488,47.58986]],
          [[4.45192,47.58986],[4.45437,47.58708],[4.46014,47.58562],[4.46292,47.58342],[4.4626,47.58625],[4.45828,47.58986]],
          [[4.40014,47.57125],[4.40406,47.57181],[4.40014,47.56376]],
          [[4.40014,47.55669],[4.40292,47.55765],[4.40403,47.55729],[4.40458,47.55625],[4.40403,47.55308],[4.40236,47.5519],[4.40014,47.55187]],
          [[4.57986,47.55147],[4.57824,47.55264],[4.57986,47.55461]],
          [[4.57986,47.52386],[4.56875,47.53144],[4.56781,47.53319],[4.56903,47.53699],[4.57264,47.53819],[4.5723,47.53986],[4.56958,47.54056],[4.56292,47.54019],[4.56192,47.54097],[4.57264,47.54551],[4.57986,47.54503]],
          [[4.50347,47.53346],[4.50069,47.53362],[4.49736,47.53444],[4.49375,47.53736],[4.48847,47.5378],[4.48819,47.53914],[4.49569,47.54245],[4.50069,47.54236],[4.50458,47.5417],[4.50648,47.54097],[4.51525,47.53486],[4.51319,47.53408],[4.50347,47.53346]],
          [[4.40014,47.53793],[4.40236,47.53959],[4.40532,47.53875],[4.40648,47.53236],[4.40522,47.52625],[4.40622,47.52153],[4.4039,47.51903],[4.40014,47.5182]],
          [[4.42264,47.53347],[4.42125,47.53333],[4.41918,47.53458],[4.41874,47.53542],[4.41958,47.53633],[4.42097,47.53674],[4.4234,47.53569],[4.42384,47.53458],[4.42264,47.53347]],
          [[4.57986,47.49883],[4.57969,47.50014],[4.57569,47.50206],[4.56625,47.51181],[4.54625,47.51648],[4.54169,47.51986],[4.54119,47.52347],[4.53569,47.52527],[4.52542,47.5308],[4.52486,47.53181],[4.53514,47.52873],[4.54958,47.5301],[4.55292,47.52937],[4.5575,47.52764],[4.55871,47.52458],[4.56292,47.52286],[4.57236,47.51613],[4.57736,47.5138],[4.57986,47.5118]],
          [[4.40014,47.50583],[4.4055,47.50681],[4.4034,47.50403],[4.40514,47.50346],[4.40514,47.50169],[4.40708,47.50185],[4.40792,47.50347],[4.40931,47.50196],[4.41147,47.50292],[4.4114,47.50736],[4.41401,47.50875],[4.41575,47.51125],[4.41284,47.51569],[4.41303,47.51708],[4.41431,47.51855],[4.41766,47.51986],[4.41492,47.52181],[4.41429,47.52375],[4.41683,47.53014],[4.42069,47.53055],[4.42708,47.52786],[4.43069,47.5274],[4.43201,47.52653],[4.43221,47.51986],[4.43542,47.51696],[4.43847,47.51653],[4.4427,47.51931],[4.44681,47.52018],[4.44995,47.51847],[4.45039,47.51597],[4.43764,47.50545],[4.43319,47.50373],[4.42542,47.50386],[4.42315,47.50125],[4.41913,47.49931],[4.4226,47.49819],[4.4227,47.49653],[4.42569,47.49401],[4.42875,47.49578],[4.43042,47.49516],[4.43347,47.49779],[4.44208,47.49758],[4.44176,47.49625],[4.44346,47.49208],[4.44203,47.49014]],
          [[4.50019,47.49014],[4.49874,47.49625],[4.50009,47.49875],[4.4965,47.50125],[4.49935,47.50403],[4.48942,47.50625],[4.48873,47.50875],[4.49319,47.51169],[4.49334,47.51292],[4.4851,47.51319],[4.48218,47.51819],[4.48227,47.52153],[4.48847,47.52524],[4.49458,47.5255],[4.51042,47.52249],[4.51208,47.52364],[4.51486,47.52449],[4.51973,47.52347],[4.52239,47.52125],[4.52295,47.51542],[4.52484,47.51181],[4.52437,47.51069],[4.52708,47.51145],[4.53014,47.51564],[4.53553,47.51236],[4.53514,47.51157],[4.52819,47.50706],[4.52744,47.50514],[4.53681,47.50636],[4.54014,47.50473],[4.54367,47.49931],[4.54289,47.49542],[4.5477,47.49514],[4.5488,47.49347],[4.54716,47.49125],[4.54986,47.49116],[4.55132,47.49014]],
          [[4.55708,47.49014],[4.55456,47.49847],[4.55541,47.50208],[4.55708,47.50247],[4.56292,47.5007],[4.56916,47.49625],[4.57087,47.49264],[4.57262,47.49181],[4.5739,47.49014]],
          [[4.46914,47.49014],[4.46924,47.49264],[4.47064,47.49653],[4.47296,47.49986],[4.47458,47.5005],[4.48325,47.49764],[4.48578,47.49181],[4.48444,47.49014]],
          [[4.40609,47.49014],[4.4047,47.49097],[4.40441,47.49292],[4.40622,47.49597],[4.40895,47.49764],[4.40847,47.49862],[4.40653,47.49897],[4.40014,47.49603]],
          [[4.43057,47.49014],[4.42958,47.49088],[4.42801,47.49014]]
        ]
      }
    },
    {
      "type": "Feature",
      "properties": {"kind": "contour", "elevation": 360},
      "geometry": {
        "type": "MultiLineString",
        "coordinates": [
          [[4.57986,47.55636],[4.57458,47.55639],[4.57181,47.55534],[4.57097,47.55606],[4.56819,47.55507],[4.56431,47.55716],[4.56042,47.5578],[4.56014,47.55605],[4.56285,47.55431],[4.56256,47.55236],[4.559,47.54986],[4.55458,47.54986],[4.55403,47.54766],[4.54879,47.54514],[4.54923,47.54319],[4.54792,47.54177],[4.54431,47.54022],[4.53764,47.53874],[4.53514,47.54037],[4.53098,47.54097],[4.53039,47.54403],[4.52708,47.54364],[4.52514,47.54477],[4.52125,47.5447],[4.51915,47.54764],[4.52075,47.55181],[4.51347,47.54935],[4.51126,47.54958],[4.50865,47.55181],[4.51069,47.55653],[4.51373,47.55875],[4.51847,47.56099],[4.52042,47.56133],[4.52236,47.56017],[4.52708,47.55913],[4.53236,47.55657],[4.52824,47.56014],[4.52681,47.56338],[4.52459,47.56542],[4.52875,47.57055],[4.53097,47.57118],[4.53431,47.56995],[4.54625,47.57377],[4.55208,47.5747],[4.55247,47.57403],[4.5492,47.57236],[4.54861,47.56903],[4.54975,47.56708],[4.54906,47.56431],[4.55236,47.56426],[4.55064,47.56625],[4.55086,47.56958],[4.55569,47.57228],[4.55908,47.57264],[4.55903,47.57372],[4.56125,47.57228],[4.56204,47.57514],[4.56393,47.57597],[4.56375,47.57835],[4.55653,47.57742],[4.5527,47.57875],[4.54976,47.58208],[4.5449,47.58375],[4.54597,47.58605],[4.54236,47.58489],[4.54018,47.58292],[4.54153,47.58162],[4.54514,47.58126],[4.54642,47.58014],[4.54569,47.57908],[4.54347,47.57906],[4.54097,47.58089],[4.53653,47.58032],[4.53319,47.57878],[4.5343,47.58264],[4.53636,47.58458],[4.53569,47.58528],[4.53035,47.58542],[4.52736,47.58227],[4.52208,47.58353],[4.52014,47.58364],[4.51896,47.58431],[4.51859,47.58514],[4.51958,47.58688],[4.52319,47.58972],[4.51986,47.58938],[4.51486,47.58536],[4.51208,47.58516],[4.51069,47.58557],[4.50727,47.58458],[4.509,47.58292],[4.50875,47.58165],[4.51236,47.58378],[4.51491,47.58347],[4.51494,47.58264],[4.52101,47.57931],[4.52251,47.57764],[4.5205,47.57569],[4.51792,47.5745],[4.51137,47.57514],[4.51257,47.57347],[4.51285,47.57153],[4.51126,47.56875],[4.50569,47.56651],[4.49681,47.56669],[4.49403,47.56589],[4.49282,47.56514],[4.49236,47.56132],[4.48315,47.56153],[4.47803,47.55653],[4.47708,47.55402],[4.46847,47.55268],[4.46767,47.55319],[4.46875,47.55441],[4.47431,47.55655],[4.47406,47.55931],[4.47042,47.56127],[4.46653,47.56714],[4.45986,47.56632],[4.45625,47.5696],[4.45292,47.57044],[4.44713,47.56708],[4.44397,47.56736],[4.4421,47.57069],[4.44431,47.57517],[4.43792,47.57801],[4.43236,47.58179],[4.42986,47.58645],[4.42986,47.58799],[4.43153,47.58716],[4.43458,47.58768],[4.43653,47.58614],[4.43847,47.58598],[4.4387,47.58764],[4.43545,47.58875],[4.43546,47.58986]],
          [[4.44469,47.58986],[4.44462,47.58847],[4.44931,47.58525],[4.45024,47.58597],[4.44906,47.58764],[4.44967,47.58986]],
          [[4.45115,47.58986],[4.45375,47.58697],[4.46027,47.58514],[4.46208,47.5829],[4.46509,47.58181],[4.46542,47.57972],[4.46675,47.57986],[4.46336,47.58625],[4.45898,47.58986]],
          [[4.46482,47.58986],[4.46597,47.58914],[4.46548,47.58986]],
          [[4.40014,47.57092],[4.40335,47.57042],[4.40014,47.56425]],
          [[4.40014,47.55604],[4.40236,47.55721],[4.40407,47.55681],[4.40349,47.55319],[4.40181,47.55215],[4.40014,47.5523]],
          [[4.57986,47.55178],[4.57866,47.55292],[4.57986,47.55425]],
          [[4.57986,47.52447],[4.56854,47.53264],[4.56828,47.53431],[4.56937,47.53653],[4.57371,47.53792],[4.57286,47.54014],[4.56986,47.54091],[4.56319,47.54043],[4.56231,47.54097],[4.57236,47.54519],[4.57514,47.54534],[4.57986,47.54475]],
          [[4.50375,47.53373],[4.50042,47.5339],[4.49764,47.53465],[4.49375,47.53789],[4.48931,47.53791],[4.48865,47.53903],[4.49708,47.54229],[4.50042,47.54216],[4.50542,47.54124],[4.50866,47.53875],[4.51264,47.53653],[4.51391,47.53514],[4.51292,47.53445],[4.50375,47.53373]],
          [[4.40014,47.53747],[4.40292,47.53923],[4.40542,47.53781],[4.40468,47.52653],[4.40576,47.52264],[4.40431,47.51994],[4.40014,47.51882]],
          [[4.57986,47.50067],[4.57423,47.50403],[4.56625,47.5123],[4.54653,47.51671],[4.54208,47.51999],[4.54153,47.52366],[4.53625,47.5254],[4.52569,47.53127],[4.53514,47.52837],[4.54958,47.5297],[4.55347,47.52886],[4.55736,47.52717],[4.55819,47.52421],[4.56292,47.52247],[4.57236,47.5157],[4.57868,47.51264],[4.57986,47.51123]],
          [[4.40801,47.49014],[4.40511,47.49319],[4.41083,47.49792],[4.41103,47.50042],[4.41268,47.50236],[4.41224,47.50514],[4.41645,47.51014],[4.41651,47.51292],[4.41358,47.51597],[4.41458,47.51806],[4.41874,47.51931],[4.41545,47.52208],[4.415,47.52431],[4.41644,47.52819],[4.41875,47.53012],[4.43089,47.52653],[4.43198,47.52236],[4.43152,47.51931],[4.43597,47.51601],[4.44042,47.51661],[4.44514,47.51957],[4.44911,47.51847],[4.44867,47.51569],[4.43736,47.50584],[4.43208,47.50398],[4.42931,47.50398],[4.42792,47.50468],[4.42486,47.50421],[4.42264,47.50156],[4.41792,47.49931],[4.42153,47.49797],[4.42264,47.49551],[4.42569,47.4934],[4.43014,47.49349],[4.43431,47.49722],[4.43877,47.49764],[4.44211,47.49486],[4.44292,47.49187],[4.4415,47.49014]],
          [[4.50066,47.49014],[4.49935,47.49597],[4.50105,47.49875],[4.49719,47.50153],[4.50042,47.50403],[4.49009,47.50653],[4.48937,47.50875],[4.49375,47.51151],[4.49403,47.51329],[4.48542,47.51363],[4.48473,47.51681],[4.48284,47.51847],[4.48311,47.52125],[4.48736,47.52439],[4.48958,47.52493],[4.49431,47.52512],[4.50014,47.52359],[4.50569,47.52337],[4.51069,47.52225],[4.51236,47.52345],[4.51486,47.52424],[4.51903,47.52349],[4.52214,47.52097],[4.52269,47.51542],[4.52444,47.51181],[4.52371,47.51069],[4.52514,47.51033],[4.52729,47.51125],[4.53014,47.51544],[4.53506,47.51236],[4.53352,47.51069],[4.52789,47.50708],[4.52694,47.50486],[4.52792,47.50453],[4.53042,47.5054],[4.53403,47.50508],[4.53653,47.50591],[4.53986,47.50448],[4.54312,47.49931],[4.54243,47.49514],[4.54713,47.49486],[4.5482,47.49347],[4.54668,47.49042],[4.55075,47.49014]],
          [[4.55766,47.49014],[4.55521,47.49847],[4.55589,47.50181],[4.55708,47.50217],[4.56471,47.49903],[4.56875,47.49592],[4.57053,47.49236],[4.57238,47.49153],[4.57316,47.49014]],
          [[4.46969,47.49014],[4.46972,47.49292],[4.47111,47.49625],[4.47347,47.4995],[4.47486,47.50018],[4.48277,47.49736],[4.48453,47.49375],[4.48374,47.49014]],
          [[4.43167,47.49014],[4.42986,47.49246],[4.42567,47.49014]]
        ]
      }
    },
    {
      "type": "Feature",
      "properties": {"kind": "contour", "elevation": 370},
      "geometry": {
        "type": "MultiLineString",
        "coordinates": [
          [[4.51957,47.58986],[4.51486,47.58578],[4.51208,47.58548],[4.51125,47.58711],[4.50903,47.58575],[4.50563,47.58542],[4.50625,47.58203],[4.49875,47.58215],[4.49708,47.58326],[4.49458,47.58267],[4.49514,47.58156],[4.49681,47.58197],[4.49817,47.58125],[4.49446,47.57847],[4.49601,47.57764],[4.49509,47.57653],[4.49597,47.57561],[4.50153,47.5793],[4.50681,47.57823],[4.50958,47.57864],[4.51033,47.58153],[4.51236,47.58278],[4.51653,47.58155],[4.51986,47.5798],[4.52193,47.57792],[4.52181,47.57699],[4.51847,47.57505],[4.51653,47.57477],[4.51077,47.57681],[4.50997,47.57514],[4.51208,47.57359],[4.51247,47.57181],[4.51125,47.56927],[4.50569,47.56684],[4.49708,47.56712],[4.49375,47.56618],[4.49232,47.56542],[4.49181,47.56157],[4.48236,47.56169],[4.47735,47.55708],[4.47653,47.5542],[4.46986,47.55301],[4.46847,47.5533],[4.46885,47.55403],[4.47476,47.55569],[4.47575,47.55792],[4.46868,47.56458],[4.46736,47.56746],[4.46431,47.56771],[4.45986,47.56671],[4.45542,47.57066],[4.45292,47.57098],[4.44736,47.5676],[4.44431,47.56759],[4.44264,47.57125],[4.44591,47.57458],[4.43433,47.58097],[4.43236,47.58242],[4.43177,47.58458],[4.43486,47.5856],[4.43752,47.58403],[4.43708,47.58204],[4.43903,47.5818],[4.44223,47.58319],[4.44065,47.58569],[4.44264,47.58852],[4.44736,47.58486],[4.4483,47.58208],[4.45069,47.58018],[4.45348,47.58514],[4.45514,47.58612],[4.45681,47.58582],[4.46268,47.58181],[4.46082,47.58042],[4.4604,47.57486],[4.4623,47.57486],[4.46347,47.57624],[4.46681,47.57713],[4.46747,47.57403],[4.47375,47.5717],[4.47232,47.57625],[4.4692,47.57819],[4.46953,47.58097],[4.46588,47.58319],[4.46552,47.58708],[4.47236,47.58563],[4.47532,47.58708],[4.46931,47.58853],[4.46757,47.58986]],
          [[4.48732,47.58986],[4.48986,47.58895],[4.49032,47.58986]],
          [[4.57986,47.55657],[4.57264,47.55639],[4.57236,47.55852],[4.56819,47.55628],[4.55792,47.56163],[4.55601,47.56458],[4.5568,47.57014],[4.56155,47.57042],[4.56431,47.56826],[4.56766,47.56792],[4.56243,47.57319],[4.56292,47.57419],[4.567,47.57458],[4.56597,47.57993],[4.56125,47.57864],[4.55875,47.57881],[4.55764,47.57976],[4.55653,47.57866],[4.55347,47.57885],[4.55125,47.58208],[4.54737,47.58403],[4.54868,47.58569],[4.5518,47.58653],[4.55718,47.58625],[4.55867,47.58736],[4.55681,47.58895],[4.55153,47.58963],[4.54042,47.58538],[4.53347,47.58682],[4.53014,47.58623],[4.52651,47.58264],[4.52208,47.58375],[4.52014,47.58387],[4.51895,47.58486],[4.52097,47.58793],[4.52469,47.58986]],
          [[4.56593,47.58986],[4.56851,47.58764],[4.57197,47.58681],[4.57097,47.58382],[4.57375,47.58335],[4.57752,47.58069],[4.57986,47.58071]],
          [[4.57986,47.58175],[4.57681,47.5833],[4.57475,47.58653],[4.5761,47.58708],[4.57625,47.58869],[4.57986,47.58785]],
          [[4.53764,47.539],[4.53556,47.54069],[4.53125,47.54131],[4.53089,47.54264],[4.53264,47.54512],[4.52819,47.54434],[4.52653,47.54578],[4.52236,47.54484],[4.52015,47.54625],[4.52062,47.54986],[4.52458,47.55335],[4.51264,47.54972],[4.50986,47.55125],[4.50969,47.55292],[4.51162,47.55458],[4.51156,47.55681],[4.51428,47.55875],[4.51875,47.56019],[4.52708,47.5589],[4.53003,47.55708],[4.52958,47.55541],[4.53514,47.55518],[4.53642,47.55653],[4.52958,47.55985],[4.52804,47.56153],[4.52792,47.56388],[4.52558,47.56514],[4.5264,47.56764],[4.52986,47.57027],[4.53208,47.57025],[4.53375,47.56905],[4.54764,47.57356],[4.54708,47.56909],[4.54257,47.56514],[4.54486,47.56216],[4.54792,47.56087],[4.55069,47.56064],[4.55208,47.56145],[4.55671,47.56042],[4.55934,47.55819],[4.55928,47.55569],[4.56236,47.55448],[4.56264,47.55312],[4.55903,47.55011],[4.55431,47.55001],[4.55375,47.54808],[4.55264,47.54829],[4.55097,47.54644],[4.54708,47.54679],[4.54892,47.54347],[4.54764,47.54194],[4.54431,47.54045],[4.53764,47.539]],
          [[4.40014,47.57048],[4.40212,47.56958],[4.40014,47.56551]],
          [[4.40014,47.55542],[4.40338,47.55653],[4.40304,47.55347],[4.40014,47.55288]],
          [[4.57986,47.52503],[4.56898,47.53264],[4.56886,47.53458],[4.56986,47.53626],[4.57457,47.53764],[4.57315,47.54042],[4.56986,47.54122],[4.56289,47.54097],[4.57181,47.54486],[4.57431,47.54516],[4.57986,47.5445]],
          [[4.50375,47.534],[4.50042,47.53412],[4.49764,47.53498],[4.49347,47.53856],[4.49042,47.53808],[4.48914,47.53875],[4.49764,47.54209],[4.50527,47.54097],[4.5128,47.53542],[4.50375,47.534]],
          [[4.40014,47.53698],[4.40292,47.53886],[4.40497,47.53764],[4.40422,47.52681],[4.40528,47.52347],[4.40403,47.5203],[4.40014,47.51936]],
          [[4.40928,47.49014],[4.40671,47.49375],[4.4135,47.49847],[4.41334,47.50514],[4.41458,47.50719],[4.41673,47.50819],[4.41759,47.51097],[4.41727,47.51347],[4.41447,47.51681],[4.41536,47.51764],[4.42088,47.51931],[4.41594,47.52292],[4.41708,47.52817],[4.41903,47.52967],[4.42319,47.52858],[4.42514,47.52726],[4.42967,47.52597],[4.43148,47.52319],[4.43085,47.51931],[4.43458,47.51593],[4.43819,47.51525],[4.44542,47.51892],[4.44859,47.51792],[4.44489,47.51264],[4.43792,47.50683],[4.43264,47.50446],[4.42931,47.50436],[4.42848,47.50514],[4.42431,47.50453],[4.42153,47.50159],[4.41664,47.49931],[4.41736,47.49822],[4.42131,47.49764],[4.42208,47.49501],[4.42597,47.49236],[4.42435,47.49014]],
          [[4.57986,47.50106],[4.57542,47.50374],[4.56583,47.51292],[4.54931,47.51613],[4.54424,47.51847],[4.54226,47.52042],[4.54226,47.52375],[4.53653,47.52558],[4.53533,47.52736],[4.54681,47.52921],[4.55319,47.52868],[4.55718,47.52681],[4.55782,47.52375],[4.56255,47.52236],[4.57208,47.51552],[4.57784,47.51292],[4.57986,47.51063]],
          [[4.50112,47.49014],[4.49972,47.49597],[4.50157,47.49875],[4.49778,47.50153],[4.50098,47.50431],[4.49042,47.5068],[4.49016,47.50875],[4.4946,47.51153],[4.49441,47.51375],[4.48584,47.51403],[4.48537,47.51681],[4.48311,47.51931],[4.48399,47.52153],[4.48958,47.52447],[4.49431,47.52477],[4.50014,47.52329],[4.50569,47.52314],[4.51069,47.52199],[4.51264,47.52327],[4.51514,47.52404],[4.51903,47.52321],[4.52181,47.5208],[4.52246,47.51542],[4.52397,47.51208],[4.52347,47.51039],[4.52486,47.51003],[4.52736,47.51101],[4.53014,47.51519],[4.53467,47.51208],[4.53318,47.51069],[4.52847,47.50792],[4.52685,47.50625],[4.52642,47.50486],[4.52792,47.50402],[4.53042,47.5051],[4.53403,47.50463],[4.53625,47.50529],[4.53819,47.50499],[4.54014,47.50385],[4.54282,47.49903],[4.54208,47.49491],[4.54597,47.49492],[4.5474,47.49403],[4.54585,47.49014]],
          [[4.55817,47.49014],[4.55573,47.49819],[4.55708,47.50178],[4.56431,47.49888],[4.56838,47.49569],[4.57033,47.49208],[4.57206,47.49125],[4.57249,47.49014]],
          [[4.47027,47.49014],[4.4704,47.49375],[4.47319,47.49852],[4.47514,47.49988],[4.48239,47.49708],[4.48422,47.49347],[4.48336,47.49014]],
          [[4.43348,47.49014],[4.43141,47.49292],[4.43208,47.49489],[4.43625,47.49704],[4.44001,47.49653],[4.44153,47.49508],[4.44233,47.49208],[4.44051,47.49014]]
        ]
      }
    },
    {
      "type": "Feature",
      "properties": {"kind": "contour", "elevation": 380},
      "geometry": {
        "type": "MultiLineString",
        "coordinates": [
          [[4.48493,47.58986],[4.49013,47.58708],[4.48653,47.5838],[4.49069,47.58361],[4.49425,47.58042],[4.49125,47.57319],[4.49347,47.57195],[4.50138,47.57236],[4.50198,47.57764],[4.50347,47.57828],[4.50786,47.57653],[4.51204,47.57181],[4.51125,47.57004],[4.50594,47.56736],[4.49708,47.56763],[4.49319,47.5665],[4.4918,47.56569],[4.49125,47.56209],[4.48181,47.56217],[4.47958,47.56029],[4.47625,47.55945],[4.46976,47.56431],[4.47009,47.56736],[4.46514,47.5685],[4.46403,47.57066],[4.46264,47.57089],[4.46042,47.56958],[4.45824,47.57014],[4.45431,47.57339],[4.45347,47.57218],[4.45208,47.57247],[4.44958,47.57113],[4.44722,47.56819],[4.44486,47.56788],[4.44338,47.57153],[4.44715,47.57347],[4.44786,47.57597],[4.44603,47.57597],[4.44286,47.57875],[4.44042,47.57857],[4.43958,47.57958],[4.44403,47.58122],[4.44625,47.57876],[4.45097,47.57896],[4.45347,47.57976],[4.45625,47.58295],[4.45792,47.58212],[4.45958,47.58266],[4.45928,47.57903],[4.45632,47.57653],[4.45708,47.57416],[4.46431,47.57385],[4.46545,47.57319],[4.46511,47.57208],[4.46819,47.57062],[4.47181,47.57091],[4.47458,47.56871],[4.48069,47.56859],[4.48125,47.5696],[4.4782,47.57125],[4.47781,47.57292],[4.48199,47.57681],[4.47764,47.57465],[4.47542,47.57482],[4.4758,47.57625],[4.47872,47.57819],[4.47514,47.5797],[4.47153,47.5786],[4.47039,47.57958],[4.47177,47.58097],[4.47089,47.58292],[4.46747,47.58431],[4.46958,47.58548],[4.47319,47.58402],[4.47917,47.58653],[4.47597,47.58938],[4.47038,47.58986]],
          [[4.51854,47.58986],[4.51569,47.58666],[4.51208,47.58867],[4.50736,47.58621],[4.50347,47.58627],[4.50462,47.58431],[4.50236,47.58275],[4.49929,47.58319],[4.49439,47.58653],[4.49315,47.58986]],
          [[4.55038,47.58986],[4.54292,47.58652],[4.53375,47.58765],[4.53097,47.58711],[4.52875,47.58636],[4.52597,47.58338],[4.51986,47.58431],[4.52042,47.58674],[4.52487,47.58819],[4.52553,47.58986]],
          [[4.57986,47.55677],[4.57347,47.55692],[4.57347,47.55971],[4.56819,47.55745],[4.56185,47.56042],[4.5582,47.56514],[4.55986,47.56826],[4.56393,47.56764],[4.56514,47.56478],[4.57177,47.56597],[4.56533,47.57181],[4.56625,47.57339],[4.56956,47.57403],[4.56746,47.57653],[4.56835,47.57986],[4.56569,47.58114],[4.56097,47.57961],[4.55912,47.58181],[4.55542,47.58102],[4.55375,47.58316],[4.55001,47.58347],[4.54918,47.58458],[4.55292,47.58607],[4.55736,47.58533],[4.56236,47.5889],[4.56542,47.58915],[4.5655,47.58653],[4.56985,47.58597],[4.56834,47.58236],[4.57264,47.58217],[4.57986,47.57882]],
          [[4.51819,47.57541],[4.51625,47.57542],[4.51208,47.57851],[4.51132,47.58042],[4.51264,47.58155],[4.51625,47.58139],[4.52082,47.57875],[4.5216,47.57736],[4.51819,47.57541]],
          [[4.57986,47.57819],[4.57834,47.57431],[4.57986,47.57344]],
          [[4.53875,47.53957],[4.53736,47.53944],[4.53648,47.54097],[4.53167,47.54181],[4.53471,47.54569],[4.52847,47.54511],[4.52736,47.54673],[4.52208,47.54551],[4.5208,47.54819],[4.52208,47.55005],[4.52847,47.55389],[4.53569,47.55451],[4.5399,47.55653],[4.53486,47.55858],[4.53406,47.56014],[4.53069,47.56027],[4.52921,47.56125],[4.52911,47.56458],[4.52645,47.56569],[4.52847,47.56842],[4.53403,47.56849],[4.53986,47.57076],[4.54569,47.57183],[4.54597,47.56958],[4.53973,47.56514],[4.54002,47.56431],[4.54486,47.56086],[4.55736,47.55909],[4.55902,47.55792],[4.55847,47.55515],[4.56237,47.55347],[4.55903,47.55041],[4.55458,47.5504],[4.55014,47.54725],[4.54681,47.54814],[4.54608,47.54708],[4.54845,47.54375],[4.54766,47.54236],[4.5443,47.54069],[4.53875,47.53957]],
          [[4.51347,47.55066],[4.51053,47.55181],[4.51262,47.55458],[4.51221,47.55681],[4.51455,47.55847],[4.51847,47.55967],[4.51931,47.55834],[4.52544,47.55903],[4.52892,47.55736],[4.52653,47.5555],[4.51347,47.55066]],
          [[4.57986,47.52593],[4.56956,47.53236],[4.56929,47.53458],[4.57046,47.53625],[4.57319,47.53705],[4.57536,47.53708],[4.57347,47.54063],[4.56958,47.54163],[4.56439,47.54153],[4.56903,47.54268],[4.57181,47.54464],[4.57431,47.54495],[4.57986,47.54421]],
          [[4.50319,47.53428],[4.50014,47.53441],[4.49752,47.53542],[4.49708,47.53819],[4.49431,47.53969],[4.49086,47.53903],[4.49792,47.54172],[4.50431,47.54063],[4.51158,47.53569],[4.50319,47.53428]],
          [[4.40014,47.53658],[4.40292,47.53825],[4.4044,47.53736],[4.40374,47.52875],[4.40476,47.52236],[4.40347,47.52051],[4.40014,47.51985]],
          [[4.41542,47.49952],[4.41409,47.50042],[4.41434,47.50542],[4.41792,47.50875],[4.41859,47.51181],[4.41825,47.51375],[4.41493,47.51653],[4.41681,47.51777],[4.42315,47.51819],[4.42264,47.51935],[4.41708,47.52241],[4.41628,47.52403],[4.418,47.52847],[4.41931,47.5291],[4.42208,47.52864],[4.42653,47.52628],[4.42903,47.52575],[4.43098,47.52319],[4.43029,47.51931],[4.43458,47.51536],[4.44014,47.51513],[4.44293,47.51764],[4.44569,47.51829],[4.44708,47.51815],[4.44792,47.51706],[4.43625,47.50633],[4.43236,47.50497],[4.42847,47.50563],[4.42403,47.50509],[4.42125,47.50208],[4.41542,47.49952]],
          [[4.57986,47.50135],[4.56597,47.51319],[4.55292,47.51563],[4.54736,47.51722],[4.54431,47.51879],[4.5426,47.52069],[4.54292,47.52447],[4.537,47.52569],[4.53673,47.52708],[4.54681,47.52892],[4.55298,47.52847],[4.55672,47.52653],[4.55761,47.52347],[4.56236,47.5221],[4.57181,47.51539],[4.57764,47.5128],[4.57986,47.51004]],
          [[4.50156,47.49014],[4.50006,47.49597],[4.50224,47.49875],[4.49827,47.50153],[4.50199,47.50431],[4.49227,47.50708],[4.4947,47.50792],[4.49431,47.50876],[4.49236,47.50835],[4.49218,47.50931],[4.49595,47.51153],[4.495,47.51292],[4.49617,47.51431],[4.48625,47.51441],[4.48588,47.51708],[4.48351,47.51958],[4.48433,47.52125],[4.48792,47.52356],[4.49236,47.52448],[4.49653,47.52414],[4.50125,47.52282],[4.50574,47.52292],[4.51014,47.52193],[4.51125,47.52101],[4.51224,47.52264],[4.51378,47.52347],[4.51542,47.52381],[4.5186,47.52319],[4.5214,47.52069],[4.52227,47.51514],[4.52352,47.51264],[4.522,47.51097],[4.52375,47.50982],[4.52597,47.51001],[4.52778,47.51097],[4.53042,47.51483],[4.53415,47.51208],[4.53292,47.51077],[4.52764,47.50751],[4.52611,47.50542],[4.52625,47.50461],[4.52792,47.50342],[4.53069,47.50475],[4.53431,47.50418],[4.53764,47.50484],[4.53986,47.50349],[4.54258,47.49875],[4.54153,47.49486],[4.54674,47.49403],[4.54524,47.49014]],
          [[4.55872,47.49014],[4.5562,47.49819],[4.55764,47.50098],[4.56307,47.49931],[4.56819,47.49528],[4.56998,47.49208],[4.57165,47.49069],[4.57165,47.49014]],
          [[4.47066,47.49014],[4.47069,47.49328],[4.47514,47.49955],[4.48189,47.49708],[4.48383,47.49347],[4.48303,47.49014]],
          [[4.41345,47.49014],[4.41042,47.49047],[4.40774,47.49319],[4.40875,47.49492],[4.41542,47.49832],[4.42097,47.49708],[4.42124,47.49486],[4.4251,47.49208],[4.42301,47.49014]],
          [[4.43792,47.49029],[4.43423,47.49069],[4.43253,47.49319],[4.43319,47.49506],[4.43653,47.49637],[4.44042,47.49563],[4.44149,47.49375],[4.44042,47.49177],[4.43792,47.49029]]
        ]
      }
    },
    {
      "type": "Feature",
      "properties": {"kind": "contour", "elevation": 390},
      "geometry": {
        "type": "MultiLineString",
        "coordinates": [
          [[4.48383,47.58986],[4.48872,47.58708],[4.48517,47.58347],[4.49014,47.58312],[4.49338,47.58042],[4.49153,47.57505],[4.48938,47.57347],[4.49062,47.57097],[4.49839,47.56986],[4.49016,47.56653],[4.49069,47.56373],[4.48653,47.56276],[4.48153,47.56299],[4.48135,47.56486],[4.48193,47.56819],[4.48375,47.56901],[4.48736,47.56884],[4.48736,47.57106],[4.48542,47.57172],[4.48042,47.57104],[4.47876,47.57208],[4.47903,47.57335],[4.48442,47.57708],[4.48487,47.57903],[4.48069,47.57876],[4.47327,47.58153],[4.47341,47.58347],[4.47681,47.58536],[4.48123,47.58625],[4.47819,47.58844],[4.47784,47.58986]],
          [[4.51131,47.58986],[4.50736,47.58739],[4.50236,47.58706],[4.5017,47.58597],[4.50363,47.58514],[4.50125,47.58397],[4.496,47.58736],[4.49514,47.58986]],
          [[4.5006,47.58986],[4.50181,47.58922],[4.50261,47.58986]],
          [[4.54935,47.58986],[4.54292,47.58726],[4.53875,47.58718],[4.53375,47.58838],[4.52764,47.58692],[4.52826,47.58986]],
          [[4.56292,47.58117],[4.56069,47.58258],[4.55597,47.58206],[4.55442,47.58458],[4.55819,47.585],[4.56319,47.58715],[4.56458,47.58592],[4.56767,47.58569],[4.5675,47.58403],[4.56292,47.58117]],
          [[4.57986,47.55702],[4.57431,47.55736],[4.57547,47.55958],[4.57458,47.56018],[4.56792,47.55824],[4.56347,47.56059],[4.56264,47.56333],[4.55984,47.56431],[4.56208,47.56707],[4.56319,47.5639],[4.5741,47.56542],[4.57367,47.56681],[4.57032,47.56847],[4.56733,47.57208],[4.57205,47.57347],[4.56917,47.57681],[4.57125,47.57967],[4.57739,47.57903],[4.57657,47.57431],[4.57479,47.57319],[4.57708,47.57216],[4.57986,47.57237]],
          [[4.50403,47.56901],[4.50014,47.56879],[4.49879,47.56986],[4.50403,47.57102],[4.50681,47.57494],[4.51114,47.57181],[4.50986,47.57054],[4.50403,47.56901]],
          [[4.53931,47.5401],[4.53708,47.54149],[4.53316,47.54181],[4.53597,47.54616],[4.52958,47.54604],[4.52736,47.54729],[4.52319,47.54613],[4.52184,47.54764],[4.52254,47.54931],[4.52819,47.5529],[4.53653,47.55405],[4.54125,47.55604],[4.54069,47.55738],[4.53668,47.55875],[4.53714,47.56236],[4.53375,47.56117],[4.53014,47.56174],[4.53046,47.56458],[4.52864,47.56681],[4.53403,47.56753],[4.54181,47.57],[4.54311,47.56903],[4.53857,47.56569],[4.53792,47.56392],[4.54431,47.56009],[4.55819,47.55821],[4.55781,47.55514],[4.56144,47.55292],[4.55861,47.55069],[4.55431,47.55059],[4.54958,47.54787],[4.54653,47.54856],[4.54553,47.54736],[4.54786,47.54375],[4.54736,47.5427],[4.54425,47.54097],[4.53931,47.5401]],
          [[4.47486,47.56179],[4.4726,47.56292],[4.47403,47.56541],[4.47299,47.56597],[4.47764,47.5676],[4.47813,47.56403],[4.47736,47.56246],[4.47486,47.56179]],
          [[4.51708,47.55312],[4.51468,47.55375],[4.51494,47.55708],[4.51681,47.55781],[4.51931,47.55699],[4.52431,47.55848],[4.52774,47.55764],[4.52625,47.55611],[4.51708,47.55312]],
          [[4.57986,47.52648],[4.57069,47.53173],[4.56968,47.53403],[4.57153,47.53645],[4.57715,47.53653],[4.57485,47.53875],[4.57342,47.54208],[4.57125,47.54223],[4.57097,47.54347],[4.57236,47.54315],[4.57403,47.54464],[4.57986,47.5438]],
          [[4.40014,47.53592],[4.40153,47.53628],[4.40296,47.53542],[4.40167,47.53125],[4.40418,47.52236],[4.40306,47.52069],[4.40014,47.52029]],
          [[4.40014,47.53148],[4.40095,47.53153],[4.40014,47.53246]],
          [[4.41625,47.5004],[4.41485,47.50097],[4.41525,47.50569],[4.41875,47.50871],[4.41933,47.51292],[4.41546,47.51681],[4.42042,47.51795],[4.42486,47.51708],[4.42315,47.51958],[4.41958,47.52121],[4.4167,47.52403],[4.41868,47.52819],[4.41986,47.52857],[4.42208,47.52831],[4.42431,47.52686],[4.42874,47.52542],[4.4304,47.52292],[4.42986,47.51901],[4.43424,47.51486],[4.43958,47.51447],[4.44458,47.51774],[4.44643,47.51792],[4.44726,47.51708],[4.43597,47.50671],[4.43208,47.50552],[4.42792,47.50613],[4.42375,47.5055],[4.42125,47.50292],[4.41625,47.5004]],
          [[4.57986,47.50161],[4.56653,47.51332],[4.55292,47.51592],[4.54764,47.51746],[4.54458,47.51904],[4.54354,47.52042],[4.54438,47.52458],[4.54069,47.52672],[4.54819,47.52853],[4.55257,47.52819],[4.55302,47.52681],[4.55602,47.52625],[4.55708,47.52337],[4.56236,47.52172],[4.57181,47.51509],[4.57747,47.51264],[4.57986,47.50906]],
          [[4.50193,47.49014],[4.5005,47.49625],[4.50362,47.49847],[4.49876,47.50153],[4.50328,47.50458],[4.50097,47.50619],[4.49508,47.50653],[4.49736,47.50722],[4.49824,47.50931],[4.50052,47.51014],[4.49982,47.51569],[4.49542,47.51709],[4.49097,47.51668],[4.49014,47.51783],[4.48424,47.51958],[4.48841,47.52181],[4.48847,47.52252],[4.48764,47.52186],[4.48736,47.52238],[4.49236,47.52402],[4.49653,47.52385],[4.50014,47.52253],[4.50458,47.52285],[4.5099,47.52181],[4.51181,47.51808],[4.51306,47.52042],[4.5129,47.52264],[4.51542,47.52352],[4.51847,47.52294],[4.52032,47.52153],[4.52198,47.51458],[4.52312,47.51292],[4.5209,47.51153],[4.5215,47.51069],[4.52375,47.5094],[4.52607,47.50958],[4.52796,47.51042],[4.53069,47.51393],[4.53361,47.51208],[4.53276,47.51097],[4.52733,47.50764],[4.52583,47.50542],[4.52597,47.50444],[4.52792,47.50288],[4.53069,47.50439],[4.53431,47.50373],[4.53681,47.5046],[4.53821,47.50431],[4.54217,47.49931],[4.54107,47.49458],[4.5463,47.49375],[4.54486,47.49014]],
          [[4.55921,47.49014],[4.55666,47.49819],[4.55792,47.50054],[4.56125,47.49985],[4.56375,47.49832],[4.56792,47.49501],[4.57108,47.49014]],
          [[4.471,47.49014],[4.47156,47.49431],[4.47514,47.49906],[4.4816,47.49681],[4.48333,47.49347],[4.48259,47.49014]],
          [[4.41661,47.49014],[4.41097,47.49102],[4.40874,47.49319],[4.40939,47.49458],[4.41569,47.49787],[4.41958,47.49678],[4.42097,47.49432],[4.42319,47.49326],[4.42392,47.49153],[4.42152,47.49014]],
          [[4.43625,47.49097],[4.43417,47.49181],[4.43362,47.49431],[4.43518,47.49542],[4.43819,47.49571],[4.44099,47.49347],[4.43903,47.49138],[4.43625,47.49097]]
        ]
      }
    },
    {
      "type": "Feature",
      "properties": {"kind": "contour", "elevation": 400},
      "geometry": {
        "type": "MultiLineString",
        "coordinates": [
          [[4.48253,47.58986],[4.48208,47.58864],[4.48182,47.58986]],
          [[4.50989,47.58986],[4.50597,47.58853],[4.50399,47.58875],[4.5047,47.58986]],
          [[4.54814,47.58986],[4.54014,47.58784],[4.53217,47.58986]],
          [[4.48292,47.57179],[4.48069,47.57167],[4.47958,47.57275],[4.48609,47.57792],[4.48573,47.58069],[4.47958,47.57993],[4.47535,47.58319],[4.47764,47.58513],[4.48403,47.58594],[4.48503,47.58542],[4.48457,47.58319],[4.48597,47.58221],[4.48946,47.58208],[4.49185,47.58014],[4.492,47.57792],[4.49097,47.57541],[4.48736,47.57277],[4.48292,47.57179]],
          [[4.57986,47.55773],[4.57819,47.55752],[4.57705,47.55847],[4.577,47.56097],[4.56875,47.55918],[4.56563,47.56097],[4.56903,47.56367],[4.57653,47.56486],[4.57625,47.56734],[4.57264,47.56897],[4.57367,47.57097],[4.57285,47.57181],[4.57514,47.57095],[4.57986,47.57097]],
          [[4.54264,47.54097],[4.53958,47.54094],[4.53597,47.54289],[4.53784,47.54681],[4.53264,47.54693],[4.53069,47.54876],[4.52818,47.54847],[4.52555,47.54986],[4.52986,47.55212],[4.53903,47.55397],[4.54458,47.55635],[4.54625,47.55818],[4.55517,47.55764],[4.55922,47.55264],[4.55708,47.55115],[4.54819,47.5496],[4.54529,47.54847],[4.545,47.54736],[4.54679,47.54319],[4.54264,47.54097]],
          [[4.57986,47.52713],[4.57118,47.53181],[4.57017,47.53319],[4.57187,47.53625],[4.57855,47.53569],[4.57847,47.5372],[4.57542,47.53875],[4.57454,47.54097],[4.57986,47.54305]],
          [[4.40014,47.52963],[4.40226,47.52792],[4.40355,47.52264],[4.4028,47.52097],[4.40014,47.52074]],
          [[4.41681,47.50177],[4.41617,47.50514],[4.41674,47.50653],[4.41968,47.50708],[4.42,47.51292],[4.41597,47.5167],[4.42236,47.51745],[4.42655,47.51431],[4.42542,47.51802],[4.41717,47.52403],[4.41903,47.52777],[4.42125,47.52809],[4.42847,47.52466],[4.42961,47.52292],[4.42924,47.51903],[4.43403,47.51449],[4.43986,47.5141],[4.44514,47.51753],[4.44669,47.51708],[4.43804,47.50875],[4.43542,47.50695],[4.43208,47.50591],[4.42847,47.50668],[4.42375,47.50591],[4.42014,47.50279],[4.41681,47.50177]],
          [[4.57986,47.50191],[4.56681,47.5137],[4.55319,47.51618],[4.54792,47.51767],[4.54569,47.51876],[4.54486,47.52025],[4.54519,47.52486],[4.54292,47.52653],[4.54903,47.52784],[4.55486,47.52555],[4.55681,47.5229],[4.56185,47.52153],[4.56986,47.51575],[4.5773,47.51236],[4.57986,47.50824]],
          [[4.50232,47.49014],[4.50335,47.49292],[4.5012,47.49597],[4.50523,47.49792],[4.5032,47.50125],[4.50485,47.50431],[4.50333,47.50764],[4.50497,47.50875],[4.5036,47.51014],[4.50356,47.51236],[4.50159,47.51403],[4.50214,47.51653],[4.49819,47.51721],[4.49732,47.51847],[4.49915,47.52097],[4.50208,47.52239],[4.5047,47.52264],[4.50973,47.52153],[4.51069,47.51807],[4.51375,47.51645],[4.51459,47.51708],[4.51371,47.52181],[4.51625,47.52321],[4.51935,47.52181],[4.52096,47.51847],[4.52119,47.51431],[4.5225,47.51292],[4.52003,47.51153],[4.52097,47.51054],[4.52319,47.50914],[4.52542,47.50901],[4.52877,47.50986],[4.53014,47.51289],[4.53304,47.51208],[4.53153,47.5105],[4.52802,47.50875],[4.526,47.50653],[4.52541,47.50347],[4.52676,47.50319],[4.52708,47.50113],[4.53069,47.50406],[4.53458,47.50289],[4.53681,47.50424],[4.538,47.50403],[4.54199,47.49903],[4.54145,47.49625],[4.54066,47.49431],[4.54593,47.49347],[4.54454,47.49014]],
          [[4.55957,47.49014],[4.55703,47.49847],[4.55819,47.50015],[4.56208,47.49911],[4.56751,47.49486],[4.57074,47.49014]],
          [[4.47133,47.49014],[4.47189,47.49431],[4.47534,47.49792],[4.47653,47.49809],[4.48073,47.49653],[4.48075,47.49431],[4.4826,47.49264],[4.48135,47.49014]],
          [[4.41895,47.49014],[4.41125,47.4915],[4.40949,47.49319],[4.41569,47.49734],[4.41938,47.49653],[4.42049,47.49403],[4.42332,47.49208],[4.41956,47.49014]],
          [[4.43764,47.4915],[4.43542,47.49175],[4.43449,47.49319],[4.43473,47.49458],[4.43681,47.49538],[4.43903,47.49493],[4.43989,47.49347],[4.43937,47.49208],[4.43764,47.4915]],
          [[4.50742,47.49014],[4.50625,47.49076],[4.50485,47.49014]]
        ]
      }
    },
    {
      "type": "Feature",
      "properties": {"kind": "contour", "elevation": 410},
      "geometry": {
        "type": "MultiLineString",
        "coordinates": [
          [[4.48486,47.57347],[4.48201,47.57347],[4.48653,47.57681],[4.48825,47.57708],[4.48865,47.57819],[4.48986,47.57817],[4.48736,47.57443],[4.48486,47.57347]],
          [[4.57986,47.56222],[4.57764,47.56256],[4.57208,47.5611],[4.5687,47.56153],[4.57097,47.56284],[4.57625,47.56317],[4.57986,47.56466]],
          [[4.54042,47.54374],[4.53931,47.54379],[4.53869,47.54597],[4.54021,47.54792],[4.53542,47.54849],[4.5344,47.55125],[4.54458,47.55448],[4.55424,47.55542],[4.55639,47.55375],[4.55625,47.55263],[4.54514,47.54942],[4.54375,47.5482],[4.54375,47.54495],[4.54042,47.54374]],
          [[4.57986,47.53835],[4.57659,47.53903],[4.57986,47.54132]],
          [[4.57986,47.52839],[4.57783,47.52875],[4.57704,47.53236],[4.57319,47.53125],[4.57087,47.53319],[4.57431,47.53442],[4.57986,47.5324]],
          [[4.41819,47.50264],[4.41686,47.50292],[4.41704,47.50486],[4.42075,47.50653],[4.4198,47.50903],[4.42075,47.51319],[4.41727,47.51653],[4.42255,47.51708],[4.42458,47.51342],[4.42708,47.51339],[4.42768,47.51458],[4.42542,47.51909],[4.41839,47.52347],[4.418,47.52486],[4.41986,47.5274],[4.41911,47.52569],[4.42042,47.52445],[4.42236,47.52433],[4.42319,47.52587],[4.42612,47.52514],[4.42594,47.52375],[4.42823,47.52208],[4.42736,47.51956],[4.43375,47.5141],[4.43847,47.51324],[4.44223,47.51403],[4.43781,47.50903],[4.43532,47.50736],[4.43236,47.50629],[4.42847,47.50723],[4.42375,47.50631],[4.41819,47.50264]],
          [[4.55847,47.51564],[4.54875,47.51769],[4.54597,47.51903],[4.54537,47.52042],[4.54714,47.52542],[4.54624,47.52597],[4.54764,47.5269],[4.55403,47.52497],[4.5566,47.52208],[4.55958,47.52185],[4.562,47.52042],[4.56224,47.51847],[4.55847,47.51564]],
          [[4.51504,47.49014],[4.51347,47.49108],[4.50903,47.49055],[4.50317,47.49486],[4.50662,47.49736],[4.5048,47.50153],[4.50621,47.50431],[4.50486,47.50681],[4.50806,47.50819],[4.50569,47.51008],[4.50576,47.51264],[4.50269,47.51458],[4.50446,47.51708],[4.50201,47.51792],[4.49903,47.5176],[4.49838,47.51847],[4.49986,47.52075],[4.50371,47.52236],[4.50952,47.52069],[4.51048,47.51764],[4.51403,47.51591],[4.5157,47.51708],[4.51446,47.52125],[4.51542,47.52235],[4.51751,47.52236],[4.52035,47.51792],[4.52083,47.51292],[4.51952,47.51097],[4.52264,47.50882],[4.5268,47.50847],[4.52438,47.50319],[4.52625,47.50237],[4.52736,47.49867],[4.53042,47.50332],[4.53212,47.50347],[4.53514,47.5016],[4.53792,47.5035],[4.54171,47.49903],[4.54123,47.49625],[4.5403,47.49458],[4.54037,47.49403],[4.54545,47.49347],[4.54423,47.49014]],
          [[4.57986,47.50228],[4.57221,47.50986],[4.57292,47.51207],[4.57592,47.51153],[4.57659,47.50819],[4.57986,47.50698]],
          [[4.55989,47.49014],[4.55753,47.49819],[4.55819,47.49934],[4.56153,47.49876],[4.5662,47.49542],[4.57036,47.49014]],
          [[4.47173,47.49014],[4.47228,47.49431],[4.47458,47.49661],[4.47708,47.4972],[4.47952,47.49514],[4.47967,47.49014]],
          [[4.42014,47.49092],[4.41153,47.49199],[4.41051,47.49347],[4.41569,47.49662],[4.41903,47.49632],[4.42013,47.49375],[4.42256,47.49236],[4.42014,47.49092]],
          [[4.52046,47.49014],[4.52014,47.4907],[4.51841,47.49014]]
        ]
      }
    },
    {
      "type": "Feature",
      "properties": {"kind": "contour", "elevation": 420},
      "geometry": {
        "type": "MultiLineString",
        "coordinates": [
          [[4.57986,47.52953],[4.57902,47.53014],[4.57986,47.5308]],
          [[4.55708,47.51675],[4.55319,47.51682],[4.54762,47.51847],[4.54608,47.52042],[4.54736,47.52216],[4.55375,47.52379],[4.55625,47.52165],[4.56007,47.52069],[4.56071,47.51847],[4.55708,47.51675]],
          [[4.51581,47.49014],[4.51431,47.492],[4.50994,47.49097],[4.50492,47.49486],[4.50766,47.49708],[4.50581,47.50153],[4.50764,47.50422],[4.50676,47.50569],[4.51132,47.50903],[4.50755,47.51097],[4.50978,47.51292],[4.50386,47.51458],[4.50764,47.51855],[4.51371,47.51514],[4.51292,47.51265],[4.517,47.51181],[4.51819,47.50986],[4.52431,47.5076],[4.52364,47.50292],[4.52597,47.50153],[4.52721,47.49792],[4.52903,47.49773],[4.52904,47.49958],[4.53069,47.50119],[4.54012,47.50042],[4.54145,47.49875],[4.54099,47.49625],[4.53983,47.49403],[4.54486,47.49333],[4.54395,47.49014]],
          [[4.42486,47.50704],[4.42264,47.50693],[4.42044,47.50903],[4.42125,47.51218],[4.42458,47.51225],[4.42653,47.51057],[4.42903,47.51253],[4.43032,47.51236],[4.43178,47.51042],[4.42994,47.50819],[4.42486,47.50704]],
          [[4.57986,47.50293],[4.57686,47.50569],[4.57986,47.50613]],
          [[4.56023,47.49014],[4.55883,47.49597],[4.56069,47.49698],[4.56569,47.49453],[4.56689,47.49208],[4.56979,47.49014]],
          [[4.47263,47.49014],[4.47236,47.49367],[4.47625,47.49652],[4.4781,47.49514],[4.47842,47.49014]],
          [[4.42014,47.49149],[4.41347,47.49223],[4.41151,47.49319],[4.41395,47.49542],[4.41597,47.49588],[4.41875,47.4951],[4.42119,47.49236],[4.42014,47.49149]],
          [[4.52116,47.49014],[4.52161,47.49097],[4.52042,47.49121],[4.5168,47.49014]]
        ]
      }
    },
    {
      "type": "Feature",
      "properties": {"kind": "contour", "elevation": 430},
      "geometry": {
        "type": "MultiLineString",
        "coordinates": [
          [[4.55458,47.51708],[4.54847,47.51859],[4.54739,47.52014],[4.55236,47.52318],[4.55819,47.52083],[4.55938,47.51931],[4.55819,47.51753],[4.55458,47.51708]],
          [[4.52188,47.49014],[4.52153,47.49163],[4.51625,47.49072],[4.51514,47.49316],[4.51069,47.49162],[4.50777,47.49458],[4.50879,47.49792],[4.50765,47.50208],[4.50972,47.50347],[4.51125,47.50649],[4.51458,47.50855],[4.52078,47.50681],[4.52292,47.50233],[4.52542,47.50101],[4.52708,47.49754],[4.52946,47.49736],[4.53097,47.50074],[4.54014,47.4998],[4.54095,47.49903],[4.54094,47.49708],[4.53952,47.49375],[4.5443,47.49292],[4.54367,47.49014]],
          [[4.57986,47.50412],[4.57872,47.50458],[4.57986,47.5048]],
          [[4.56061,47.49014],[4.55939,47.49486],[4.56069,47.49643],[4.56292,47.49565],[4.56653,47.49103],[4.56915,47.49014]],
          [[4.47403,47.49014],[4.47291,47.49319],[4.47569,47.49591],[4.4775,47.49514],[4.47735,47.49014]]
        ]
      }
    },
    {
      "type": "Feature",
      "properties": {"kind": "contour", "elevation": 440},
      "geometry": {
        "type": "MultiLineString",
        "coordinates": [
          [[4.55514,47.51791],[4.55122,47.51819],[4.54949,47.51903],[4.54966,47.51986],[4.55125,47.52092],[4.55766,47.52042],[4.55819,47.5185],[4.55514,47.51791]],
          [[4.52301,47.49014],[4.52181,47.49223],[4.51708,47.49197],[4.51597,47.49418],[4.51347,47.49296],[4.51181,47.49314],[4.50958,47.49547],[4.51043,47.50153],[4.51403,47.5052],[4.52097,47.50359],[4.52458,47.50036],[4.52625,47.49698],[4.53014,47.49692],[4.53097,47.5],[4.53903,47.49944],[4.54049,47.49792],[4.53906,47.49375],[4.54339,47.49264],[4.54331,47.49014]],
          [[4.56105,47.49014],[4.56069,47.49587],[4.56236,47.49542],[4.56248,47.49375],[4.56576,47.49014]]
        ]
      }
    },
    {
      "type": "Feature",
      "properties": {"kind": "contour", "elevation": 450},
      "geometry": {
        "type": "MultiLineString",
        "coordinates": [
          [[4.52748,47.49014],[4.52671,47.49236],[4.52855,47.49375],[4.52749,47.49625],[4.52992,47.49597],[4.53208,47.49436],[4.53569,47.49441],[4.53486,47.49623],[4.5329,47.49653],[4.53653,47.49852],[4.53828,47.49681],[4.53832,47.49264],[4.54292,47.49181],[4.54273,47.49014]],
          [[4.56204,47.49014],[4.56208,47.49186],[4.56257,47.49014]]
        ]
      }
    },
    {
      "type": "Feature",
      "properties": {"kind": "contour", "elevation": 460},
      "geometry": {
        "type": "MultiLineString",
        "coordinates": [
          [[4.53454,47.49014],[4.53357,47.49125],[4.53431,47.4918],[4.53875,47.49166],[4.54123,47.49014]]
        ]
      }
    },
    {
      "type": "Feature",
      "properties": {"kind": "rampart"},
      "geometry": {
        "type": "MultiLineString",
        "coordinates": [
          [[4.48515,47.52891],[4.48366,47.52935],[4.48259,47.53064],[4.48195,47.53251],[4.48137,47.53438],[4.48078,47.53628],[4.48025,47.53826],[4.47972,47.54023],[4.47929,47.54221],[4.47908,47.54401],[4.47945,47.54555],[4.48036,47.54652],[4.48249,47.54681],[4.48515,47.54688],[4.48834,47.54688],[4.49153,47.54681],[4.49473,47.54688],[4.49792,47.54688],[4.50058,47.5467]],
          [[4.50431,47.54623],[4.50723,47.54573],[4.50989,47.54501],[4.51202,47.54386],[4.51415,47.54257],[4.51708,47.54124],[4.51974,47.53944],[4.5224,47.53801],[4.52506,47.53729],[4.52772,47.53747],[4.52932,47.53621],[4.52905,47.5343],[4.52746,47.53251],[4.52506,47.53071],[4.52213,47.52945],[4.51894,47.52891],[4.51548,47.52891],[4.51176,47.52902],[4.50803,47.52909],[4.50431,47.52902],[4.50111,47.52891],[4.49792,47.52891],[4.49419,47.52891],[4.49047,47.52891]]
        ]
      }
    },
    {
      "type": "Feature",
      "properties": {"kind": "rampart"},
      "geometry": {
        "type": "MultiLineString",
        "coordinates": [
          [[4.47876,47.55101],[4.47557,47.55029],[4.47238,47.5494],[4.46918,47.54832],[4.46626,47.54706],[4.46386,47.54544],[4.46226,47.54347],[4.46147,47.54131],[4.4612,47.53898],[4.46131,47.53664],[4.46189,47.5343],[4.46306,47.53204],[4.46482,47.52992],[4.46716,47.52802],[4.46998,47.52633],[4.47317,47.52489],[4.47663,47.5237],[4.48025,47.52273],[4.48398,47.52191],[4.48781,47.52119],[4.49164,47.52054],[4.49552,47.51993],[4.49941,47.51939],[4.50324,47.51893],[4.50707,47.51871],[4.5108,47.51893],[4.51431,47.51957],[4.51761,47.52051],[4.5207,47.52173],[4.52346,47.52324],[4.52591,47.52496],[4.52793,47.5269],[4.52942,47.52899],[4.53038,47.53121],[4.53081,47.53351],[4.53049,47.53581],[4.52964,47.53804],[4.53049,47.54023],[4.53209,47.54228],[4.53304,47.54451],[4.53326,47.54681],[4.53262,47.54904],[4.53102,47.55098],[4.52836,47.55241],[4.52517,47.55328],[4.52176,47.55349],[4.51846,47.55299]]
        ]
      }
    },
    {
      "type": "Feature",
      "properties": {"kind": "work", "name": "Camp A"},
      "geometry": {
        "type": "Point",
        "coordinates": [4.4966,47.5218]
      }
    },
    {
      "type": "Feature",
      "properties": {"kind": "work", "name": "Camp B"},
      "geometry": {
        "type": "Point",
        "coordinates": [4.5027,47.5191]
      }
    },
    {
      "type": "Feature",
      "properties": {"kind": "work", "name": "Camp C"},
      "geometry": {
        "type": "Point",
        "coordinates": [4.5267,47.5478]
      }
    },
    {
      "type": "Feature",
      "properties": {"kind": "work", "name": "The north camp"},
      "geometry": {
        "type": "Point",
        "coordinates": [4.4798,47.5503]
      }
    },
    {
      "type": "Feature",
      "properties": {"kind": "work", "name": "The Gallic camp"},
      "geometry": {
        "type": "Point",
        "coordinates": [4.5123,47.5411]
      }
    },
    {
      "type": "Feature",
      "properties": {"kind": "work", "name": "Castellum 11"},
      "geometry": {
        "type": "Point",
        "coordinates": [4.5208,47.5215]
      }
    },
    {
      "type": "Feature",
      "properties": {"kind": "work", "name": "Castellum 18"},
      "geometry": {
        "type": "Point",
        "coordinates": [4.5155,47.5498]
      }
    },
    {
      "type": "Feature",
      "properties": {"kind": "place", "name": "Alesia"},
      "geometry": {
        "type": "Point",
        "coordinates": [4.5011,47.5362]
      }
    },
    {
      "type": "Feature",
      "properties": {"kind": "place", "name": "Mont Réa"},
      "geometry": {
        "type": "Point",
        "coordinates": [4.47,47.556]
      }
    },
    {
      "type": "Feature",
      "properties": {"kind": "place", "name": "Montagne de Bussy"},
      "geometry": {
        "type": "Point",
        "coordinates": [4.52,47.552]
      }
    },
    {
      "type": "Feature",
      "properties": {"kind": "place", "name": "Montagne de Flavigny"},
      "geometry": {
        "type": "Point",
        "coordinates": [4.508,47.514]
      }
    },
    {
      "type": "Feature",
      "properties": {"kind": "place", "name": "Plain of Les Laumes"},
      "geometry": {
        "type": "Point",
        "coordinates": [4.462,47.54]
      }
    },
    {
      "type": "Feature",
      "properties": {"kind": "place", "name": "Contravallation"},
      "geometry": {
        "type": "Point",
        "coordinates": [4.487,47.547]
      }
    },
    {
      "type": "Feature",
      "properties": {"kind": "place", "name": "Circumvallation"},
      "geometry": {
        "type": "Point",
        "coordinates": [4.4635,47.525]
      }
    }
  ]
}
