{
  "type": "FeatureCollection",
  "license": "public-domain",
  "attribution": "Coastline: Natural Earth (public domain)",
  "features": [
    {
      "type": "Feature",
      "properties": {
        "kind": "land"
      },
      "geometry": {
        "type": "Polygon",
        "coordinates": [
          [
            [-5.8, 36.0885],
            [-5.8, 36.8],
            [-6.3434, 36.8],
            [-6.3456, 36.795],
            [-6.3589, 36.7858],
            [-6.3963, 36.7751],
            [-6.4145, 36.7676],
            [-6.4333, 36.7512],
            [-6.4379, 36.7333],
            [-6.4315, 36.7146],
            [-6.4176, 36.6959],
            [-6.407, 36.6767],
            [-6.3947, 36.6369],
            [-6.3798, 36.6243],
            [-6.3617, 36.6206],
            [-6.2939, 36.6168],
            [-6.2832, 36.6124],
            [-6.2349, 36.5758],
            [-6.226, 36.5567],
            [-6.2325, 36.5262],
            [-6.2244, 36.5109],
            [-6.2068, 36.5089],
            [-6.1865, 36.5142],
            [-6.1794, 36.5135],
            [-6.2008, 36.4938],
            [-6.2115, 36.4805],
            [-6.2191, 36.475],
            [-6.2315, 36.4727],
            [-6.2467, 36.4866],
            [-6.2541, 36.4963],
            [-6.249, 36.5047],
            [-6.2575, 36.5138],
            [-6.2894, 36.5373],
            [-6.2977, 36.5388],
            [-6.31, 36.5341],
            [-6.3014, 36.526],
            [-6.2796, 36.5113],
            [-6.2571, 36.4764],
            [-6.2421, 36.4465],
            [-6.2184, 36.4025],
            [-6.1842, 36.3707],
            [-6.1752, 36.3536],
            [-6.1685, 36.3353],
            [-6.166, 36.3187],
            [-6.1595, 36.3043],
            [-6.1047, 36.2807],
            [-6.0822, 36.2507],
            [-6.0625, 36.2172],
            [-6.0368, 36.1895],
            [-5.9836, 36.177],
            [-5.939, 36.1838],
            [-5.9172, 36.1841],
            [-5.8979, 36.1739],
            [-5.8328, 36.1224],
            [-5.8113, 36.0968],
            [-5.8, 36.0885]
          ]
        ]
      }
    },
    {
      "type": "Feature",
      "properties": {
        "kind": "place",
        "name": "Cadiz"
      },
      "geometry": {
        "type": "Point",
        "coordinates": [-6.2861, 36.5248]
      }
    },
    {
      "type": "Feature",
      "properties": {
        "kind": "place",
        "name": "Cape Trafalgar"
      },
      "geometry": {
        "type": "Point",
        "coordinates": [-6.034, 36.183]
      }
    }
  ]
}
