{
  "type": "FeatureCollection",
  "license": "public-domain",
  "attribution": "Coastline and the Ofanto from Natural Earth 1:10m and contours from SRTM 1 arc-second (NASA), both public domain; the camps and places are Sandtable contributors' own siting, dedicated to the public domain.",
  "features": [
    {
      "type": "Feature",
      "properties": {"kind": "land"},
      "geometry": {
        "type": "Polygon",
        "coordinates": [
          [[16.1049,41.4],[16.03,41.4],[16.03,41.23],[16.32,41.23],[16.32,41.3202],[16.3014,41.3279],[16.1141,41.3929],[16.1049,41.4]]
        ]
      }
    },
    {
      "type": "Feature",
      "properties": {"kind": "river"},
      "geometry": {
        "type": "LineString",
        "coordinates": [[16.03, 41.2425], [16.1008, 41.2952], [16.1281, 41.3099], [16.1799, 41.3229], [16.2006, 41.3366], [16.1997, 41.3625]]
      }
    },
    {
      "type": "Feature",
      "properties": {"kind": "contour", "elevation": 10},
      "geometry": {
        "type": "MultiLineString",
        "coordinates": [
          [[16.03014,41.35611],[16.03097,41.35681],[16.03153,41.35514],[16.03347,41.35486],[16.03486,41.35125],[16.03764,41.35208],[16.03736,41.35069],[16.03986,41.35042],[16.04292,41.35097],[16.04264,41.35014],[16.03986,41.35042],[16.03958,41.34847],[16.04319,41.34903],[16.04319,41.34625],[16.04486,41.34625],[16.04681,41.34431],[16.04764,41.34458],[16.04792,41.34431],[16.05069,41.34292],[16.05125,41.34347],[16.05236,41.34292],[16.05292,41.34458],[16.05458,41.34403],[16.05625,41.34486],[16.05736,41.34347],[16.05903,41.34319],[16.05958,41.34403],[16.05986,41.34236],[16.06236,41.34319],[16.06403,41.34208],[16.06375,41.34319],[16.06569,41.34347],[16.06681,41.34264],[16.06792,41.34319],[16.06847,41.34375],[16.06792,41.34319],[16.06736,41.34375],[16.06847,41.34375],[16.07069,41.34486],[16.07236,41.34347],[16.07458,41.34375],[16.07403,41.34514],[16.07819,41.34653],[16.07875,41.34569],[16.07986,41.34625],[16.08069,41.34569],[16.08014,41.34764],[16.07931,41.34667],[16.07875,41.34708],[16.07903,41.34819],[16.08014,41.34792],[16.08153,41.34819],[16.08181,41.34792],[16.08264,41.34569],[16.08542,41.34764],[16.08681,41.35181],[16.08931,41.35319],[16.08903,41.35458],[16.08931,41.35458],[16.09042,41.35375],[16.09208,41.35403],[16.09181,41.35708],[16.09264,41.35569],[16.09375,41.35708],[16.09486,41.35708],[16.09514,41.35597],[16.09736,41.35597],[16.09514,41.35458],[16.09403,41.35625],[16.09486,41.35375],[16.09208,41.35347],[16.09208,41.35236],[16.09264,41.35181],[16.09236,41.35264],[16.09403,41.35292],[16.09514,41.35125],[16.09125,41.35125],[16.09208,41.34958],[16.09097,41.34931],[16.09153,41.34833],[16.09208,41.34958],[16.09403,41.34921],[16.09514,41.35014],[16.09486,41.34903],[16.09597,41.34958],[16.09764,41.34875],[16.09569,41.34736],[16.09319,41.34819],[16.09431,41.34681],[16.09569,41.34736],[16.09819,41.34792],[16.09819,41.34875],[16.09986,41.34847],[16.10097,41.34958],[16.10181,41.34847],[16.10264,41.34903],[16.10347,41.34819],[16.10375,41.34903],[16.10403,41.34931],[16.10542,41.34875],[16.10653,41.34958],[16.10847,41.34903],[16.10569,41.34708],[16.10458,41.34736],[16.10347,41.34597],[16.10486,41.34653],[16.10764,41.34597],[16.10875,41.34403],[16.11153,41.34514],[16.11264,41.34431],[16.11208,41.34625],[16.11569,41.34653],[16.11486,41.34458],[16.11764,41.34375],[16.11847,41.34292],[16.11736,41.34236],[16.11931,41.34292],[16.12181,41.34042],[16.12292,41.33903],[16.12208,41.33708],[16.12319,41.33792],[16.12681,41.33708],[16.12681,41.33639],[16.12514,41.33625],[16.12514,41.33514],[16.12653,41.33542],[16.12847,41.33292],[16.12819,41.33403],[16.12931,41.33458],[16.13181,41.33347],[16.13319,41.33431],[16.13514,41.33458],[16.13542,41.33431],[16.13569,41.33347],[16.13458,41.33375],[16.13292,41.33264],[16.13264,41.33097],[16.13403,41.33153],[16.13569,41.33069],[16.13653,41.33153],[16.13708,41.32958],[16.13903,41.33236],[16.14208,41.33319],[16.14319,41.33431],[16.14542,41.33375],[16.14486,41.33208],[16.14347,41.33181],[16.14403,41.32903],[16.14236,41.32847],[16.14431,41.32819],[16.14514,41.32931],[16.14625,41.32819],[16.14514,41.32736],[16.14347,41.32764],[16.14375,41.32597],[16.14347,41.32569],[16.14236,41.32653],[16.14181,41.32542],[16.14319,41.32431],[16.14375,41.32542],[16.14403,41.32569],[16.14597,41.32403],[16.14569,41.32514],[16.14681,41.32458],[16.14708,41.32569],[16.14847,41.32597],[16.14931,41.32319],[16.15042,41.32347],[16.14986,41.32208],[16.15208,41.32292],[16.15208,41.32069],[16.15181,41.32042],[16.15097,41.32153],[16.15069,41.32014],[16.15181,41.32042],[16.15208,41.32069],[16.15375,41.32069],[16.15292,41.32125],[16.15431,41.32181],[16.15514,41.32125],[16.15347,41.31875],[16.15458,41.31764],[16.15514,41.31986],[16.15792,41.32014],[16.15431,41.31597],[16.15458,41.31431],[16.15208,41.31458],[16.1525,41.31319],[16.15403,41.31208],[16.15542,41.31264],[16.15569,41.31431],[16.15708,41.31375],[16.15653,41.31236],[16.15736,41.31181],[16.15764,41.31486],[16.15931,41.31375],[16.16069,41.31486],[16.16069,41.31208],[16.15986,41.31319],[16.15986,41.31181],[16.15681,41.31097],[16.15708,41.30986],[16.15569,41.30958],[16.15319,41.30875],[16.15153,41.30681],[16.15375,41.30597],[16.15597,41.30708],[16.15569,41.30792],[16.15736,41.30847],[16.15764,41.30847],[16.15875,41.30792],[16.15986,41.30903],[16.16069,41.30736],[16.16264,41.30958],[16.16403,41.30847],[16.16708,41.31097],[16.16819,41.31028],[16.17181,41.31255],[16.17477,41.31292],[16.17597,41.31792],[16.17792,41.31727],[16.18292,41.31831],[16.18597,41.32208],[16.18653,41.32486],[16.19153,41.32523],[16.19597,41.32912],[16.20042,41.32681],[16.20069,41.32597],[16.19931,41.32514],[16.20125,41.32542],[16.20292,41.32431],[16.20292,41.32292],[16.20181,41.32292],[16.20125,41.32181],[16.20306,41.32042],[16.20153,41.31986],[16.20292,41.31819],[16.20458,41.31847],[16.20347,41.31931],[16.20597,41.32014],[16.20653,41.32208],[16.20847,41.32097],[16.21069,41.32153],[16.20986,41.32264],[16.21292,41.32319],[16.21347,41.32514],[16.21569,41.32431],[16.21681,41.32486],[16.21792,41.32375],[16.21736,41.32236],[16.21847,41.32306],[16.22042,41.32264],[16.22153,41.32069],[16.22125,41.32042],[16.22153,41.32069],[16.22264,41.32042],[16.22208,41.31958],[16.22472,41.31931],[16.22431,41.31819],[16.22708,41.31792],[16.22625,41.31681],[16.22708,41.31625],[16.22875,41.31542],[16.23097,41.31597],[16.23069,41.31514],[16.23218,41.31569],[16.23181,41.31639],[16.23097,41.31597],[16.23208,41.31847],[16.23208,41.31708],[16.23333,41.31708],[16.23444,41.31986],[16.23375,41.32069],[16.23421,41.32153],[16.23236,41.32375],[16.23125,41.32361],[16.22569,41.32708],[16.22681,41.32931],[16.22542,41.33014],[16.22764,41.33181],[16.22736,41.33292],[16.23653,41.33292],[16.23569,41.33097],[16.23875,41.33208],[16.24319,41.33014],[16.24597,41.33042],[16.24875,41.32819],[16.24931,41.32875],[16.24903,41.32792],[16.24764,41.32458],[16.25014,41.32514],[16.25042,41.32681],[16.25264,41.32778],[16.26139,41.32514],[16.26125,41.32403],[16.25653,41.32264],[16.25625,41.32264],[16.25653,41.32264],[16.25597,41.32125],[16.25792,41.32153],[16.25875,41.32014],[16.26069,41.32111],[16.26486,41.32],[16.26611,41.32042],[16.26597,41.32208],[16.26764,41.32306],[16.28375,41.32222],[16.28708,41.32153],[16.28847,41.31958],[16.29486,41.32014],[16.29792,41.31931],[16.29875,41.31764],[16.29958,41.31889],[16.30042,41.31671],[16.30319,41.31792],[16.30708,41.31597],[16.30569,41.31444],[16.30764,41.31458],[16.30847,41.31583],[16.30903,41.31542],[16.30931,41.31514],[16.30764,41.31319],[16.31125,41.31292],[16.31153,41.31208],[16.31292,41.31042],[16.31431,41.31042],[16.31458,41.31069],[16.31486,41.31042],[16.31458,41.31014],[16.31347,41.30958],[16.31458,41.30903],[16.31514,41.31014],[16.31792,41.30986],[16.31903,41.30958],[16.31875,41.30875],[16.31986,41.30819]],
          [[16.22319,41.33181],[16.22347,41.33208],[16.22403,41.33264],[16.22375,41.33292],[16.22431,41.33292],[16.22403,41.33264],[16.22431,41.33292],[16.22569,41.33208],[16.22514,41.33125],[16.22319,41.33181]],
          [[16.30653,41.30069],[16.30486,41.30125],[16.30333,41.30042],[16.30403,41.29847],[16.30542,41.29958],[16.30681,41.29847],[16.30569,41.29755],[16.30847,41.29792],[16.30875,41.29903],[16.30958,41.29847],[16.31014,41.29931],[16.30625,41.29958],[16.30653,41.30069]],
          [[16.31986,41.30028],[16.31653,41.30028],[16.31486,41.29903],[16.31097,41.29875],[16.30875,41.29708],[16.31319,41.29662],[16.31458,41.29778],[16.31653,41.29569],[16.31847,41.29625],[16.31986,41.29542]]
        ]
      }
    },
    {
      "type": "Feature",
      "properties": {"kind": "contour", "elevation": 20},
      "geometry": {
        "type": "MultiLineString",
        "coordinates": [
          [[16.03014,41.34847],[16.03181,41.34681],[16.03153,41.34486],[16.03208,41.34542],[16.03514,41.34486],[16.03403,41.34375],[16.03542,41.34292],[16.03514,41.34181],[16.03681,41.34264],[16.04153,41.34014],[16.04292,41.34042],[16.04431,41.33819],[16.04569,41.33847],[16.04653,41.33764],[16.04875,41.33764],[16.04958,41.33597],[16.05153,41.33625],[16.05375,41.33292],[16.05431,41.33431],[16.05569,41.33319],[16.05736,41.33319],[16.05681,41.33375],[16.05653,41.33403],[16.05958,41.33403],[16.05958,41.33319],[16.06264,41.33458],[16.06458,41.33347],[16.06625,41.33431],[16.06875,41.33125],[16.06792,41.33069],[16.06847,41.32958],[16.07014,41.32875],[16.07319,41.32931],[16.07264,41.33069],[16.07431,41.33208],[16.07764,41.33236],[16.07931,41.33236],[16.07792,41.33208],[16.07764,41.33097],[16.07903,41.33181],[16.07931,41.33097],[16.08042,41.33125],[16.08014,41.33375],[16.08097,41.33375],[16.08125,41.33347],[16.08236,41.33431],[16.08653,41.33319],[16.08625,41.33431],[16.08819,41.335],[16.08958,41.33347],[16.08903,41.33236],[16.09153,41.33125],[16.09181,41.33125],[16.09514,41.32958],[16.09625,41.32708],[16.09653,41.32875],[16.09736,41.32958],[16.09875,41.32847],[16.09819,41.32958],[16.10125,41.33236],[16.10292,41.33375],[16.10347,41.33264],[16.10542,41.33264],[16.10569,41.33125],[16.10792,41.33181],[16.10986,41.33042],[16.11069,41.33153],[16.11319,41.33069],[16.11292,41.32764],[16.11125,41.32806],[16.10833,41.32681],[16.10986,41.32569],[16.11014,41.32542],[16.10958,41.32375],[16.11069,41.32319],[16.11125,41.32042],[16.10875,41.31708],[16.10958,41.31292],[16.11097,41.31319],[16.11125,41.31514],[16.11208,41.31458],[16.11153,41.31347],[16.11319,41.31319],[16.11486,41.31292],[16.11264,41.31208],[16.11486,41.31236],[16.11514,41.31125],[16.11597,41.31236],[16.11847,41.30958],[16.12042,41.30931],[16.11875,41.30764],[16.11958,41.30597],[16.11653,41.30403],[16.11486,41.30694],[16.11097,41.30569],[16.10903,41.30403],[16.11069,41.30486],[16.11125,41.30375],[16.10764,41.30375],[16.10597,41.30208],[16.11208,41.30319],[16.11236,41.30236],[16.11097,41.30236],[16.11014,41.30097],[16.10736,41.30153],[16.11042,41.29903],[16.11264,41.30125],[16.11486,41.30181],[16.11347,41.29958],[16.11458,41.29569],[16.11542,41.29875],[16.11625,41.29653],[16.11847,41.29625],[16.11708,41.29764],[16.11875,41.29875],[16.12014,41.29792],[16.12042,41.29597],[16.12236,41.29681],[16.12347,41.29681],[16.12264,41.29653],[16.12375,41.29653],[16.12403,41.29736],[16.12569,41.29819],[16.12597,41.29625],[16.12764,41.29847],[16.12875,41.29819],[16.12819,41.29681],[16.12931,41.29708],[16.13097,41.29431],[16.13069,41.29042],[16.12736,41.29097],[16.12625,41.28958],[16.12514,41.29042],[16.12625,41.29181],[16.12542,41.29236],[16.12375,41.28931],[16.12597,41.28819],[16.13153,41.28917],[16.13319,41.29097],[16.13514,41.29097],[16.13569,41.29181],[16.14014,41.29201],[16.15153,41.29958],[16.15403,41.30333],[16.16208,41.30718],[16.16486,41.30722],[16.16514,41.30625],[16.17042,41.31134],[16.17569,41.31218],[16.17694,41.31486],[16.17958,41.31486],[16.17958,41.31597],[16.17801,41.31653],[16.17875,41.31722],[16.18403,41.31764],[16.18486,41.31681],[16.18431,41.31819],[16.18597,41.31958],[16.18708,41.31931],[16.18681,41.32153],[16.19069,41.32042],[16.18819,41.32222],[16.18847,41.32319],[16.19153,41.32292],[16.19264,41.32412],[16.19458,41.32292],[16.19403,41.32236],[16.19375,41.32125],[16.19347,41.32125],[16.19375,41.32125],[16.19514,41.32042],[16.19375,41.31931],[16.19403,41.31764],[16.18847,41.31347],[16.18931,41.31153],[16.18819,41.31125],[16.18708,41.31181],[16.18625,41.31042],[16.18514,41.30986],[16.18653,41.30903],[16.18681,41.30931],[16.18764,41.30931],[16.18819,41.30986],[16.18792,41.30903],[16.18931,41.30875],[16.19042,41.30958],[16.19264,41.30875],[16.19542,41.31069],[16.19708,41.31097],[16.19847,41.30944],[16.19875,41.31069],[16.19653,41.31125],[16.19681,41.31208],[16.20125,41.31153],[16.20292,41.31236],[16.20181,41.31319],[16.20347,41.31375],[16.20681,41.31292],[16.20681,41.31486],[16.20764,41.31514],[16.20847,41.31403],[16.21125,41.31625],[16.21264,41.31542],[16.21375,41.31745],[16.21514,41.31486],[16.21431,41.31319],[16.21569,41.31319],[16.21569,41.31292],[16.21403,41.31014],[16.21514,41.31181],[16.21681,41.31014],[16.21931,41.31125],[16.22069,41.31069],[16.21903,41.31014],[16.21875,41.30708],[16.22181,41.30764],[16.22181,41.30653],[16.22319,41.30681],[16.22375,41.30486],[16.22097,41.30181],[16.22292,41.30208],[16.22097,41.30042],[16.22069,41.29875],[16.22208,41.29958],[16.22514,41.29903],[16.22597,41.29847],[16.22431,41.29681],[16.22764,41.29653],[16.22875,41.29764],[16.22958,41.29681],[16.22986,41.29847],[16.23181,41.29875],[16.23042,41.29736],[16.23097,41.29514],[16.23153,41.29736],[16.23292,41.29819],[16.23486,41.29653],[16.23458,41.29625],[16.23486,41.29653],[16.23569,41.29625],[16.23597,41.29736],[16.23458,41.29847],[16.23736,41.30139],[16.24042,41.30014],[16.24097,41.30153],[16.24236,41.30139],[16.24375,41.30028],[16.24542,41.30292],[16.24514,41.30347],[16.24403,41.30292],[16.24236,41.30514],[16.24097,41.30542],[16.23681,41.31069],[16.23847,41.31319],[16.23875,41.31236],[16.23986,41.31292],[16.24014,41.31264],[16.24153,41.31153],[16.24292,41.31181],[16.24236,41.31292],[16.24319,41.31347],[16.24125,41.31431],[16.24431,41.31431],[16.24597,41.31208],[16.24597,41.31097],[16.24486,41.31069],[16.24625,41.31042],[16.24903,41.31042],[16.24903,41.30917],[16.25014,41.30986],[16.25097,41.30889],[16.25208,41.30931],[16.25014,41.30792],[16.25319,41.30625],[16.25542,41.30792],[16.25264,41.30736],[16.25347,41.30931],[16.25653,41.30847],[16.25736,41.30986],[16.25903,41.30958],[16.25861,41.31319],[16.25639,41.31458],[16.25819,41.31653],[16.26625,41.31681],[16.26653,41.32],[16.27292,41.31931],[16.27403,41.32014],[16.27431,41.32014],[16.27458,41.32014],[16.27431,41.32014],[16.27403,41.32014],[16.27236,41.32139],[16.27792,41.32162],[16.27931,41.32023],[16.28097,41.32162],[16.28319,41.32],[16.28403,41.32097],[16.28542,41.32069],[16.28597,41.32014],[16.28458,41.31875],[16.28708,41.31847],[16.28542,41.31819],[16.28514,41.31625],[16.28764,41.31597],[16.28792,41.31514],[16.28708,41.31542],[16.28625,41.31417],[16.28403,41.31458],[16.28403,41.31551],[16.28292,41.31472],[16.27792,41.31514],[16.27681,41.31514],[16.27625,41.31514],[16.27681,41.31514],[16.27792,41.31514],[16.27875,41.31431],[16.28278,41.31403],[16.28292,41.31083],[16.28514,41.3106],[16.28597,41.31167],[16.28819,41.31208],[16.28875,41.31069],[16.28708,41.30903],[16.28875,41.30681],[16.28833,41.30597],[16.28486,41.30569],[16.28375,41.30681],[16.28236,41.30458],[16.28069,41.30542],[16.27931,41.30514],[16.27889,41.30403],[16.28319,41.30236],[16.28736,41.29833],[16.28958,41.29736],[16.29014,41.29847],[16.30097,41.29884],[16.30208,41.29736],[16.29986,41.29681],[16.30014,41.29569],[16.30653,41.29671],[16.305,41.29208],[16.30597,41.28986],[16.30653,41.29069],[16.30875,41.28986],[16.31042,41.29292],[16.30995,41.29431],[16.31403,41.29625],[16.31486,41.29569],[16.31375,41.29319],[16.31569,41.29125],[16.31708,41.29264],[16.31986,41.29264]],
          [[16.24681,41.30903],[16.24778,41.30931],[16.24764,41.31014],[16.24681,41.30986],[16.24681,41.30903],[16.24653,41.30903],[16.24597,41.30931],[16.24653,41.30903],[16.24681,41.30903]],
          [[16.31097,41.30097],[16.30958,41.30083],[16.31042,41.30153],[16.31097,41.30097],[16.31042,41.30153],[16.30986,41.30208],[16.31153,41.30264],[16.31333,41.30014],[16.31181,41.29986],[16.31097,41.30097]],
          [[16.28181,41.30014],[16.27875,41.30069],[16.27903,41.29986],[16.27708,41.29903],[16.27931,41.29875],[16.28181,41.30014],[16.28264,41.29847],[16.28097,41.29847],[16.28208,41.29708],[16.28264,41.29819],[16.28583,41.29875],[16.28431,41.29995],[16.28292,41.29931],[16.28181,41.30014]]
        ]
      }
    },
    {
      "type": "Feature",
      "properties": {"kind": "contour", "elevation": 30},
      "geometry": {
        "type": "MultiLineString",
        "coordinates": [
          [[16.03014,41.33958],[16.03181,41.33931],[16.03375,41.33653],[16.03681,41.33653],[16.03681,41.33486],[16.03819,41.33458],[16.03847,41.33486],[16.03847,41.33431],[16.04153,41.33458],[16.04125,41.33375],[16.04319,41.33347],[16.04236,41.33264],[16.04542,41.33153],[16.04514,41.32931],[16.04958,41.32931],[16.04958,41.32764],[16.05264,41.32903],[16.05514,41.32819],[16.05653,41.32903],[16.05986,41.32875],[16.06042,41.32764],[16.06292,41.32736],[16.06403,41.32569],[16.06847,41.32625],[16.06903,41.32569],[16.06653,41.32486],[16.06708,41.32347],[16.06597,41.32153],[16.06792,41.32014],[16.06486,41.31708],[16.06653,41.31597],[16.06597,41.31569],[16.06653,41.31597],[16.06708,41.31486],[16.07042,41.31792],[16.07486,41.31986],[16.07681,41.32028],[16.07847,41.31903],[16.07736,41.32014],[16.07903,41.32153],[16.07986,41.31903],[16.08208,41.31903],[16.08347,41.31736],[16.08486,41.31792],[16.08514,41.31597],[16.08736,41.31708],[16.08847,41.31625],[16.09097,41.31639],[16.09153,41.31903],[16.09014,41.31986],[16.09208,41.32125],[16.09167,41.32236],[16.09375,41.32319],[16.09819,41.32181],[16.09792,41.32403],[16.09986,41.32403],[16.10014,41.32486],[16.10292,41.32514],[16.10542,41.32403],[16.10569,41.32292],[16.10875,41.32097],[16.10208,41.31625],[16.09958,41.31153],[16.09875,41.30958],[16.09931,41.30903],[16.09639,41.30625],[16.09708,41.30431],[16.09542,41.30292],[16.09625,41.30181],[16.09486,41.30097],[16.09458,41.29847],[16.08847,41.29458],[16.08736,41.29514],[16.08431,41.2925],[16.08319,41.29292],[16.08042,41.28986],[16.07736,41.28931],[16.07681,41.28625],[16.07903,41.28597],[16.07764,41.28458],[16.07903,41.28403],[16.07764,41.28014],[16.07847,41.27958],[16.07875,41.27958],[16.07931,41.27847],[16.08014,41.27847],[16.07958,41.27708],[16.08097,41.27736],[16.08014,41.27847],[16.08014,41.28069],[16.07931,41.28097],[16.08014,41.28153],[16.08208,41.28153],[16.08125,41.28042],[16.08264,41.27986],[16.08403,41.28042],[16.08486,41.27986],[16.08292,41.28208],[16.08097,41.28208],[16.08014,41.28375],[16.08292,41.28403],[16.08542,41.28208],[16.08569,41.28042],[16.08875,41.28125],[16.09236,41.27889],[16.09347,41.27903],[16.09403,41.28042],[16.09486,41.28014],[16.09431,41.27931],[16.09597,41.27903],[16.09681,41.28014],[16.09736,41.27931],[16.09931,41.27958],[16.10181,41.28097],[16.10208,41.28125],[16.10319,41.28083],[16.10486,41.28208],[16.11153,41.28375],[16.11875,41.28319],[16.12153,41.28458],[16.12236,41.28375],[16.12542,41.28514],[16.12653,41.28458],[16.12736,41.28569],[16.13181,41.28653],[16.13319,41.28875],[16.13486,41.28875],[16.13569,41.28986],[16.14292,41.29222],[16.14653,41.29458],[16.14931,41.29458],[16.14921,41.29681],[16.15125,41.29833],[16.15335,41.30208],[16.15486,41.30331],[16.16236,41.30583],[16.16292,41.30236],[16.16458,41.30236],[16.16653,41.30444],[16.16986,41.30236],[16.16764,41.30653],[16.16931,41.30903],[16.17153,41.30958],[16.17292,41.31014],[16.17292,41.31139],[16.17458,41.31139],[16.17514,41.31042],[16.17431,41.30958],[16.17403,41.30931],[16.17431,41.30958],[16.17403,41.30931],[16.17208,41.30875],[16.17181,41.30764],[16.17347,41.30819],[16.17431,41.30681],[16.17319,41.30403],[16.17681,41.30486],[16.17681,41.30347],[16.17847,41.30292],[16.17931,41.30375],[16.17986,41.30292],[16.17958,41.30264],[16.17986,41.30292],[16.17958,41.30264],[16.17903,41.30153],[16.18125,41.30236],[16.18375,41.30153],[16.18347,41.30069],[16.18486,41.30153],[16.18625,41.30097],[16.18458,41.30208],[16.18569,41.30278],[16.18764,41.30125],[16.18819,41.30236],[16.18958,41.29958],[16.19153,41.29986],[16.19042,41.29819],[16.19208,41.29875],[16.19403,41.29708],[16.19431,41.29875],[16.19625,41.29736],[16.19597,41.29903],[16.19792,41.29764],[16.19903,41.29736],[16.19875,41.29819],[16.19792,41.29764],[16.19708,41.30069],[16.19986,41.30292],[16.20097,41.30264],[16.19958,41.30153],[16.20153,41.30181],[16.20403,41.30014],[16.20514,41.30097],[16.20569,41.29986],[16.20542,41.29958],[16.20403,41.29931],[16.20514,41.29847],[16.20319,41.29681],[16.20347,41.29569],[16.20042,41.29569],[16.20014,41.29542],[16.20014,41.29597],[16.20014,41.29681],[16.19931,41.29597],[16.20014,41.29542],[16.20153,41.29458],[16.20125,41.29431],[16.19903,41.29486],[16.19903,41.29292],[16.20014,41.29347],[16.20181,41.29125],[16.20319,41.29153],[16.20472,41.29208],[16.20458,41.29347],[16.20403,41.29292],[16.20375,41.29375],[16.20403,41.29403],[16.20458,41.29347],[16.20569,41.29347],[16.20569,41.29097],[16.20708,41.29097],[16.20681,41.29014],[16.20847,41.28917],[16.20931,41.28958],[16.20958,41.28986],[16.21153,41.28792],[16.21264,41.28792],[16.21653,41.2894],[16.21875,41.29153],[16.22431,41.29264],[16.22458,41.29181],[16.22597,41.29236],[16.22764,41.29097],[16.22819,41.28819],[16.22958,41.28792],[16.23042,41.28875],[16.23347,41.28736],[16.23375,41.28847],[16.23403,41.28875],[16.23486,41.28792],[16.23458,41.28764],[16.23486,41.28792],[16.23625,41.28847],[16.23833,41.28792],[16.23431,41.29153],[16.23875,41.29486],[16.23986,41.29486],[16.24181,41.29292],[16.24625,41.29375],[16.24792,41.29167],[16.24931,41.29181],[16.25125,41.29403],[16.25403,41.29319],[16.25264,41.29264],[16.25236,41.29236],[16.25125,41.29292],[16.25181,41.29181],[16.25236,41.29236],[16.25264,41.29264],[16.25403,41.29181],[16.25458,41.29236],[16.25486,41.29236],[16.25708,41.29319],[16.25875,41.29181],[16.26069,41.29236],[16.25986,41.29319],[16.25875,41.29264],[16.2575,41.29431],[16.25861,41.29542],[16.25792,41.29597],[16.26069,41.29778],[16.26181,41.29736],[16.26181,41.29597],[16.26597,41.29583],[16.26764,41.29681],[16.26736,41.29875],[16.26847,41.29764],[16.26903,41.29847],[16.26931,41.29847],[16.27042,41.29792],[16.27014,41.29764],[16.27042,41.29792],[16.27014,41.29764],[16.26958,41.29653],[16.27125,41.29708],[16.27125,41.29625],[16.27361,41.29569],[16.27292,41.29458],[16.26986,41.29486],[16.26792,41.29208],[16.26681,41.29236],[16.26486,41.29097],[16.26736,41.28894],[16.26736,41.29125],[16.26903,41.29069],[16.26875,41.29153],[16.27069,41.29153],[16.27042,41.29069],[16.27125,41.28792],[16.27181,41.28986],[16.27292,41.28931],[16.27208,41.28792],[16.27319,41.28625],[16.27514,41.28764],[16.27708,41.28514],[16.27653,41.28681],[16.27792,41.28764],[16.27958,41.28708],[16.28236,41.28917],[16.28208,41.29056],[16.28042,41.28958],[16.28,41.29014],[16.28347,41.29208],[16.28875,41.29181],[16.28958,41.29333],[16.29306,41.29181],[16.29514,41.28958],[16.29708,41.29014],[16.29792,41.28958],[16.29986,41.29181],[16.29861,41.29319],[16.29931,41.29347],[16.30125,41.29292],[16.30069,41.29208],[16.30236,41.29125],[16.30125,41.29042],[16.30153,41.28764],[16.30514,41.28597],[16.30847,41.28681],[16.31125,41.28542],[16.30931,41.28208],[16.31042,41.28264],[16.31153,41.28125],[16.31458,41.28319],[16.31542,41.28486],[16.31708,41.28514],[16.31569,41.28597],[16.31625,41.28681],[16.31764,41.28597],[16.31819,41.28681],[16.31986,41.28625]],
          [[16.08514,41.32486],[16.08736,41.32292],[16.08736,41.32153],[16.08292,41.32097],[16.08264,41.32236],[16.08097,41.32125],[16.08069,41.32319],[16.08208,41.32403],[16.08292,41.32681],[16.08653,41.32819],[16.08542,41.32625],[16.08681,41.32542],[16.08514,41.32486]],
          [[16.21014,41.29208],[16.21042,41.29236],[16.21069,41.29236],[16.21069,41.29167],[16.21014,41.29208],[16.20819,41.29028],[16.20653,41.29153],[16.20764,41.29264],[16.21014,41.29208]],
          [[16.07958,41.28458],[16.07958,41.28542],[16.08181,41.28653],[16.08208,41.28681],[16.08347,41.28736],[16.08403,41.28681],[16.08236,41.28625],[16.08264,41.28431],[16.08181,41.285],[16.07958,41.28458]],
          [[16.08986,41.27792],[16.08958,41.27792],[16.08931,41.27958],[16.08708,41.27986],[16.08736,41.27875],[16.08681,41.27847],[16.08625,41.27875],[16.08681,41.27847],[16.08958,41.27792],[16.08986,41.27792]]
        ]
      }
    },
    {
      "type": "Feature",
      "properties": {"kind": "contour", "elevation": 40},
      "geometry": {
        "type": "MultiLineString",
        "coordinates": [
          [[16.03014,41.33458],[16.03181,41.33236],[16.03597,41.33139],[16.03569,41.33028],[16.03792,41.32986],[16.03597,41.32681],[16.03431,41.32708],[16.03486,41.32486],[16.03625,41.32542],[16.03653,41.32569],[16.04208,41.32556],[16.04347,41.32653],[16.04514,41.32431],[16.04569,41.32486],[16.04764,41.32431],[16.04736,41.32319],[16.04958,41.32292],[16.05069,41.32417],[16.05375,41.32319],[16.05569,41.32347],[16.05681,41.32403],[16.05597,41.32319],[16.05653,41.32236],[16.06042,41.32236],[16.05986,41.32069],[16.06153,41.31986],[16.06139,41.31875],[16.05931,41.31819],[16.05819,41.31542],[16.05736,41.31542],[16.05764,41.31403],[16.05653,41.31486],[16.05625,41.31319],[16.05458,41.31319],[16.05458,41.31181],[16.05764,41.31292],[16.05875,41.31042],[16.05819,41.30903],[16.05958,41.30931],[16.06181,41.30736],[16.06042,41.30597],[16.06069,41.30306],[16.06514,41.30792],[16.06403,41.3119],[16.07181,41.31625],[16.07458,41.31597],[16.07458,41.31667],[16.07597,41.31597],[16.07486,41.31569],[16.07597,41.31403],[16.08014,41.31514],[16.08153,41.31361],[16.08347,41.31347],[16.08431,41.31236],[16.08569,41.31264],[16.08569,41.31181],[16.08847,41.31236],[16.08903,41.31153],[16.08819,41.31097],[16.08903,41.31014],[16.08875,41.31097],[16.09125,41.31264],[16.09292,41.31181],[16.09458,41.31264],[16.09431,41.31097],[16.09625,41.31097],[16.09486,41.31042],[16.09542,41.30903],[16.09389,41.30792],[16.09292,41.30486],[16.09097,41.30375],[16.09125,41.29958],[16.08819,41.29861],[16.08625,41.29597],[16.06681,41.28292],[16.06153,41.27569],[16.06181,41.27431],[16.05857,41.27292],[16.05653,41.26847],[16.05292,41.26708],[16.05236,41.26347],[16.05375,41.26181],[16.05208,41.26264],[16.05181,41.26042],[16.05292,41.26069],[16.05264,41.25792],[16.05153,41.25903],[16.05181,41.26042],[16.05069,41.25875],[16.05264,41.25708],[16.05208,41.25653],[16.05431,41.25569],[16.05292,41.25458],[16.05181,41.25264],[16.05153,41.25264],[16.05181,41.25264],[16.05264,41.25208],[16.05181,41.25125],[16.05153,41.25125],[16.04958,41.25097],[16.05042,41.24903],[16.05181,41.24958],[16.05153,41.25125],[16.05181,41.25125],[16.05319,41.24931],[16.05292,41.24903],[16.05319,41.24931],[16.05486,41.24875],[16.05403,41.25042],[16.05542,41.24986],[16.05542,41.25125],[16.05569,41.25153],[16.05542,41.25125],[16.05431,41.25181],[16.05681,41.25319],[16.05819,41.25181],[16.06097,41.25208],[16.06264,41.25458],[16.06181,41.25569],[16.06292,41.25625],[16.06264,41.25736],[16.06292,41.25764],[16.06569,41.25653],[16.06708,41.25708],[16.06653,41.25819],[16.06819,41.25931],[16.06736,41.25986],[16.07097,41.26097],[16.07097,41.26181],[16.06986,41.26125],[16.06931,41.26208],[16.07153,41.26403],[16.07042,41.26569],[16.07111,41.26736],[16.07431,41.26889],[16.07569,41.27125],[16.07764,41.27222],[16.08181,41.27333],[16.08653,41.27292],[16.08764,41.27194],[16.08847,41.27264],[16.09069,41.27236],[16.09403,41.27403],[16.09625,41.27403],[16.09681,41.27597],[16.10514,41.28051],[16.10986,41.28153],[16.11681,41.28069],[16.12069,41.28139],[16.12375,41.2806],[16.13069,41.28486],[16.13542,41.285],[16.13736,41.28875],[16.14014,41.29079],[16.14403,41.29181],[16.14653,41.29386],[16.14903,41.29181],[16.14923,41.29403],[16.15208,41.29569],[16.14986,41.29597],[16.14998,41.29708],[16.15314,41.29986],[16.15392,41.30236],[16.15653,41.30351],[16.15986,41.30375],[16.16042,41.30208],[16.15903,41.30069],[16.15931,41.29958],[16.16542,41.30042],[16.16653,41.29931],[16.16931,41.29875],[16.17042,41.29944],[16.17403,41.29681],[16.18347,41.29486],[16.18403,41.29375],[16.18569,41.29417],[16.18569,41.29292],[16.18931,41.29227],[16.19097,41.29097],[16.19014,41.28931],[16.19097,41.28986],[16.19153,41.28875],[16.19125,41.28875],[16.19153,41.28875],[16.19319,41.28903],[16.19264,41.28792],[16.19236,41.28764],[16.19264,41.28792],[16.19403,41.28736],[16.19389,41.28625],[16.19097,41.28347],[16.19125,41.28264],[16.19347,41.28264],[16.19403,41.28236],[16.19347,41.28264],[16.19208,41.28208],[16.19347,41.28125],[16.19403,41.28236],[16.19514,41.28208],[16.19514,41.28069],[16.19486,41.28042],[16.19347,41.28125],[16.19542,41.27819],[16.19514,41.27819],[16.19542,41.27819],[16.19819,41.27736],[16.20042,41.27903],[16.20069,41.27931],[16.20153,41.27903],[16.20236,41.28042],[16.20347,41.28042],[16.20764,41.27819],[16.20819,41.27986],[16.20931,41.27958],[16.20903,41.28042],[16.21069,41.28125],[16.20958,41.28236],[16.21069,41.28431],[16.21292,41.28403],[16.22042,41.28569],[16.22125,41.28486],[16.22292,41.28514],[16.22514,41.28292],[16.22597,41.28403],[16.22958,41.28264],[16.23375,41.28361],[16.23597,41.28264],[16.24347,41.28264],[16.24625,41.28347],[16.24653,41.28403],[16.24681,41.28542],[16.24986,41.28634],[16.25069,41.28597],[16.25014,41.28514],[16.25347,41.28569],[16.25375,41.28375],[16.25514,41.28375],[16.25514,41.28514],[16.25431,41.28764],[16.25597,41.28847],[16.25569,41.28764],[16.25681,41.28764],[16.25708,41.28764],[16.25792,41.28708],[16.25708,41.28764],[16.25681,41.28764],[16.25736,41.28861],[16.25903,41.28819],[16.25958,41.28681],[16.25819,41.28681],[16.25847,41.28486],[16.25972,41.28542],[16.25931,41.28431],[16.25819,41.28458],[16.25736,41.28403],[16.25708,41.28319],[16.25819,41.28347],[16.25958,41.28236],[16.26125,41.28264],[16.26069,41.28375],[16.26208,41.28347],[16.26236,41.28208],[16.26375,41.28208],[16.26431,41.28208],[16.26847,41.28181],[16.27097,41.28014],[16.27292,41.28097],[16.27347,41.27931],[16.27542,41.28014],[16.27431,41.27708],[16.27792,41.27819],[16.27819,41.28153],[16.27958,41.28125],[16.28125,41.28417],[16.28431,41.28458],[16.28375,41.28333],[16.28264,41.28347],[16.28236,41.28208],[16.28597,41.28208],[16.28653,41.28375],[16.28514,41.28569],[16.28625,41.28625],[16.28903,41.28458],[16.29069,41.28458],[16.29042,41.28319],[16.29181,41.28264],[16.29208,41.28125],[16.29431,41.28125],[16.29375,41.28292],[16.29542,41.28347],[16.29597,41.28292],[16.29569,41.28486],[16.29847,41.28458],[16.29875,41.28431],[16.29903,41.28375],[16.29958,41.28486],[16.30014,41.28431],[16.30208,41.28431],[16.30347,41.28014],[16.30681,41.27931],[16.30708,41.27792],[16.30458,41.27653],[16.30514,41.27597],[16.30986,41.27847],[16.31431,41.27819],[16.31486,41.27736],[16.31681,41.27931],[16.31764,41.27875],[16.31903,41.27931],[16.31875,41.27847],[16.31986,41.27889]]
        ]
      }
    },
    {
      "type": "Feature",
      "properties": {"kind": "contour", "elevation": 50},
      "geometry": {
        "type": "MultiLineString",
        "coordinates": [
          [[16.03014,41.32097],[16.03431,41.32236],[16.03847,41.32042],[16.03986,41.32319],[16.04069,41.32097],[16.03875,41.32014],[16.04347,41.32014],[16.04653,41.31764],[16.04875,41.31736],[16.04903,41.31639],[16.05097,41.31736],[16.05097,41.31569],[16.04764,41.31403],[16.04597,41.31486],[16.04597,41.31347],[16.04569,41.31319],[16.04542,41.31347],[16.04542,41.31292],[16.04597,41.31292],[16.04653,41.31042],[16.04903,41.30903],[16.04958,41.30708],[16.05153,41.30556],[16.05292,41.30611],[16.05375,41.30486],[16.05514,41.30486],[16.05569,41.30292],[16.05264,41.29958],[16.05278,41.29847],[16.05153,41.29819],[16.05181,41.29736],[16.04903,41.29625],[16.04847,41.29514],[16.04903,41.29458],[16.05097,41.29542],[16.05097,41.29625],[16.05208,41.29583],[16.0609,41.30069],[16.06242,41.30375],[16.06542,41.30569],[16.06583,41.30931],[16.06458,41.31153],[16.06625,41.31236],[16.06764,41.31181],[16.06736,41.31153],[16.06653,41.31014],[16.07014,41.31069],[16.07347,41.30819],[16.07403,41.30917],[16.07514,41.30819],[16.07736,41.30958],[16.07847,41.30931],[16.07819,41.30903],[16.07764,41.30931],[16.07653,41.30764],[16.07764,41.30764],[16.07819,41.30903],[16.07847,41.30931],[16.07986,41.30986],[16.07986,41.30903],[16.08153,41.30847],[16.08292,41.30944],[16.08375,41.30875],[16.08486,41.30917],[16.08597,41.30681],[16.09069,41.30597],[16.08819,41.30431],[16.08639,41.29792],[16.07451,41.28847],[16.06792,41.28542],[16.06375,41.28097],[16.06208,41.28097],[16.06218,41.27847],[16.05542,41.27292],[16.05486,41.27014],[16.05014,41.26569],[16.05069,41.26458],[16.04875,41.26208],[16.03375,41.25514],[16.03014,41.25208]],
          [[16.03014,41.23153],[16.03653,41.23319],[16.03903,41.23542],[16.04014,41.23319],[16.04236,41.23458],[16.04514,41.23431],[16.04514,41.23625],[16.04847,41.23583],[16.04958,41.23764],[16.05069,41.23708],[16.05264,41.23875],[16.05403,41.23708],[16.05597,41.23986],[16.05514,41.24181],[16.05653,41.24236],[16.05736,41.24153],[16.05847,41.24292],[16.06069,41.24347],[16.06597,41.25014],[16.06764,41.25486],[16.07208,41.25681],[16.07528,41.26153],[16.07319,41.26597],[16.07764,41.27088],[16.07958,41.27153],[16.08653,41.26986],[16.08875,41.27079],[16.09403,41.27056],[16.09681,41.27208],[16.09958,41.27194],[16.09986,41.27431],[16.10282,41.27847],[16.10847,41.28042],[16.11597,41.27944],[16.11736,41.27847],[16.11958,41.27968],[16.12292,41.27764],[16.12514,41.27931],[16.12736,41.27903],[16.12625,41.28069],[16.13014,41.28222],[16.13097,41.28449],[16.13819,41.28403],[16.13681,41.28597],[16.13903,41.28736],[16.13903,41.2891],[16.14097,41.29076],[16.14486,41.29104],[16.14514,41.29264],[16.14625,41.29327],[16.14806,41.29181],[16.14792,41.28949],[16.14986,41.29153],[16.14958,41.29403],[16.15236,41.29514],[16.15431,41.29417],[16.15403,41.29736],[16.15792,41.29736],[16.15875,41.29847],[16.16181,41.29819],[16.16264,41.29681],[16.16375,41.29681],[16.16347,41.29597],[16.17069,41.29458],[16.17069,41.29264],[16.17181,41.29264],[16.17181,41.29403],[16.17736,41.29431],[16.17875,41.29264],[16.18458,41.29056],[16.18431,41.28931],[16.18597,41.28875],[16.18625,41.28486],[16.18444,41.28153],[16.18125,41.28014],[16.17681,41.28014],[16.17597,41.27847],[16.17458,41.27903],[16.17403,41.27847],[16.17236,41.27847],[16.17347,41.27792],[16.17403,41.27847],[16.17458,41.27764],[16.17875,41.27764],[16.18097,41.27611],[16.18236,41.27653],[16.18153,41.27458],[16.17569,41.27236],[16.17736,41.27153],[16.17903,41.27264],[16.17875,41.27042],[16.18097,41.27097],[16.18125,41.26958],[16.18347,41.26875],[16.18597,41.27069],[16.19097,41.27181],[16.19347,41.27361],[16.19681,41.27375],[16.19903,41.27551],[16.20014,41.27542],[16.20153,41.2775],[16.20403,41.27542],[16.20653,41.27597],[16.20819,41.27514],[16.21181,41.27125],[16.21292,41.27208],[16.21208,41.27514],[16.215,41.27625],[16.21366,41.27764],[16.21361,41.28097],[16.21625,41.2831],[16.22208,41.28264],[16.22431,41.27986],[16.22653,41.27875],[16.22653,41.27764],[16.22764,41.27931],[16.22986,41.27847],[16.23125,41.27958],[16.23181,41.27861],[16.24042,41.28139],[16.24514,41.28125],[16.24514,41.27986],[16.24236,41.27736],[16.24319,41.27403],[16.24458,41.27681],[16.24958,41.27867],[16.25264,41.28088],[16.25486,41.27958],[16.25542,41.28097],[16.25764,41.2794],[16.26986,41.27903],[16.27069,41.27764],[16.26486,41.27528],[16.26375,41.27181],[16.26958,41.27523],[16.27125,41.27486],[16.27208,41.27347],[16.27375,41.27542],[16.27597,41.27451],[16.27931,41.2756],[16.28125,41.27403],[16.28375,41.27653],[16.28458,41.27514],[16.28708,41.27458],[16.28875,41.27597],[16.28958,41.27569],[16.29264,41.27736],[16.29236,41.27829],[16.29514,41.27694],[16.29708,41.27764],[16.29847,41.27375],[16.29958,41.27458],[16.30097,41.27347],[16.30264,41.27403],[16.30292,41.27208],[16.30681,41.27236],[16.30616,41.27403],[16.30764,41.27528],[16.31236,41.27542],[16.31347,41.27472],[16.31375,41.27583],[16.31486,41.275],[16.31708,41.27514],[16.31792,41.27625],[16.31903,41.27514],[16.31986,41.27542]]
        ]
      }
    },
    {
      "type": "Feature",
      "properties": {"kind": "contour", "elevation": 60},
      "geometry": {
        "type": "MultiLineString",
        "coordinates": [
          [[16.03014,41.31819],[16.03153,41.31681],[16.03236,41.31708],[16.03264,41.31736],[16.03264,41.31681],[16.03347,41.31625],[16.03458,41.31708],[16.03569,41.31625],[16.03653,41.31681],[16.03792,41.31569],[16.03736,41.31486],[16.04097,41.31403],[16.03931,41.31292],[16.04083,41.31014],[16.04042,41.30819],[16.04375,41.30625],[16.04486,41.30653],[16.04625,41.30431],[16.04819,41.30458],[16.04986,41.30097],[16.04625,41.29653],[16.04208,41.29458],[16.03625,41.29333],[16.03181,41.29097],[16.03014,41.29069],[16.03014,41.28931]],
          [[16.03014,41.28819],[16.03653,41.29056],[16.04347,41.29144],[16.04542,41.29243],[16.04736,41.29208],[16.04847,41.29329],[16.05069,41.29264],[16.05403,41.29625],[16.05764,41.29681],[16.05792,41.29708],[16.05847,41.29875],[16.06236,41.30083],[16.06273,41.30319],[16.06597,41.30514],[16.06653,41.30681],[16.06903,41.30569],[16.07181,41.30597],[16.07208,41.30486],[16.07403,41.30431],[16.07375,41.30347],[16.07736,41.30431],[16.07625,41.30292],[16.07764,41.30319],[16.08042,41.30014],[16.08153,41.30042],[16.08347,41.29931],[16.08389,41.29708],[16.07521,41.29097],[16.07386,41.28847],[16.06708,41.28708],[16.06514,41.28366],[16.06181,41.28181],[16.06014,41.28181],[16.05889,41.27819],[16.05514,41.27569],[16.05375,41.27181],[16.05181,41.27069],[16.05125,41.26889],[16.04931,41.26764],[16.04736,41.26764],[16.04792,41.26653],[16.04458,41.26347],[16.04431,41.26181],[16.04097,41.26153],[16.03014,41.25542]],
          [[16.04042,41.23014],[16.04431,41.23194],[16.04625,41.23181],[16.04986,41.23417],[16.05375,41.23403],[16.05764,41.23505],[16.05847,41.23625],[16.06181,41.23597],[16.06236,41.23681],[16.05986,41.23903],[16.06097,41.24125],[16.06236,41.24125],[16.06181,41.24264],[16.06431,41.24681],[16.06764,41.24958],[16.06764,41.25097],[16.06875,41.25153],[16.06806,41.25264],[16.06986,41.25431],[16.07264,41.25403],[16.07375,41.255],[16.07708,41.25319],[16.07708,41.25486],[16.07417,41.25708],[16.07847,41.26292],[16.07875,41.26625],[16.07681,41.26764],[16.07708,41.26995],[16.08208,41.26958],[16.08458,41.26764],[16.09125,41.26958],[16.09708,41.26903],[16.09792,41.27107],[16.10014,41.26986],[16.10042,41.26792],[16.1009,41.27319],[16.10403,41.27773],[16.10764,41.27912],[16.11181,41.27917],[16.11764,41.27736],[16.12181,41.27736],[16.12208,41.27616],[16.12597,41.27792],[16.12847,41.27764],[16.12903,41.28014],[16.13153,41.28097],[16.13125,41.28366],[16.13542,41.28264],[16.13708,41.28336],[16.14014,41.28292],[16.13799,41.28569],[16.14083,41.28708],[16.13958,41.28875],[16.14104,41.29042],[16.14569,41.29023],[16.1456,41.29236],[16.14653,41.29264],[16.14611,41.28875],[16.14708,41.28771],[16.15032,41.29097],[16.15014,41.29347],[16.15042,41.29375],[16.15014,41.29347],[16.15042,41.29375],[16.15292,41.29417],[16.15347,41.29236],[16.15458,41.29264],[16.15736,41.29611],[16.15764,41.29528],[16.16042,41.29472],[16.16125,41.29264],[16.16264,41.29306],[16.16625,41.29014],[16.16681,41.29069],[16.16792,41.29014],[16.16764,41.28986],[16.16792,41.29014],[16.16903,41.28903],[16.16875,41.28764],[16.17431,41.28875],[16.17597,41.2875],[16.17875,41.28708],[16.17958,41.28903],[16.18097,41.28792],[16.18236,41.28819],[16.18319,41.28486],[16.18153,41.28347],[16.17764,41.28167],[16.17264,41.28181],[16.17042,41.28139],[16.16819,41.28264],[16.16792,41.28097],[16.16625,41.28125],[16.16597,41.28014],[16.16236,41.28042],[16.16153,41.27514],[16.16264,41.27597],[16.16375,41.27542],[16.16042,41.27264],[16.16208,41.27194],[16.16347,41.27264],[16.16431,41.27319],[16.16486,41.27319],[16.16486,41.27236],[16.16375,41.27236],[16.16486,41.27125],[16.16458,41.26986],[16.16653,41.26931],[16.16736,41.26708],[16.16819,41.26708],[16.16819,41.26819],[16.16847,41.26681],[16.17458,41.26625],[16.17542,41.26514],[16.17792,41.26542],[16.17764,41.26403],[16.17931,41.26292],[16.18097,41.26375],[16.18653,41.26236],[16.18806,41.26319],[16.18681,41.26458],[16.18875,41.26764],[16.18847,41.26944],[16.19125,41.26903],[16.19264,41.27116],[16.20181,41.27375],[16.20319,41.27208],[16.20514,41.27153],[16.20569,41.27236],[16.20708,41.27125],[16.20931,41.27125],[16.20847,41.26986],[16.20986,41.26986],[16.21069,41.26819],[16.20958,41.26792],[16.20931,41.26653],[16.21014,41.26625],[16.21653,41.27208],[16.21819,41.27431],[16.22125,41.27542],[16.21847,41.27597],[16.21486,41.27958],[16.21458,41.28069],[16.21764,41.28194],[16.22208,41.28125],[16.22292,41.27708],[16.22458,41.27532],[16.22847,41.27454],[16.23042,41.27528],[16.23125,41.27431],[16.23369,41.27542],[16.23255,41.27681],[16.23319,41.27736],[16.24014,41.27931],[16.24097,41.27819],[16.23903,41.27569],[16.24069,41.27569],[16.24097,41.27375],[16.24208,41.27319],[16.24153,41.27042],[16.24042,41.26986],[16.24153,41.26847],[16.24181,41.26458],[16.24301,41.26653],[16.24301,41.26986],[16.24667,41.27264],[16.24486,41.27514],[16.24708,41.27569],[16.25014,41.27857],[16.25153,41.27736],[16.25347,41.27764],[16.25625,41.27653],[16.25653,41.27847],[16.25792,41.27764],[16.26181,41.27819],[16.26708,41.27764],[16.26736,41.27736],[16.26569,41.27647],[16.26042,41.27736],[16.25838,41.27542],[16.25653,41.27097],[16.26097,41.27347],[16.2631,41.27125],[16.26181,41.26917],[16.26375,41.26792],[16.26431,41.27063],[16.26819,41.27222],[16.26806,41.27375],[16.26931,41.27403],[16.27181,41.27208],[16.27625,41.27347],[16.27819,41.27236],[16.27875,41.27083],[16.28264,41.27097],[16.28292,41.27236],[16.28375,41.27125],[16.28458,41.27208],[16.28792,41.27167],[16.28819,41.27097],[16.29097,41.27167],[16.29597,41.26806],[16.29847,41.26792],[16.29903,41.26875],[16.29931,41.26903],[16.30264,41.26972],[16.30431,41.26903],[16.30431,41.26986],[16.30542,41.27],[16.30819,41.26736],[16.30903,41.26875],[16.31042,41.26847],[16.31292,41.27069],[16.31319,41.27097],[16.31514,41.27081],[16.31819,41.27222],[16.31819,41.27125],[16.31986,41.27042]]
        ]
      }
    },
    {
      "type": "Feature",
      "properties": {"kind": "contour", "elevation": 70},
      "geometry": {
        "type": "MultiLineString",
        "coordinates": [
          [[16.03014,41.30875],[16.03236,41.30931],[16.03431,41.31125],[16.03458,41.31042],[16.03542,41.31097],[16.03569,41.30792],[16.04014,41.30431],[16.04347,41.30292],[16.04486,41.30097],[16.04153,41.29764],[16.04042,41.29792],[16.03931,41.29653],[16.03736,41.29653],[16.03681,41.29569],[16.03542,41.29597],[16.03014,41.29319]],
          [[16.03014,41.28625],[16.03097,41.28458],[16.03236,41.28764],[16.03347,41.28764],[16.03403,41.28875],[16.04042,41.29042],[16.04319,41.29014],[16.04486,41.29125],[16.04736,41.28944],[16.04903,41.29125],[16.05125,41.29056],[16.05514,41.29472],[16.05847,41.29292],[16.05958,41.29319],[16.06014,41.29403],[16.05875,41.29653],[16.05986,41.29764],[16.06319,41.29792],[16.06347,41.30236],[16.06486,41.30292],[16.06653,41.30319],[16.06597,41.30153],[16.06958,41.30208],[16.06958,41.29986],[16.07153,41.30181],[16.07514,41.30069],[16.07889,41.29792],[16.07903,41.29431],[16.07639,41.29375],[16.07347,41.28869],[16.06625,41.28764],[16.06417,41.28403],[16.05819,41.28236],[16.05792,41.27875],[16.05375,41.27653],[16.05227,41.27319],[16.04986,41.27208],[16.0494,41.26931],[16.04653,41.26875],[16.04542,41.26625],[16.03903,41.26338],[16.03792,41.26181],[16.03014,41.25699]],
          [[16.04875,41.23014],[16.04986,41.23125],[16.05181,41.23083],[16.05514,41.23208],[16.05736,41.23139],[16.05708,41.23236],[16.05903,41.23444],[16.06625,41.23292],[16.06736,41.23486],[16.06625,41.23542],[16.06847,41.23514],[16.06847,41.23653],[16.06653,41.23764],[16.06153,41.23819],[16.06236,41.23931],[16.06528,41.23986],[16.06505,41.24542],[16.06681,41.24722],[16.07069,41.24847],[16.07014,41.24958],[16.07347,41.25181],[16.07653,41.25125],[16.07764,41.24958],[16.08042,41.24986],[16.07889,41.25542],[16.07681,41.25625],[16.07653,41.25764],[16.08069,41.26014],[16.08014,41.26069],[16.08292,41.26431],[16.08319,41.26625],[16.08653,41.26583],[16.08958,41.26778],[16.09347,41.26857],[16.10375,41.26458],[16.10171,41.26847],[16.10208,41.26958],[16.10347,41.26986],[16.10208,41.27236],[16.10403,41.27431],[16.10375,41.27569],[16.10764,41.2781],[16.11486,41.27764],[16.11625,41.27653],[16.11958,41.27625],[16.12208,41.27431],[16.12403,41.27611],[16.12958,41.27681],[16.13023,41.27903],[16.13292,41.28014],[16.13292,41.28208],[16.13597,41.28116],[16.13708,41.28281],[16.14014,41.28097],[16.14083,41.28236],[16.14236,41.28264],[16.14097,41.28542],[16.14431,41.28514],[16.14764,41.28569],[16.15014,41.28819],[16.15403,41.28875],[16.15681,41.28681],[16.15792,41.28764],[16.15931,41.28708],[16.16097,41.28764],[16.16264,41.28653],[16.16153,41.28514],[16.16347,41.28597],[16.16319,41.28431],[16.16486,41.28375],[16.16236,41.28264],[16.16097,41.28375],[16.16042,41.28319],[16.15903,41.28375],[16.16014,41.27968],[16.15681,41.27764],[16.15569,41.27806],[16.15097,41.27625],[16.14792,41.27458],[16.14764,41.27319],[16.14625,41.27208],[16.14681,41.27069],[16.14792,41.27264],[16.15042,41.27194],[16.15125,41.27278],[16.15236,41.27208],[16.15125,41.26931],[16.15292,41.26764],[16.15181,41.26736],[16.15236,41.26347],[16.15375,41.26542],[16.15542,41.26597],[16.15764,41.26486],[16.15986,41.26708],[16.16042,41.26597],[16.16264,41.26542],[16.16319,41.26597],[16.16486,41.26514],[16.16569,41.26611],[16.16903,41.26542],[16.17208,41.26375],[16.17097,41.26236],[16.17153,41.26153],[16.17486,41.26125],[16.17625,41.26014],[16.17764,41.25958],[16.17736,41.25792],[16.17819,41.25764],[16.18042,41.26014],[16.18125,41.25958],[16.18347,41.26042],[16.18431,41.25847],[16.18569,41.25875],[16.18875,41.25597],[16.18986,41.25611],[16.19125,41.25708],[16.19069,41.26014],[16.19208,41.26347],[16.19056,41.26597],[16.19347,41.26736],[16.19273,41.26931],[16.19347,41.27088],[16.19847,41.27171],[16.20153,41.26958],[16.20486,41.26986],[16.20681,41.26653],[16.20542,41.26403],[16.20569,41.26208],[16.21146,41.26542],[16.21139,41.26653],[16.21403,41.26819],[16.21681,41.26736],[16.21625,41.26847],[16.21944,41.26986],[16.21722,41.27069],[16.21903,41.27097],[16.22014,41.27264],[16.22347,41.27357],[16.22431,41.27153],[16.22639,41.27208],[16.22764,41.27357],[16.23014,41.27264],[16.23319,41.27292],[16.23458,41.27097],[16.23653,41.27264],[16.23708,41.27347],[16.23875,41.27319],[16.23699,41.27125],[16.23847,41.27014],[16.23625,41.26792],[16.23833,41.26708],[16.23764,41.26542],[16.23958,41.26514],[16.23755,41.26181],[16.23847,41.25986],[16.24306,41.26514],[16.24397,41.26764],[16.24333,41.26875],[16.24792,41.27014],[16.24958,41.27153],[16.24958,41.27333],[16.25208,41.27375],[16.25236,41.27264],[16.25431,41.27292],[16.25551,41.27208],[16.25542,41.27069],[16.25125,41.26708],[16.25069,41.26542],[16.25181,41.26486],[16.25014,41.26375],[16.25319,41.26431],[16.25285,41.26653],[16.25819,41.27088],[16.26181,41.27181],[16.26242,41.27069],[16.26111,41.26875],[16.26264,41.26819],[16.26306,41.26514],[16.26014,41.26181],[16.26407,41.26431],[16.26514,41.26736],[16.26458,41.27023],[16.27069,41.27023],[16.27208,41.26903],[16.27514,41.27125],[16.27764,41.26958],[16.27708,41.26764],[16.27958,41.26819],[16.28069,41.2694],[16.28125,41.26847],[16.28375,41.26903],[16.28431,41.26838],[16.28903,41.26819],[16.28986,41.26736],[16.29236,41.26792],[16.29486,41.26639],[16.29653,41.26694],[16.30208,41.26583],[16.30319,41.26653],[16.30597,41.26486],[16.30708,41.26514],[16.30764,41.26357],[16.31153,41.26653],[16.31375,41.26486],[16.31569,41.26681],[16.31681,41.26569],[16.31569,41.26986],[16.31819,41.26875],[16.31819,41.26792],[16.31708,41.26792],[16.31792,41.26681],[16.31903,41.26708],[16.31986,41.26542]]
        ]
      }
    },
    {
      "type": "Feature",
      "properties": {"kind": "contour", "elevation": 80},
      "geometry": {
        "type": "MultiLineString",
        "coordinates": [
          [[16.03014,41.29986],[16.03069,41.29986],[16.03069,41.30069],[16.03347,41.30097],[16.03375,41.29986],[16.03569,41.30014],[16.03597,41.30125],[16.03875,41.30222],[16.04097,41.30097],[16.03931,41.30042],[16.03903,41.29903],[16.03819,41.29986],[16.03736,41.29931],[16.03681,41.30042],[16.03597,41.29931],[16.03625,41.29875],[16.03431,41.29819],[16.03375,41.29986],[16.03125,41.29958],[16.03097,41.29958],[16.03125,41.29958],[16.03292,41.29819],[16.03014,41.2969]],
          [[16.03014,41.28116],[16.03236,41.28208],[16.03403,41.28625],[16.03597,41.28681],[16.03542,41.28857],[16.03958,41.28861],[16.04069,41.28944],[16.04431,41.28847],[16.04597,41.28708],[16.04931,41.28833],[16.05347,41.28681],[16.05347,41.28958],[16.05319,41.28986],[16.05458,41.29194],[16.06042,41.29],[16.06208,41.29125],[16.06375,41.29069],[16.06333,41.29292],[16.06069,41.29625],[16.06153,41.29667],[16.06319,41.29556],[16.06542,41.29694],[16.06597,41.29458],[16.06681,41.29486],[16.07042,41.29208],[16.07181,41.29264],[16.07306,41.29069],[16.07208,41.28875],[16.06458,41.28875],[16.06347,41.28458],[16.06097,41.28458],[16.05875,41.28347],[16.05681,41.28389],[16.05542,41.28236],[16.05722,41.27958],[16.05292,41.27819],[16.05097,41.27375],[16.04764,41.27264],[16.04847,41.26958],[16.04458,41.2694],[16.04403,41.26694],[16.03875,41.26569],[16.03458,41.26153],[16.03153,41.26069],[16.03181,41.25931],[16.03014,41.25792]],
          [[16.06736,41.23014],[16.06917,41.23097],[16.06819,41.23403],[16.07264,41.23292],[16.07319,41.23431],[16.06792,41.23875],[16.06625,41.24431],[16.07236,41.24708],[16.07403,41.24931],[16.07819,41.24813],[16.07792,41.24708],[16.07931,41.24597],[16.08153,41.24722],[16.08218,41.24847],[16.08003,41.25181],[16.08014,41.25597],[16.07861,41.25681],[16.08236,41.25944],[16.08514,41.26319],[16.08819,41.26375],[16.08958,41.26644],[16.09431,41.26731],[16.09569,41.26597],[16.10042,41.26431],[16.10181,41.26208],[16.10708,41.26375],[16.10403,41.26597],[16.10285,41.26847],[16.10486,41.26958],[16.10329,41.27097],[16.10375,41.27264],[16.10607,41.27347],[16.10542,41.27486],[16.10819,41.27708],[16.11042,41.27745],[16.11569,41.27579],[16.11819,41.27608],[16.11958,41.27514],[16.11958,41.27292],[16.12236,41.27194],[16.12625,41.27486],[16.13125,41.27597],[16.13097,41.27847],[16.13431,41.27931],[16.13486,41.28069],[16.13681,41.27968],[16.13819,41.28042],[16.13819,41.27958],[16.13958,41.27958],[16.13903,41.27875],[16.14069,41.27847],[16.14319,41.28111],[16.14347,41.28014],[16.14431,41.28069],[16.14569,41.27944],[16.14958,41.27958],[16.15014,41.28069],[16.15097,41.27986],[16.15125,41.28014],[16.15153,41.28042],[16.15319,41.28069],[16.15347,41.28167],[16.15486,41.28069],[16.15431,41.28],[16.15347,41.28042],[16.15181,41.27903],[16.15097,41.27986],[16.14958,41.27958],[16.14958,41.27819],[16.14403,41.27708],[16.14264,41.27569],[16.14236,41.27542],[16.14264,41.27569],[16.14264,41.27514],[16.13806,41.27153],[16.13986,41.27042],[16.14042,41.26736],[16.14181,41.26597],[16.14514,41.26718],[16.14931,41.265],[16.14819,41.26236],[16.14903,41.26014],[16.15042,41.25958],[16.14819,41.25847],[16.14736,41.25625],[16.15097,41.25764],[16.15292,41.25819],[16.15208,41.25681],[16.15125,41.25736],[16.15125,41.25597],[16.15208,41.25681],[16.15264,41.25597],[16.15542,41.25653],[16.15611,41.26319],[16.15958,41.26403],[16.16208,41.26319],[16.16625,41.26472],[16.16903,41.26347],[16.16736,41.26069],[16.17319,41.25903],[16.17403,41.25764],[16.17319,41.25625],[16.17903,41.255],[16.18653,41.25514],[16.18514,41.25236],[16.18875,41.25347],[16.18986,41.25292],[16.19792,41.25847],[16.19653,41.26042],[16.19431,41.26125],[16.19708,41.26208],[16.19579,41.26625],[16.19361,41.26875],[16.19375,41.27042],[16.19653,41.26958],[16.19764,41.26736],[16.20014,41.26708],[16.20236,41.26819],[16.20347,41.26653],[16.20444,41.26625],[16.20264,41.26375],[16.20181,41.25931],[16.20431,41.25583],[16.20403,41.25958],[16.20708,41.26125],[16.20819,41.26097],[16.20903,41.26222],[16.21069,41.26181],[16.21097,41.26292],[16.21236,41.26292],[16.21486,41.26514],[16.21653,41.26486],[16.21542,41.26569],[16.21597,41.26625],[16.21875,41.26319],[16.21986,41.26708],[16.22319,41.26708],[16.22403,41.26792],[16.22597,41.26736],[16.22569,41.26819],[16.22708,41.26847],[16.22514,41.26903],[16.22514,41.27028],[16.22708,41.27056],[16.23069,41.26903],[16.23097,41.26653],[16.23514,41.26708],[16.23375,41.26403],[16.23486,41.26292],[16.23653,41.26403],[16.23764,41.26375],[16.23597,41.25708],[16.23625,41.25486],[16.23792,41.25431],[16.2375,41.25125],[16.23597,41.24986],[16.23708,41.24972],[16.23931,41.25153],[16.24014,41.25542],[16.24403,41.25819],[16.24264,41.25778],[16.24116,41.25847],[16.24111,41.26125],[16.24264,41.26181],[16.24281,41.26403],[16.24431,41.26625],[16.24528,41.26625],[16.24542,41.26764],[16.24917,41.26764],[16.24903,41.26458],[16.24639,41.26264],[16.24903,41.25875],[16.24847,41.26208],[16.25181,41.26319],[16.25542,41.2625],[16.25625,41.26375],[16.25486,41.26681],[16.25903,41.26764],[16.26194,41.26486],[16.25861,41.26292],[16.25986,41.25819],[16.25958,41.25986],[16.26222,41.26125],[16.26194,41.26264],[16.26569,41.26556],[16.26653,41.26514],[16.26986,41.26681],[16.27181,41.26653],[16.27236,41.26514],[16.27375,41.26486],[16.27347,41.26403],[16.27542,41.26375],[16.27514,41.26292],[16.27764,41.26319],[16.27708,41.26431],[16.27847,41.26625],[16.28042,41.26528],[16.28236,41.26625],[16.28347,41.26542],[16.28375,41.26625],[16.28736,41.26597],[16.28764,41.26458],[16.29264,41.26597],[16.29514,41.26514],[16.29792,41.26542],[16.29903,41.26375],[16.30097,41.26444],[16.30514,41.26079],[16.30569,41.26194],[16.30764,41.26264],[16.30847,41.26208],[16.30875,41.26181],[16.31097,41.26181],[16.31292,41.26042],[16.31486,41.26083],[16.31708,41.25931],[16.31681,41.25792],[16.31875,41.25792],[16.31903,41.25708],[16.31986,41.25764]],
          [[16.06042,41.23014],[16.06208,41.23097],[16.06264,41.23218],[16.06431,41.23042],[16.06597,41.23014]]
        ]
      }
    },
    {
      "type": "Feature",
      "properties": {"kind": "contour", "elevation": 90},
      "geometry": {
        "type": "MultiLineString",
        "coordinates": [
          [[16.03014,41.27792],[16.03125,41.27958],[16.03486,41.27931],[16.03569,41.28042],[16.03514,41.28292],[16.03681,41.28347],[16.03931,41.28681],[16.04097,41.28611],[16.04153,41.28736],[16.04292,41.28481],[16.04681,41.28444],[16.05125,41.28625],[16.05597,41.28014],[16.05208,41.27931],[16.04986,41.27708],[16.05069,41.27486],[16.04542,41.27319],[16.04486,41.27097],[16.04264,41.27069],[16.04097,41.26861],[16.03986,41.26884],[16.03403,41.26458],[16.03319,41.2625],[16.03014,41.26167]],
          [[16.07611,41.23014],[16.07639,41.23264],[16.06903,41.24042],[16.06819,41.24431],[16.07069,41.24581],[16.07542,41.24653],[16.07931,41.24264],[16.08125,41.24375],[16.08125,41.24486],[16.08375,41.24653],[16.08047,41.25236],[16.08153,41.25431],[16.0808,41.25542],[16.08097,41.25708],[16.08181,41.25819],[16.08375,41.25847],[16.08338,41.25986],[16.08569,41.26142],[16.08736,41.26181],[16.09042,41.26069],[16.09005,41.26597],[16.09236,41.26642],[16.09458,41.26486],[16.09736,41.26493],[16.09931,41.26397],[16.10097,41.26005],[16.10514,41.26181],[16.10708,41.26069],[16.11014,41.26097],[16.11153,41.26028],[16.11069,41.26292],[16.10542,41.26625],[16.10653,41.26931],[16.10528,41.27097],[16.1069,41.27236],[16.10708,41.27486],[16.10958,41.27662],[16.11458,41.27486],[16.11792,41.27495],[16.11819,41.27125],[16.12236,41.27014],[16.12486,41.27042],[16.12389,41.27097],[16.12569,41.27375],[16.13153,41.27468],[16.13347,41.27625],[16.13236,41.27792],[16.13431,41.27847],[16.13681,41.27764],[16.13819,41.27597],[16.13639,41.27403],[16.13653,41.27208],[16.13514,41.27218],[16.13347,41.27014],[16.13347,41.26903],[16.13653,41.26736],[16.13681,41.26458],[16.13569,41.26319],[16.13597,41.26264],[16.13375,41.26236],[16.13347,41.26153],[16.13319,41.26125],[16.13347,41.26153],[16.13458,41.26153],[16.13375,41.26014],[16.13458,41.25958],[16.13819,41.26014],[16.14153,41.26338],[16.14597,41.26458],[16.14542,41.26292],[16.14667,41.25931],[16.14181,41.25514],[16.14597,41.25458],[16.14708,41.25236],[16.15125,41.25125],[16.15069,41.24986],[16.15458,41.24979],[16.15625,41.25208],[16.15486,41.25292],[16.15542,41.25375],[16.15875,41.25319],[16.15958,41.25458],[16.15931,41.25708],[16.15736,41.25715],[16.15597,41.25847],[16.15625,41.26181],[16.15875,41.26273],[16.16208,41.26199],[16.16403,41.26319],[16.16569,41.26292],[16.16597,41.26125],[16.16431,41.25986],[16.16792,41.25931],[16.16931,41.25755],[16.17042,41.25792],[16.17153,41.25375],[16.17542,41.25417],[16.17819,41.25282],[16.18208,41.25347],[16.18375,41.25208],[16.18431,41.24819],[16.18625,41.25144],[16.19208,41.25181],[16.20069,41.25708],[16.20245,41.25653],[16.20458,41.25199],[16.20792,41.25569],[16.20681,41.25653],[16.20708,41.25847],[16.20931,41.25875],[16.21208,41.26079],[16.21514,41.26042],[16.21597,41.26153],[16.21477,41.26292],[16.21597,41.26319],[16.21986,41.25819],[16.22042,41.26125],[16.22431,41.26403],[16.22569,41.26264],[16.22819,41.26292],[16.22819,41.26417],[16.22958,41.26375],[16.23125,41.26097],[16.23347,41.26139],[16.23542,41.25968],[16.23495,41.25764],[16.23347,41.25681],[16.23375,41.25458],[16.23569,41.25097],[16.23042,41.24514],[16.23097,41.24361],[16.23403,41.24569],[16.23486,41.2475],[16.23681,41.24736],[16.23736,41.24806],[16.23792,41.24681],[16.23986,41.24736],[16.23889,41.24931],[16.24194,41.25097],[16.24076,41.25208],[16.24054,41.25486],[16.24264,41.25532],[16.24449,41.25764],[16.24486,41.25903],[16.24333,41.25958],[16.24458,41.26153],[16.24681,41.25931],[16.24917,41.25264],[16.25153,41.25125],[16.25236,41.24708],[16.25458,41.24792],[16.25264,41.25403],[16.25028,41.25681],[16.25167,41.25958],[16.25042,41.26097],[16.25097,41.26153],[16.25403,41.26125],[16.25653,41.26208],[16.25792,41.26069],[16.25792,41.25792],[16.26042,41.25458],[16.26486,41.25147],[16.26153,41.25597],[16.26125,41.25847],[16.26431,41.26014],[16.26486,41.26208],[16.26819,41.26181],[16.26847,41.26014],[16.27069,41.26028],[16.27181,41.25875],[16.27264,41.25986],[16.27403,41.25903],[16.27597,41.26042],[16.27986,41.26181],[16.28014,41.26347],[16.28319,41.26319],[16.28708,41.26153],[16.28903,41.26431],[16.29708,41.26431],[16.29792,41.26208],[16.29986,41.26222],[16.30264,41.26028],[16.30236,41.25819],[16.30486,41.25764],[16.30486,41.25597],[16.30736,41.25486],[16.30931,41.25486],[16.30847,41.25681],[16.31208,41.25819],[16.31264,41.25708],[16.31412,41.25708],[16.31403,41.25514],[16.31986,41.25444]],
          [[16.07139,41.23014],[16.07208,41.23181],[16.07486,41.23125],[16.07556,41.23014]]
        ]
      }
    },
    {
      "type": "Feature",
      "properties": {"kind": "contour", "elevation": 100},
      "geometry": {
        "type": "MultiLineString",
        "coordinates": [
          [[16.03014,41.27167],[16.03236,41.27208],[16.03097,41.27625],[16.04042,41.27708],[16.04042,41.27847],[16.03736,41.28097],[16.03736,41.28208],[16.04097,41.28472],[16.04319,41.28449],[16.04625,41.2825],[16.05014,41.28361],[16.05014,41.28208],[16.05153,41.28236],[16.05264,41.28153],[16.04986,41.28097],[16.05,41.27847],[16.04847,41.27736],[16.04931,41.27542],[16.04292,41.27458],[16.04347,41.27236],[16.03875,41.27125],[16.03681,41.26806],[16.03153,41.26528],[16.03153,41.26319],[16.03014,41.26292]],
          [[16.07653,41.23014],[16.07884,41.23431],[16.07736,41.23486],[16.07569,41.23403],[16.07458,41.23625],[16.07273,41.23708],[16.06958,41.24125],[16.06958,41.24431],[16.07208,41.24564],[16.07468,41.24514],[16.07778,41.24347],[16.07875,41.24069],[16.08153,41.23819],[16.08097,41.24153],[16.08292,41.24431],[16.08569,41.24542],[16.08495,41.24847],[16.08106,41.25208],[16.08264,41.25347],[16.0812,41.25569],[16.08236,41.25764],[16.08472,41.25792],[16.08653,41.26083],[16.09153,41.25819],[16.09458,41.25847],[16.09042,41.26569],[16.09764,41.26347],[16.09847,41.25986],[16.10097,41.25806],[16.10319,41.25792],[16.10458,41.25958],[16.10931,41.25931],[16.11042,41.25847],[16.10986,41.25542],[16.11097,41.25532],[16.11528,41.25819],[16.11125,41.26486],[16.10745,41.26625],[16.10806,41.26819],[16.10667,41.27042],[16.10884,41.27236],[16.10819,41.27431],[16.11181,41.27542],[16.11597,41.27319],[16.11708,41.26958],[16.11875,41.27056],[16.12069,41.26903],[16.12569,41.26917],[16.12625,41.2681],[16.12736,41.26931],[16.12542,41.27181],[16.12819,41.27329],[16.13097,41.2725],[16.13292,41.27431],[16.13319,41.27431],[16.13486,41.27319],[16.13236,41.27208],[16.13125,41.26847],[16.13347,41.26653],[16.13278,41.26542],[16.13389,41.26458],[16.12792,41.26111],[16.12542,41.25819],[16.12708,41.25912],[16.13069,41.25894],[16.13319,41.25681],[16.13792,41.25667],[16.13819,41.25458],[16.14125,41.25347],[16.14236,41.25097],[16.14958,41.25014],[16.14931,41.24847],[16.14597,41.24773],[16.14514,41.24486],[16.14736,41.24727],[16.14986,41.24731],[16.15125,41.24875],[16.15375,41.24903],[16.15514,41.24764],[16.15986,41.24819],[16.16042,41.24819],[16.15986,41.24819],[16.15736,41.24986],[16.15847,41.25069],[16.16069,41.25014],[16.16403,41.25208],[16.16514,41.25153],[16.16931,41.25264],[16.17264,41.24986],[16.17347,41.24986],[16.17319,41.25069],[16.17625,41.25125],[16.17819,41.25014],[16.17903,41.25097],[16.18153,41.24986],[16.18208,41.25042],[16.18347,41.24764],[16.18125,41.24292],[16.18347,41.24472],[16.18625,41.24986],[16.19431,41.25042],[16.19486,41.25236],[16.19542,41.25153],[16.19903,41.25357],[16.20097,41.25361],[16.20264,41.25236],[16.20354,41.24958],[16.20153,41.24542],[16.20292,41.24681],[16.20542,41.24708],[16.20542,41.25083],[16.21042,41.25292],[16.21097,41.25431],[16.20903,41.2575],[16.21542,41.25792],[16.21653,41.25875],[16.21847,41.25625],[16.21875,41.25403],[16.22181,41.25477],[16.22319,41.25403],[16.22403,41.25458],[16.22208,41.26014],[16.22292,41.25917],[16.22653,41.25986],[16.22597,41.25875],[16.22875,41.25875],[16.23069,41.25764],[16.23181,41.25486],[16.23097,41.25431],[16.23153,41.25236],[16.23347,41.25236],[16.23424,41.25069],[16.22745,41.24319],[16.22736,41.23958],[16.22653,41.23889],[16.22208,41.23912],[16.22181,41.23819],[16.22292,41.23792],[16.22292,41.23681],[16.22319,41.23653],[16.22653,41.23625],[16.22875,41.23708],[16.22931,41.23653],[16.22958,41.24042],[16.23431,41.24319],[16.23597,41.24569],[16.23708,41.24625],[16.23875,41.24514],[16.2425,41.24625],[16.24056,41.24792],[16.24056,41.24958],[16.24458,41.24958],[16.24173,41.25181],[16.24125,41.25431],[16.24431,41.25486],[16.24597,41.25611],[16.24764,41.25403],[16.24736,41.25264],[16.25069,41.25069],[16.25028,41.24931],[16.25153,41.24819],[16.25069,41.24681],[16.25167,41.24431],[16.24792,41.24403],[16.24688,41.24181],[16.25014,41.24181],[16.25153,41.24032],[16.25708,41.24069],[16.25736,41.23921],[16.25931,41.23819],[16.26014,41.23875],[16.26181,41.23819],[16.26333,41.24014],[16.25653,41.24597],[16.25347,41.25542],[16.25236,41.25625],[16.25292,41.25681],[16.25431,41.25625],[16.25569,41.25736],[16.26319,41.25153],[16.26681,41.25042],[16.26986,41.24792],[16.27208,41.24903],[16.27014,41.2491],[16.26792,41.25147],[16.26514,41.25236],[16.26375,41.25458],[16.26458,41.25653],[16.26764,41.25708],[16.26792,41.25792],[16.26792,41.25681],[16.27153,41.25625],[16.27653,41.25792],[16.27681,41.25681],[16.27903,41.25764],[16.28125,41.25875],[16.28403,41.25819],[16.28514,41.25958],[16.28847,41.25764],[16.28792,41.26116],[16.29042,41.26264],[16.29264,41.26264],[16.29514,41.26042],[16.29792,41.26014],[16.29958,41.25792],[16.29931,41.25597],[16.30069,41.25653],[16.30264,41.25542],[16.30181,41.25486],[16.30347,41.25347],[16.30625,41.25236],[16.30764,41.25292],[16.30819,41.25208],[16.31042,41.25264],[16.31181,41.25139],[16.31486,41.25153],[16.31486,41.25236],[16.31708,41.25153],[16.31569,41.25097],[16.31764,41.24931],[16.31986,41.24884]]
        ]
      }
    },
    {
      "type": "Feature",
      "properties": {"kind": "contour", "elevation": 110},
      "geometry": {
        "type": "MultiLineString",
        "coordinates": [
          [[16.04708,41.27556],[16.04431,41.27625],[16.04375,41.27875],[16.04069,41.28097],[16.04125,41.28153],[16.04431,41.28153],[16.04486,41.27875],[16.04736,41.27792],[16.04708,41.27556]],
          [[16.07701,41.23014],[16.07986,41.23403],[16.07326,41.23736],[16.07319,41.23931],[16.07023,41.24125],[16.07014,41.24403],[16.07153,41.24472],[16.07292,41.24319],[16.07458,41.24431],[16.07708,41.24236],[16.08014,41.23764],[16.08264,41.23639],[16.08486,41.23653],[16.08236,41.23986],[16.08264,41.24347],[16.08931,41.24431],[16.08644,41.24653],[16.08653,41.24819],[16.08347,41.24986],[16.08162,41.25208],[16.08403,41.25347],[16.08208,41.25604],[16.08569,41.25681],[16.08708,41.25889],[16.09181,41.25597],[16.09542,41.25653],[16.09708,41.25583],[16.09931,41.25681],[16.10153,41.25542],[16.10486,41.25764],[16.10625,41.25708],[16.10764,41.25764],[16.10764,41.25569],[16.10569,41.25347],[16.10653,41.25125],[16.10736,41.25236],[16.11125,41.25292],[16.11292,41.25542],[16.11611,41.25597],[16.11542,41.26125],[16.11278,41.26292],[16.11389,41.26486],[16.10986,41.26597],[16.10847,41.27069],[16.11319,41.27153],[16.11431,41.26931],[16.11625,41.26875],[16.11597,41.26819],[16.11792,41.26847],[16.12097,41.26625],[16.12764,41.26597],[16.12792,41.26653],[16.12903,41.26542],[16.13069,41.26417],[16.12431,41.26181],[16.12347,41.25736],[16.12236,41.25736],[16.12292,41.25653],[16.12042,41.25292],[16.12181,41.25153],[16.12153,41.25125],[16.12181,41.25153],[16.12264,41.25153],[16.12292,41.25153],[16.12681,41.25403],[16.12681,41.25819],[16.12875,41.25854],[16.13014,41.25806],[16.13125,41.25514],[16.13264,41.25431],[16.13625,41.255],[16.13736,41.25347],[16.13931,41.25333],[16.13986,41.25236],[16.13819,41.24958],[16.13958,41.24958],[16.14403,41.24653],[16.14444,41.24181],[16.14333,41.24097],[16.14458,41.23875],[16.14625,41.23819],[16.14542,41.23958],[16.14875,41.24153],[16.14708,41.24431],[16.14792,41.24653],[16.15153,41.24722],[16.15681,41.24653],[16.15708,41.24708],[16.15708,41.24625],[16.16014,41.24743],[16.16292,41.24653],[16.16375,41.24514],[16.16542,41.24514],[16.16597,41.24597],[16.16458,41.24597],[16.16542,41.24819],[16.16444,41.24875],[16.16486,41.25042],[16.16819,41.25042],[16.17069,41.24806],[16.17264,41.24806],[16.17181,41.24708],[16.17292,41.24625],[16.17847,41.24486],[16.17958,41.24264],[16.17931,41.23847],[16.17681,41.23764],[16.17958,41.23708],[16.18208,41.24264],[16.18375,41.24354],[16.18625,41.24292],[16.18764,41.24486],[16.18597,41.24514],[16.18597,41.24597],[16.18792,41.24667],[16.18819,41.24597],[16.19097,41.24792],[16.19458,41.24727],[16.19764,41.24486],[16.19792,41.24625],[16.19958,41.24569],[16.19958,41.24431],[16.20097,41.24431],[16.20347,41.24069],[16.20514,41.24431],[16.20819,41.24542],[16.20806,41.24958],[16.21069,41.25042],[16.21069,41.25153],[16.21264,41.25069],[16.21208,41.24986],[16.21403,41.24931],[16.21375,41.24819],[16.21681,41.24792],[16.21681,41.25125],[16.21903,41.25208],[16.22014,41.25125],[16.22181,41.25264],[16.22347,41.25125],[16.22653,41.25458],[16.22819,41.25375],[16.23236,41.24931],[16.23097,41.24931],[16.22958,41.24792],[16.22889,41.24486],[16.22597,41.24347],[16.22542,41.24005],[16.22181,41.23963],[16.21889,41.23764],[16.21903,41.23444],[16.22153,41.23208],[16.22153,41.23444],[16.22486,41.23375],[16.22681,41.23514],[16.22875,41.23514],[16.23097,41.23375],[16.23292,41.23403],[16.23097,41.23569],[16.2306,41.23986],[16.23347,41.24218],[16.23514,41.24181],[16.23653,41.24458],[16.23931,41.2434],[16.24069,41.24514],[16.24458,41.24347],[16.24736,41.24458],[16.24639,41.24181],[16.24951,41.23847],[16.24875,41.23569],[16.25125,41.23653],[16.25431,41.23958],[16.26069,41.23653],[16.26458,41.23708],[16.26569,41.24097],[16.26431,41.24292],[16.26153,41.24431],[16.26208,41.24569],[16.26042,41.24611],[16.25903,41.24847],[16.25708,41.24875],[16.25486,41.25208],[16.25653,41.25375],[16.25847,41.25389],[16.26292,41.25042],[16.26458,41.25047],[16.26958,41.24736],[16.27153,41.24736],[16.27201,41.24403],[16.27431,41.24153],[16.27329,41.24458],[16.27486,41.24736],[16.27208,41.25007],[16.26986,41.25042],[16.26986,41.25125],[16.27042,41.25181],[16.26986,41.25125],[16.26903,41.25181],[16.27042,41.25208],[16.27236,41.25403],[16.27681,41.25319],[16.27847,41.255],[16.27875,41.25333],[16.28181,41.25542],[16.28375,41.25569],[16.28486,41.25597],[16.28403,41.25542],[16.28569,41.25403],[16.28986,41.25375],[16.29042,41.25542],[16.29208,41.25486],[16.29181,41.25569],[16.29208,41.25597],[16.29181,41.25569],[16.29208,41.25597],[16.29264,41.25667],[16.29403,41.25542],[16.29486,41.25569],[16.29653,41.25319],[16.2975,41.25347],[16.29708,41.25181],[16.29903,41.25319],[16.30014,41.25292],[16.29986,41.25153],[16.30208,41.25125],[16.30347,41.24958],[16.30542,41.25042],[16.30819,41.24819],[16.31181,41.24819],[16.31236,41.24903],[16.31347,41.24681],[16.31403,41.24819],[16.31431,41.24681],[16.31708,41.24528],[16.31847,41.24699],[16.31986,41.24662]]
        ]
      }
    },
    {
      "type": "Feature",
      "properties": {"kind": "contour", "elevation": 120},
      "geometry": {
        "type": "MultiLineString",
        "coordinates": [
          [[16.08,41.23014],[16.07931,41.23125],[16.08069,41.23264],[16.08032,41.23431],[16.0766,41.23569],[16.07569,41.23753],[16.07403,41.23764],[16.07528,41.23875],[16.07292,41.24125],[16.07486,41.24083],[16.07625,41.24153],[16.07653,41.24],[16.07986,41.23671],[16.08819,41.23472],[16.08324,41.23875],[16.08319,41.24319],[16.08958,41.24247],[16.09222,41.24347],[16.08701,41.24653],[16.0875,41.24875],[16.08486,41.24944],[16.08306,41.25208],[16.08542,41.25347],[16.08264,41.25549],[16.08875,41.255],[16.09375,41.25319],[16.09375,41.25458],[16.09625,41.25458],[16.09792,41.25278],[16.10097,41.25264],[16.10181,41.25125],[16.10292,41.25264],[16.10319,41.25097],[16.10514,41.25014],[16.10486,41.24903],[16.10819,41.24819],[16.10819,41.25125],[16.11403,41.25208],[16.11389,41.25347],[16.11625,41.25431],[16.11833,41.25208],[16.11375,41.24736],[16.11347,41.24736],[16.11292,41.24681],[16.11347,41.24736],[16.11375,41.24736],[16.11514,41.24514],[16.11847,41.24403],[16.11958,41.24458],[16.11958,41.24736],[16.12153,41.24847],[16.12319,41.24792],[16.12292,41.24958],[16.12486,41.25],[16.12583,41.25208],[16.12847,41.25403],[16.13236,41.25278],[16.13486,41.25375],[16.13681,41.25236],[16.13556,41.24847],[16.13903,41.24824],[16.14125,41.24708],[16.13792,41.24042],[16.13847,41.23903],[16.14208,41.23958],[16.14236,41.23681],[16.14542,41.23625],[16.14528,41.23514],[16.14319,41.235],[16.14236,41.23347],[16.14236,41.23208],[16.14375,41.23125],[16.14431,41.23292],[16.14778,41.23431],[16.15014,41.23958],[16.15319,41.23986],[16.15458,41.24042],[16.15431,41.24319],[16.15236,41.24264],[16.15194,41.24347],[16.15458,41.24486],[16.15875,41.24319],[16.16125,41.24431],[16.16236,41.24264],[16.16486,41.24278],[16.16653,41.24014],[16.16875,41.23958],[16.16764,41.24722],[16.17125,41.24607],[16.17403,41.24394],[16.17736,41.24319],[16.17639,41.23986],[16.17375,41.23819],[16.17486,41.23819],[16.17403,41.23792],[16.17347,41.23681],[16.175,41.23597],[16.17375,41.23403],[16.17486,41.23236],[16.17764,41.23616],[16.17903,41.23431],[16.18014,41.23458],[16.18028,41.23597],[16.18153,41.23625],[16.18153,41.23838],[16.18319,41.23764],[16.18625,41.24069],[16.18931,41.24042],[16.19236,41.24403],[16.19125,41.24458],[16.19236,41.24542],[16.19514,41.24458],[16.19653,41.24236],[16.19903,41.24208],[16.19986,41.24069],[16.19903,41.23958],[16.20069,41.23681],[16.20347,41.23681],[16.20486,41.23486],[16.20625,41.23597],[16.20569,41.23764],[16.20681,41.24125],[16.20875,41.24208],[16.20875,41.24347],[16.21097,41.24347],[16.21125,41.24514],[16.21458,41.24486],[16.21736,41.24264],[16.21875,41.24403],[16.21958,41.24347],[16.21931,41.24486],[16.22097,41.24403],[16.21986,41.24611],[16.22292,41.24542],[16.22431,41.24597],[16.22264,41.24347],[16.22319,41.24208],[16.22097,41.24181],[16.22097,41.24042],[16.21681,41.23847],[16.21764,41.23736],[16.21681,41.23597],[16.21838,41.23486],[16.21745,41.23347],[16.22111,41.23153],[16.2209,41.23014]],
          [[16.22292,41.23014],[16.22514,41.23181],[16.22764,41.23208],[16.22931,41.23384],[16.22986,41.23292],[16.23542,41.23236],[16.23167,41.23653],[16.2325,41.23986],[16.23764,41.24162],[16.24069,41.24125],[16.24153,41.24208],[16.24486,41.24181],[16.24833,41.23819],[16.24681,41.23314],[16.24958,41.23347],[16.24931,41.23514],[16.25236,41.23653],[16.25347,41.23588],[16.25903,41.23681],[16.26069,41.23542],[16.26319,41.23667],[16.26542,41.23486],[16.26542,41.23681],[16.26819,41.23847],[16.26653,41.24153],[16.26431,41.24625],[16.26569,41.24708],[16.26597,41.24514],[16.26708,41.24514],[16.26736,41.24625],[16.26764,41.24597],[16.26931,41.24569],[16.26931,41.24472],[16.27097,41.24431],[16.27319,41.24181],[16.27465,41.23653],[16.28042,41.235],[16.28181,41.23292],[16.28153,41.23486],[16.27681,41.23675],[16.27576,41.23819],[16.27431,41.24458],[16.27708,41.24736],[16.27514,41.24903],[16.27653,41.25014],[16.27736,41.24889],[16.27875,41.25056],[16.28181,41.24921],[16.28403,41.25014],[16.28458,41.24903],[16.28736,41.24986],[16.28764,41.25069],[16.29014,41.24958],[16.29347,41.25097],[16.29431,41.24931],[16.30042,41.24875],[16.30375,41.24653],[16.30708,41.24667],[16.30736,41.24569],[16.30875,41.24625],[16.31264,41.24542],[16.31347,41.24375],[16.31264,41.24292],[16.31375,41.24347],[16.31458,41.24255],[16.31625,41.24329],[16.31681,41.24264],[16.31708,41.24412],[16.31861,41.24319],[16.31764,41.24208],[16.31986,41.24236]]
        ]
      }
    },
    {
      "type": "Feature",
      "properties": {"kind": "contour", "elevation": 130},
      "geometry": {
        "type": "MultiLineString",
        "coordinates": [
          [[16.08102,41.23014],[16.08042,41.23181],[16.08144,41.23319],[16.07958,41.23583],[16.08653,41.23338],[16.09069,41.23375],[16.08389,41.23875],[16.08347,41.24208],[16.08542,41.24236],[16.08792,41.24255],[16.09042,41.24134],[16.09153,41.24273],[16.0944,41.24236],[16.08764,41.24681],[16.08736,41.24771],[16.09014,41.24903],[16.08583,41.24986],[16.08653,41.25069],[16.08569,41.25181],[16.08736,41.25264],[16.08903,41.25125],[16.08903,41.24958],[16.08986,41.25014],[16.09125,41.24958],[16.09097,41.25097],[16.09236,41.25153],[16.09681,41.25139],[16.09986,41.24847],[16.10236,41.24833],[16.10208,41.24708],[16.10597,41.24653],[16.10542,41.24542],[16.10986,41.24458],[16.11208,41.24292],[16.11458,41.24292],[16.11514,41.24125],[16.12014,41.23917],[16.12181,41.23708],[16.12208,41.23903],[16.12042,41.24208],[16.12194,41.24431],[16.12097,41.24597],[16.12208,41.24653],[16.12569,41.24597],[16.12847,41.25069],[16.12764,41.25097],[16.12903,41.2519],[16.12903,41.25125],[16.13181,41.25153],[16.13319,41.25014],[16.13486,41.25056],[16.13319,41.24819],[16.13486,41.24616],[16.13681,41.24653],[16.13736,41.24764],[16.13986,41.24653],[16.13875,41.24389],[16.13458,41.24236],[16.13347,41.24042],[16.13347,41.23903],[16.13569,41.23847],[16.13625,41.23625],[16.13764,41.23639],[16.13847,41.23403],[16.13986,41.23375],[16.13847,41.23236],[16.13792,41.23375],[16.13625,41.23431],[16.13569,41.23014]],
          [[16.28361,41.23014],[16.28264,41.23153],[16.28389,41.23375],[16.28292,41.23386],[16.27894,41.23708],[16.27708,41.23736],[16.27634,41.24069],[16.27653,41.24319],[16.27847,41.24347],[16.27764,41.24431],[16.28069,41.24542],[16.28292,41.24458],[16.28208,41.24569],[16.28292,41.24653],[16.28403,41.24625],[16.28569,41.24699],[16.28708,41.24569],[16.29042,41.24597],[16.29125,41.24514],[16.29097,41.24597],[16.29347,41.24708],[16.29542,41.24514],[16.30069,41.24597],[16.30375,41.24431],[16.30431,41.24486],[16.30653,41.24292],[16.30569,41.24208],[16.30819,41.24375],[16.31208,41.24153],[16.31486,41.24181],[16.31431,41.24125],[16.31569,41.24097],[16.31764,41.23792],[16.31792,41.23875],[16.31986,41.23875]],
          [[16.14625,41.23014],[16.14653,41.23153],[16.14958,41.23222],[16.15236,41.23736],[16.15403,41.23681],[16.15597,41.23819],[16.15764,41.2419],[16.16153,41.24042],[16.16347,41.24104],[16.16486,41.24042],[16.16597,41.23694],[16.16875,41.23801],[16.17014,41.23764],[16.17347,41.23014]],
          [[16.17847,41.23014],[16.18042,41.23153],[16.18403,41.23236],[16.18403,41.23347],[16.18597,41.23458],[16.18514,41.23542],[16.18569,41.23736],[16.18736,41.23875],[16.19042,41.23889],[16.19264,41.24014],[16.19347,41.24208],[16.19681,41.24069],[16.19819,41.23708],[16.19486,41.23431],[16.19569,41.23366],[16.19764,41.2344],[16.19764,41.23347],[16.19958,41.2325],[16.20153,41.23292],[16.20347,41.23153],[16.20292,41.23042],[16.20431,41.23014]],
          [[16.20792,41.23014],[16.20722,41.23208],[16.20903,41.23403],[16.20764,41.23847],[16.21153,41.24097],[16.21542,41.23903],[16.21569,41.23458],[16.21458,41.23236],[16.21681,41.23125],[16.21736,41.23194],[16.21958,41.23125],[16.22014,41.23014]],
          [[16.23771,41.23014],[16.23743,41.23181],[16.23431,41.23542],[16.23403,41.23903],[16.23625,41.23972],[16.23736,41.23903],[16.23819,41.23986],[16.24264,41.24051],[16.24486,41.24014],[16.2466,41.23736],[16.24542,41.23347],[16.24708,41.23208],[16.24986,41.23278],[16.25144,41.23014]],
          [[16.25403,41.23014],[16.25181,41.23347],[16.25875,41.23486],[16.26458,41.23431],[16.26653,41.23306],[16.26847,41.23736],[16.26986,41.23764],[16.26921,41.23931],[16.27097,41.24028],[16.27181,41.23958],[16.27125,41.23819],[16.27375,41.23792],[16.27486,41.23569],[16.28014,41.23347],[16.27986,41.23014]],
          [[16.22986,41.23014],[16.23347,41.23218],[16.23486,41.23181],[16.2356,41.23014]]
        ]
      }
    },
    {
      "type": "Feature",
      "properties": {"kind": "contour", "elevation": 140},
      "geometry": {
        "type": "MultiLineString",
        "coordinates": [
          [[16.08171,41.23014],[16.0809,41.23181],[16.08208,41.23417],[16.08514,41.23255],[16.08903,41.23299],[16.09125,41.23153],[16.09264,41.23271],[16.09431,41.23264],[16.09236,41.23449],[16.08618,41.23764],[16.08427,41.23958],[16.08444,41.24069],[16.08597,41.24069],[16.08736,41.24188],[16.09014,41.24042],[16.09236,41.24153],[16.09653,41.24153],[16.09569,41.24306],[16.0894,41.24625],[16.09042,41.24736],[16.09347,41.24681],[16.09542,41.24528],[16.09653,41.24569],[16.10042,41.24319],[16.10181,41.24375],[16.10486,41.24264],[16.10514,41.24125],[16.10597,41.24236],[16.11347,41.23875],[16.11792,41.23819],[16.11833,41.23708],[16.11431,41.23431],[16.11403,41.23236],[16.11542,41.23361],[16.12319,41.23569],[16.12431,41.23931],[16.12264,41.24097],[16.12375,41.24153],[16.12458,41.24097],[16.12431,41.24181],[16.12375,41.24153],[16.12403,41.24208],[16.12514,41.24264],[16.12653,41.24181],[16.12792,41.24264],[16.12819,41.24153],[16.13014,41.24347],[16.13125,41.24319],[16.13042,41.24236],[16.13014,41.24181],[16.13181,41.24097],[16.12819,41.23875],[16.13347,41.23708],[16.13437,41.23458],[16.13208,41.23014]],
          [[16.28653,41.23014],[16.28708,41.23069],[16.28361,41.23153],[16.28597,41.23542],[16.28431,41.23542],[16.28458,41.23412],[16.28306,41.23431],[16.28264,41.23542],[16.27829,41.23875],[16.27986,41.23875],[16.27931,41.24042],[16.28153,41.24153],[16.28764,41.24125],[16.28819,41.24264],[16.28931,41.24264],[16.28958,41.24153],[16.29069,41.24181],[16.29097,41.24181],[16.29236,41.24042],[16.29431,41.24153],[16.29431,41.24278],[16.29764,41.23931],[16.29875,41.23986],[16.30014,41.23847],[16.30042,41.23819],[16.30153,41.23792],[16.30181,41.23764],[16.30347,41.23708],[16.30347,41.23875],[16.30569,41.23773],[16.30792,41.23792],[16.30819,41.23764],[16.31014,41.23792],[16.31014,41.23681],[16.31208,41.23722],[16.31653,41.23556],[16.31708,41.23375],[16.31903,41.23458],[16.31875,41.23236],[16.31764,41.23208],[16.31986,41.23181]],
          [[16.18653,41.23014],[16.18611,41.23236],[16.18819,41.23347],[16.18847,41.23486],[16.18671,41.23681],[16.18764,41.23764],[16.19125,41.23736],[16.19208,41.23847],[16.19236,41.23764],[16.19375,41.23792],[16.19403,41.23625],[16.19069,41.23375],[16.19097,41.23292],[16.19403,41.23306],[16.19569,41.23097],[16.19875,41.23097],[16.19903,41.23014]],
          [[16.23931,41.23014],[16.23764,41.23681],[16.23708,41.23681],[16.23736,41.23708],[16.23764,41.23681],[16.23875,41.23736],[16.23931,41.23653],[16.24042,41.23736],[16.24097,41.23681],[16.24292,41.23792],[16.24514,41.23486],[16.24347,41.23458],[16.24347,41.23319],[16.24764,41.23014]],
          [[16.15167,41.23014],[16.15384,41.23514],[16.15736,41.23644],[16.15875,41.23792],[16.16181,41.23653],[16.16208,41.23403],[16.16486,41.23625],[16.16569,41.23542],[16.16681,41.23616],[16.16931,41.23569],[16.16861,41.23319],[16.17181,41.23014]],
          [[16.26986,41.23014],[16.26958,41.23181],[16.27125,41.23375],[16.27569,41.23292],[16.27542,41.23431],[16.27736,41.23236],[16.27778,41.23125],[16.27653,41.23069],[16.27722,41.23014]],
          [[16.21032,41.23014],[16.20833,41.23153],[16.21042,41.23282],[16.21264,41.23014]],
          [[16.25639,41.23014],[16.25653,41.23264],[16.26014,41.23236],[16.26042,41.23264],[16.26097,41.23236],[16.26069,41.23236],[16.26097,41.23236],[16.26375,41.23069],[16.26514,41.23014]],
          [[16.24861,41.23014],[16.24931,41.23097],[16.24986,41.23014]],
          [[16.1825,41.23014],[16.18403,41.23069],[16.18542,41.23014]],
          [[16.26847,41.23014],[16.26875,41.23069],[16.26958,41.23014]]
        ]
      }
    },
    {
      "type": "Feature",
      "properties": {"kind": "contour", "elevation": 150},
      "geometry": {
        "type": "MultiLineString",
        "coordinates": [
          [[16.08243,41.23014],[16.08208,41.23243],[16.08542,41.23111],[16.08986,41.23162],[16.09125,41.23069],[16.09375,41.23194],[16.09542,41.23139],[16.09653,41.23208],[16.09306,41.23486],[16.09125,41.23514],[16.08653,41.23792],[16.08736,41.23986],[16.09069,41.23903],[16.09403,41.23986],[16.09458,41.23866],[16.09653,41.23949],[16.09792,41.23819],[16.10403,41.23875],[16.10514,41.23792],[16.10625,41.24051],[16.10736,41.23986],[16.10681,41.23903],[16.10958,41.23764],[16.10903,41.23681],[16.11236,41.23625],[16.11222,41.23375],[16.11097,41.23375],[16.10903,41.23014]],
          [[16.11403,41.23014],[16.11514,41.23153],[16.11736,41.23181],[16.11792,41.23319],[16.12208,41.23347],[16.12319,41.23458],[16.12708,41.23403],[16.12889,41.23486],[16.12931,41.23639],[16.13181,41.23667],[16.13042,41.23431],[16.13208,41.23208],[16.12958,41.23014]],
          [[16.28889,41.23014],[16.28819,41.23181],[16.28681,41.23153],[16.28653,41.23236],[16.28903,41.23347],[16.29056,41.23292],[16.29014,41.23431],[16.28889,41.23458],[16.28986,41.23681],[16.29208,41.23569],[16.29153,41.23514],[16.29042,41.23625],[16.29014,41.23486],[16.29292,41.23431],[16.29431,41.23556],[16.29764,41.23431],[16.29889,41.23458],[16.29792,41.23403],[16.29903,41.2334],[16.29986,41.23439],[16.30014,41.2325],[16.30319,41.23236],[16.30375,41.23319],[16.30236,41.23375],[16.30625,41.23468],[16.30458,41.23111],[16.30569,41.23097],[16.30542,41.23208],[16.30653,41.23236],[16.30681,41.23208],[16.31042,41.23181],[16.31042,41.235],[16.31375,41.23486],[16.31556,41.23264],[16.31597,41.23014]],
          [[16.15333,41.23014],[16.1534,41.23292],[16.15507,41.23403],[16.15514,41.23542],[16.15903,41.23486],[16.15875,41.23292],[16.16181,41.23181],[16.16431,41.23472],[16.16514,41.23347],[16.16681,41.23347],[16.16681,41.23208],[16.16875,41.23222],[16.16958,41.23014]]
        ]
      }
    },
    {
      "type": "Feature",
      "properties": {"kind": "contour", "elevation": 160},
      "geometry": {
        "type": "MultiLineString",
        "coordinates": [
          [[16.10042,41.23014],[16.10069,41.23097],[16.09903,41.23236],[16.09431,41.23458],[16.09458,41.23486],[16.09625,41.23528],[16.09764,41.23403],[16.10042,41.23347],[16.10319,41.23403],[16.10569,41.23319],[16.10681,41.23153],[16.10431,41.23014]],
          [[16.15472,41.23014],[16.15542,41.23208],[16.15903,41.23014]],
          [[16.09403,41.23014],[16.09486,41.23069],[16.09542,41.23014]],
          [[16.30042,41.23014],[16.30181,41.23069],[16.30153,41.23014]]
        ]
      }
    },
    {
      "type": "Feature",
      "properties": {"kind": "place", "name": "Cannae"},
      "geometry": {
        "type": "Point",
        "coordinates": [16.1517, 41.2964]
      }
    },
    {
      "type": "Feature",
      "properties": {"kind": "place", "name": "Aufidus"},
      "geometry": {
        "type": "Point",
        "coordinates": [16.1998, 41.3592]
      }
    },
    {
      "type": "Feature",
      "properties": {"kind": "place", "name": "Barletta"},
      "geometry": {
        "type": "Point",
        "coordinates": [16.2833, 41.3167]
      }
    },
    {
      "type": "Feature",
      "properties": {"kind": "work", "name": "Roman camp"},
      "geometry": {
        "type": "Point",
        "coordinates": [16.1296, 41.3178]
      }
    },
    {
      "type": "Feature",
      "properties": {"kind": "work", "name": "Roman camp (smaller)"},
      "geometry": {
        "type": "Point",
        "coordinates": [16.1508, 41.3099]
      }
    },
    {
      "type": "Feature",
      "properties": {"kind": "work", "name": "Hannibal's camp"},
      "geometry": {
        "type": "Point",
        "coordinates": [16.0956, 41.2995]
      }
    }
  ]
}
