{
  "type": "FeatureCollection",
  "license": "CC-BY-4.0",
  "attribution": "Saltholm and the outer coast from Natural Earth 1:10m (public domain); the 1801 inner shoreline and the Middle Ground drawn by Marchpast contributors from Brydon's 1802 plan and Clowes's 1899 sketch, CC BY 4.0",
  "features": [
    {
      "type": "Feature",
      "properties": {
        "kind": "land"
      },
      "geometry": {
        "type": "Polygon",
        "coordinates": [
          [
            [12.5968, 55.78],
            [12.4, 55.78],
            [12.4, 55.618],
            [12.4036, 55.6192],
            [12.4237, 55.6188],
            [12.4368, 55.6144],
            [12.4486, 55.6089],
            [12.465, 55.6055],
            [12.4872, 55.6098],
            [12.4968, 55.6218],
            [12.5033, 55.634],
            [12.545, 55.652],
            [12.562, 55.665],
            [12.578, 55.674],
            [12.586, 55.679],
            [12.59, 55.685],
            [12.596, 55.69],
            [12.599, 55.6935],
            [12.595, 55.702],
            [12.592, 55.711],
            [12.59, 55.7195],
            [12.5892, 55.7243],
            [12.5879, 55.7291],
            [12.589, 55.7357],
            [12.5947, 55.753],
            [12.5959, 55.7742],
            [12.5968, 55.78]
          ]
        ]
      }
    },
    {
      "type": "Feature",
      "properties": {
        "kind": "land"
      },
      "geometry": {
        "type": "Polygon",
        "coordinates": [
          [
            [12.602, 55.693],
            [12.5951, 55.6914],
            [12.5781, 55.6664],
            [12.5674, 55.654],
            [12.5568, 55.647],
            [12.544, 55.6404],
            [12.531, 55.6319],
            [12.5202, 55.6192],
            [12.5205, 55.5967],
            [12.5348, 55.5693],
            [12.5455, 55.56],
            [12.5869, 55.56],
            [12.5889, 55.5613],
            [12.6057, 55.5693],
            [12.6242, 55.5756],
            [12.6394, 55.5783],
            [12.667, 55.588],
            [12.682, 55.5945],
            [12.674, 55.606],
            [12.666, 55.618],
            [12.656, 55.63],
            [12.645, 55.641],
            [12.635, 55.652],
            [12.6255, 55.663],
            [12.618, 55.673],
            [12.612, 55.683],
            [12.607, 55.689],
            [12.602, 55.693]
          ]
        ]
      }
    },
    {
      "type": "Feature",
      "properties": {
        "kind": "land"
      },
      "geometry": {
        "type": "Polygon",
        "coordinates": [
          [
            [12.782, 55.6276],
            [12.7823, 55.6476],
            [12.7796, 55.6609],
            [12.7715, 55.6683],
            [12.7621, 55.6712],
            [12.7528, 55.6691],
            [12.7437, 55.6623],
            [12.7346, 55.639],
            [12.7345, 55.6356],
            [12.7437, 55.6241],
            [12.7499, 55.6192],
            [12.7565, 55.6174],
            [12.7598, 55.6151],
            [12.7613, 55.6107],
            [12.7667, 55.6074],
            [12.7734, 55.6097],
            [12.7839, 55.6171],
            [12.7869, 55.6206],
            [12.787, 55.622],
            [12.782, 55.6276]
          ]
        ]
      }
    },
    {
      "type": "Feature",
      "properties": {
        "kind": "land"
      },
      "geometry": {
        "type": "Polygon",
        "coordinates": [
          [
            [12.6128, 55.7022],
            [12.6162, 55.7022],
            [12.6162, 55.704],
            [12.6128, 55.704],
            [12.6128, 55.7022]
          ]
        ]
      }
    },
    {
      "type": "Feature",
      "properties": {
        "kind": "shoal"
      },
      "geometry": {
        "type": "Polygon",
        "coordinates": [
          [
            [12.664, 55.658],
            [12.653, 55.665],
            [12.6435, 55.672],
            [12.6415, 55.68],
            [12.645, 55.688],
            [12.649, 55.696],
            [12.654, 55.704],
            [12.659, 55.712],
            [12.664, 55.72],
            [12.671, 55.7255],
            [12.68, 55.724],
            [12.686, 55.716],
            [12.69, 55.706],
            [12.692, 55.696],
            [12.6905, 55.686],
            [12.686, 55.676],
            [12.679, 55.668],
            [12.671, 55.661],
            [12.664, 55.658]
          ]
        ]
      }
    },
    {
      "type": "Feature",
      "properties": {
        "kind": "work",
        "name": "Trekroner"
      },
      "geometry": {
        "type": "Point",
        "coordinates": [12.6144, 55.7031]
      }
    },
    {
      "type": "Feature",
      "properties": {
        "kind": "place",
        "name": "Copenhagen"
      },
      "geometry": {
        "type": "Point",
        "coordinates": [12.5689, 55.6761]
      }
    },
    {
      "type": "Feature",
      "properties": {
        "kind": "place",
        "name": "Amager"
      },
      "geometry": {
        "type": "Point",
        "coordinates": [12.6167, 55.6167]
      }
    },
    {
      "type": "Feature",
      "properties": {
        "kind": "place",
        "name": "Draco (Dragør)"
      },
      "geometry": {
        "type": "Point",
        "coordinates": [12.6722, 55.5925]
      }
    },
    {
      "type": "Feature",
      "properties": {
        "kind": "place",
        "name": "Saltholm"
      },
      "geometry": {
        "type": "Point",
        "coordinates": [12.7667, 55.6333]
      }
    },
    {
      "type": "Feature",
      "properties": {
        "kind": "place",
        "name": "King's Deep"
      },
      "geometry": {
        "type": "Point",
        "coordinates": [12.64, 55.665]
      }
    },
    {
      "type": "Feature",
      "properties": {
        "kind": "place",
        "name": "Middle Ground"
      },
      "geometry": {
        "type": "Point",
        "coordinates": [12.668, 55.69]
      }
    }
  ]
}
