{
  "type": "FeatureCollection",
  "license": "public-domain",
  "attribution": "Coastline and reef: Natural Earth (public domain)",
  "features": [
    {
      "type": "Feature",
      "properties": {
        "kind": "land"
      },
      "geometry": {
        "type": "MultiPolygon",
        "coordinates": [
          [
            [
              [
                182.642345,
                28.214423
              ],
              [
                182.635549,
                28.207587
              ],
              [
                182.627818,
                28.202338
              ],
              [
                182.619273,
                28.19892
              ],
              [
                182.610403,
                28.197659
              ],
              [
                182.614757,
                28.206977
              ],
              [
                182.622,
                28.212836
              ],
              [
                182.631358,
                28.215318
              ],
              [
                182.642345,
                28.214423
              ]
            ]
          ],
          [
            [
              [
                182.671072,
                28.211086
              ],
              [
                182.677135,
                28.207668
              ],
              [
                182.678844,
                28.205878
              ],
              [
                182.6751,
                28.204983
              ],
              [
                182.664724,
                28.204291
              ],
              [
                182.671072,
                28.211086
              ]
            ]
          ],
          [
            [
              [
                181.709619,
                28.401679
              ],
              [
                181.712095,
                28.392989
              ],
              [
                181.707775,
                28.390091
              ],
              [
                181.701603,
                28.387372
              ],
              [
                181.697282,
                28.386465
              ],
              [
                181.695634,
                28.387912
              ],
              [
                181.702012,
                28.390993
              ],
              [
                181.705713,
                28.394978
              ],
              [
                181.707563,
                28.398057
              ],
              [
                181.709619,
                28.401679
              ]
            ]
          ]
        ]
      }
    },
    {
      "type": "Feature",
      "properties": {
        "kind": "shoal"
      },
      "geometry": {
        "type": "MultiPolygon",
        "coordinates": [
          [
            [
              [
                182.651528,
                28.187866
              ],
              [
                182.679666,
                28.189029
              ],
              [
                182.684162,
                28.206134
              ],
              [
                182.672638,
                28.246519
              ],
              [
                182.66406,
                28.258792
              ],
              [
                182.643493,
                28.268456
              ],
              [
                182.61861,
                28.274889
              ],
              [
                182.596906,
                28.277241
              ],
              [
                182.576442,
                28.215797
              ],
              [
                182.569415,
                28.207426
              ],
              [
                182.569337,
                28.19784
              ],
              [
                182.574453,
                28.188564
              ],
              [
                182.583264,
                28.181045
              ],
              [
                182.595098,
                28.176627
              ],
              [
                182.606105,
                28.177014
              ],
              [
                182.631039,
                28.181045
              ],
              [
                182.651528,
                28.187866
              ]
            ]
          ],
          [
            [
              [
                181.651615,
                28.373462
              ],
              [
                181.708666,
                28.391368
              ],
              [
                181.698822,
                28.425242
              ],
              [
                181.660219,
                28.445189
              ],
              [
                181.631126,
                28.421263
              ],
              [
                181.651615,
                28.373462
              ]
            ]
          ]
        ]
      }
    },
    {
      "type": "Feature",
      "properties": {
        "kind": "place",
        "name": "Midway"
      },
      "geometry": {
        "type": "Point",
        "coordinates": [
          182.627,
          28.207
        ]
      }
    },
    {
      "type": "Feature",
      "properties": {
        "kind": "place",
        "name": "Kure"
      },
      "geometry": {
        "type": "Point",
        "coordinates": [
          181.705,
          28.394
        ]
      }
    },
    {
      "type": "Feature",
      "properties": {
        "kind": "work",
        "name": "Naval Air Station Midway"
      },
      "geometry": {
        "type": "Point",
        "coordinates": [
          182.6723,
          28.2069
        ]
      }
    }
  ]
}
